{
"type": "FeatureCollection",
"name": "BJS-FERRY_LANE",
"features": [
{ "type": "Feature", "properties": { "Name": "BJS-FERRY_LANE" }, "geometry": { "type": "Polygon", "coordinates": [ [ [ -112.5221839, 46.0316537, 1941.356995 ], [ -112.522401, 46.0328614, 1941.356995 ], [ -112.5261808, 46.0325365, 1941.356995 ], [ -112.5264189, 46.0325169, 1941.356995 ], [ -112.5270411, 46.0324654, 1941.356995 ], [ -112.5281631, 46.0322267, 1941.356995 ], [ -112.530301, 46.0322127, 1941.356995 ], [ -112.5301358, 46.031878, 1941.356995 ], [ -112.5293996, 46.0318663, 1941.356995 ], [ -112.5278299, 46.0318377, 1941.356995 ], [ -112.5278251, 46.0315909, 1941.356995 ], [ -112.5274619, 46.0314936, 1941.356995 ], [ -112.526822, 46.0310544, 1941.356995 ], [ -112.5272249, 46.0304115, 1941.356995 ], [ -112.5255967, 46.030034, 1941.356995 ], [ -112.5252797, 46.0299668, 1941.356995 ], [ -112.5251291, 46.0303068, 1941.356995 ], [ -112.5249454, 46.0302827, 1941.356995 ], [ -112.5239694, 46.0317684, 1941.356995 ], [ -112.5232993, 46.0316552, 1941.356995 ], [ -112.5221839, 46.0316537, 1941.356995 ] ] ] } },
{ "type": "Feature", "properties": { "Name": "BJS-FERRY_LANE" }, "geometry": { "type": "Polygon", "coordinates": [ [ [ -112.5221839, 46.0316537, 1941.356995 ], [ -112.5232628, 46.031649, 1941.356995 ], [ -112.5239694, 46.0317684, 1941.356995 ], [ -112.5249454, 46.0302827, 1941.356995 ], [ -112.5251289, 46.0303071, 1941.356995 ], [ -112.5252797, 46.0299668, 1941.356995 ], [ -112.523206, 46.0295176, 1941.356995 ], [ -112.5235158, 46.0279956, 1941.356995 ], [ -112.525915, 46.0286997, 1941.356995 ], [ -112.5260318, 46.0284522, 1941.356995 ], [ -112.5232446, 46.0276429, 1941.356995 ], [ -112.5204608, 46.0273354, 1941.356995 ], [ -112.5199494, 46.0283661, 1941.356995 ], [ -112.5198596, 46.0283393, 1941.356995 ], [ -112.5193849, 46.0293789, 1941.356995 ], [ -112.5194204, 46.0293847, 1941.356995 ], [ -112.5193667, 46.0294533, 1941.356995 ], [ -112.5195052, 46.0295029, 1941.356995 ], [ -112.5193352, 46.0297414, 1941.356995 ], [ -112.5191841, 46.0296871, 1941.356995 ], [ -112.5184379, 46.0308312, 1941.356995 ], [ -112.5221492, 46.0314604, 1941.356995 ], [ -112.5221839, 46.0316537, 1941.356995 ] ] ] } }
]
}
