{
"type": "FeatureCollection",
"name": "CIV-WB",
"features": [
{ "type": "Feature", "properties": { "Name": "Load-WinterLake" }, "geometry": { "type": "LineString", "coordinates": [ [ -150.5296, 62.1060167, 0.0 ], [ -150.5296693, 62.1059857, 0.0 ], [ -150.5456582, 62.0981467, 0.0 ], [ -150.5465657, 62.0955035, 0.0 ], [ -150.5465252, 62.0928381, 0.0 ], [ -150.5477962, 62.0916533, 0.0 ], [ -150.5520167, 62.0904319, 0.0 ], [ -150.5575485, 62.0900856, 0.0 ], [ -150.5623169, 62.089474, 0.0 ], [ -150.5638034, 62.0893767, 0.0 ], [ -150.5875992, 62.078151, 0.0 ], [ -150.5885766, 62.077147, 0.0 ], [ -150.587992, 62.0756178, 0.0 ], [ -150.5881724, 62.0750642, 0.0 ], [ -150.5915239, 62.0741724, 0.0 ], [ -150.5917036, 62.0740742, 0.0 ], [ -150.5931423, 62.0735519, 0.0 ], [ -150.5989341, 62.0733991, 0.0 ], [ -150.5992753, 62.0734028, 0.0 ], [ -150.6016746, 62.0737411, 0.0 ], [ -150.6030849, 62.0735345, 0.0 ], [ -150.6054053, 62.0723827, 0.0 ], [ -150.606893, 62.0720475, 0.0 ], [ -150.6090548, 62.0705953, 0.0 ], [ -150.610049, 62.0704621, 0.0 ], [ -150.6121208, 62.0704355, 0.0 ], [ -150.6130349, 62.0701591, 0.0 ], [ -150.6131288, 62.069362, 0.0 ], [ -150.6123394, 62.0684121, 0.0 ], [ -150.612425, 62.0677447, 0.0 ], [ -150.6120933, 62.0665281, 0.0 ], [ -150.6119204, 62.06525, 0.0 ], [ -150.6280178, 62.0568481, 0.0 ], [ -150.6314785, 62.0570841, 0.0 ], [ -150.6337794, 62.0562351, 0.0 ], [ -150.641644, 62.0548046, 0.0 ], [ -150.6431976, 62.0548056, 0.0 ], [ -150.6455501, 62.0552156, 0.0 ], [ -150.6542137, 62.0599006, 0.0 ], [ -150.6546716, 62.0599412, 0.0 ], [ -150.6553394, 62.0597821, 0.0 ], [ -150.65664, 62.0595821, 0.0 ], [ -150.6576213, 62.059383, 0.0 ], [ -150.6584897, 62.0593846, 0.0 ], [ -150.6600465, 62.0590195, 0.0 ], [ -150.661407, 62.0585808, 0.0 ], [ -150.6623642, 62.0583866, 0.0 ], [ -150.6636417, 62.0584515, 0.0 ], [ -150.6654011, 62.058344, 0.0 ], [ -150.6675726, 62.0578872, 0.0 ], [ -150.6675983, 62.0578756, 0.0 ], [ -150.6714325, 62.0576454, 0.0 ], [ -150.674686, 62.0570619, 0.0 ], [ -150.6747131, 62.0570392, 0.0 ], [ -150.6772732, 62.0558684, 0.0 ], [ -150.6773002, 62.0558335, 0.0 ], [ -150.6793099, 62.0544561, 0.0 ], [ -150.6819329, 62.0521585, 0.0 ], [ -150.6847537, 62.051117, 0.0 ], [ -150.684849, 62.0510852, 0.0 ], [ -150.6900125, 62.0505326, 0.0 ], [ -150.6921364, 62.0504204, 0.0 ], [ -150.6922065, 62.0504654, 0.0 ], [ -150.6948474, 62.0508243, 0.0 ], [ -150.6972423, 62.0504033, 0.0 ], [ -150.6973144, 62.0503813, 0.0 ], [ -150.7014949, 62.0492749, 0.0 ], [ -150.7041418, 62.0488473, 0.0 ], [ -150.7066749, 62.0490132, 0.0 ], [ -150.7095845, 62.0499335, 0.0 ], [ -150.7120014, 62.050585, 0.0 ], [ -150.7153664, 62.0502258, 0.0 ], [ -150.717776, 62.0494695, 0.0 ], [ -150.7182003, 62.0477256, 0.0 ], [ -150.7208604, 62.0443515, 0.0 ], [ -150.7217107, 62.0423651, 0.0 ], [ -150.722141, 62.041113, 0.0 ], [ -150.7237544, 62.0404635, 0.0 ], [ -150.7253932, 62.0404275, 0.0 ], [ -150.7274806, 62.0413962, 0.0 ], [ -150.7278911, 62.0419892, 0.0 ], [ -150.7291522, 62.0418741, 0.0 ], [ -150.7293727, 62.0418254, 0.0 ], [ -150.7295931, 62.0417767, 0.0 ], [ -150.7299225, 62.0417292, 0.0 ], [ -150.7307828, 62.0419945, 0.0 ], [ -150.7321382, 62.0422363, 0.0 ], [ -150.7336786, 62.0420452, 0.0 ], [ -150.7349312, 62.04221, 0.0 ], [ -150.7396392, 62.0415183, 0.0 ], [ -150.7435513, 62.0408382, 0.0 ], [ -150.7441499, 62.0407344, 0.0 ], [ -150.7509202, 62.0448438, 0.0 ], [ -150.7615947, 62.0513711, 0.0 ], [ -150.7854321, 62.0660927, 0.0 ], [ -150.8476085, 62.0620114, 0.0 ], [ -150.852125, 62.0621531, 0.0 ], [ -150.8707979, 62.0591488, 0.0 ], [ -150.9212521, 62.0515717, 0.0 ], [ -150.9466989, 62.0475125, 0.0 ], [ -150.9469601, 62.0474431, 0.0 ], [ -150.9496727, 62.0472181, 0.0 ], [ -150.9563291, 62.0462174, 0.0 ], [ -150.959506, 62.0456947, 0.0 ], [ -150.9595691, 62.045697, 0.0 ], [ -150.9624516, 62.0460715, 0.0 ], [ -150.9671971, 62.0441408, 0.0 ], [ -150.9856568, 62.0351628, 0.0 ], [ -150.9955293, 62.0310776, 0.0 ], [ -151.0239431, 62.0191644, 0.0 ], [ -151.0259825, 62.0182632, 0.0 ], [ -151.0284073, 62.0179995, 0.0 ], [ -151.0296431, 62.0166348, 0.0 ], [ -151.0304242, 62.0153489, 0.0 ], [ -151.0343561, 62.0148396, 0.0 ], [ -151.038432, 62.0130929, 0.0 ], [ -151.0386478, 62.0130439, 0.0 ], [ -151.0481373, 62.0091863, 0.0 ], [ -151.0619832, 62.0035213, 0.0 ], [ -151.072397, 61.9992968, 0.0 ], [ -151.0824551, 61.9994619, 0.0 ], [ -151.0948451, 61.9989384, 0.0 ], [ -151.1286679, 61.9956083, 0.0 ], [ -151.1786287, 61.9919398, 0.0 ], [ -151.2025021, 61.9671096, 0.0 ], [ -151.240034, 61.9694463, 0.0 ], [ -151.3592532, 61.9895433, 0.0 ], [ -151.7699392, 62.0063893, 0.0 ], [ -151.7730672, 62.0056639, 0.0 ], [ -152.0732638, 61.9887979, 0.0 ] ] } },
{ "type": "Feature", "properties": { "Name": "OFR-Loadout" }, "geometry": { "type": "LineString", "coordinates": [ [ -150.4210101, 62.3116334, 0.0 ], [ -150.4217093, 62.3111974, 0.0 ], [ -150.422092, 62.3103749, 0.0 ], [ -150.4216453, 62.3088951, 0.0 ], [ -150.4213623, 62.3078825, 0.0 ], [ -150.4211545, 62.3037184, 0.0 ], [ -150.4217783, 62.3005501, 0.0 ], [ -150.4220626, 62.2995026, 0.0 ], [ -150.4234633, 62.2955858, 0.0 ], [ -150.4234866, 62.2951518, 0.0 ], [ -150.4228255, 62.2940429, 0.0 ], [ -150.4231147, 62.2920871, 0.0 ], [ -150.4230694, 62.2902565, 0.0 ], [ -150.4226765, 62.2872941, 0.0 ], [ -150.4226638, 62.285835, 0.0 ], [ -150.4234035, 62.284129, 0.0 ], [ -150.4236823, 62.2824137, 0.0 ], [ -150.4241365, 62.2758005, 0.0 ], [ -150.4251274, 62.2728888, 0.0 ], [ -150.4255392, 62.2721197, 0.0 ], [ -150.4267041, 62.2711014, 0.0 ], [ -150.4299852, 62.2692726, 0.0 ], [ -150.4308192, 62.2686873, 0.0 ], [ -150.4293745, 62.266552, 0.0 ], [ -150.4274654, 62.2661661, 0.0 ], [ -150.4264976, 62.2656932, 0.0 ], [ -150.4249081, 62.2648584, 0.0 ], [ -150.4237538, 62.2636077, 0.0 ], [ -150.4233864, 62.2630074, 0.0 ], [ -150.4238513, 62.2624194, 0.0 ], [ -150.4249512, 62.2618485, 0.0 ], [ -150.4257163, 62.2613688, 0.0 ], [ -150.4261846, 62.2605685, 0.0 ], [ -150.4271081, 62.2596347, 0.0 ], [ -150.4284816, 62.2587759, 0.0 ], [ -150.4296374, 62.2580475, 0.0 ], [ -150.4296955, 62.2570032, 0.0 ], [ -150.429818, 62.2560288, 0.0 ], [ -150.4311228, 62.255139, 0.0 ], [ -150.4330099, 62.2538933, 0.0 ], [ -150.4346901, 62.2526372, 0.0 ], [ -150.4364541, 62.2510907, 0.0 ], [ -150.4361407, 62.2491318, 0.0 ], [ -150.4358438, 62.2481523, 0.0 ], [ -150.4351512, 62.2467118, 0.0 ], [ -150.4352546, 62.2460936, 0.0 ], [ -150.4367342, 62.2446433, 0.0 ], [ -150.4392473, 62.2434988, 0.0 ], [ -150.4403023, 62.2428131, 0.0 ], [ -150.4410518, 62.2419918, 0.0 ], [ -150.4421419, 62.2411044, 0.0 ], [ -150.4418526, 62.2402415, 0.0 ], [ -150.4412055, 62.2392462, 0.0 ], [ -150.4397512, 62.238003, 0.0 ], [ -150.4394658, 62.2373612, 0.0 ], [ -150.4394821, 62.2331427, 0.0 ], [ -150.4395539, 62.2324732, 0.0 ], [ -150.4402314, 62.2316102, 0.0 ], [ -150.4411456, 62.2308409, 0.0 ], [ -150.4416295, 62.2301736, 0.0 ], [ -150.4418117, 62.2296548, 0.0 ], [ -150.4422993, 62.229334, 0.0 ], [ -150.443533, 62.2288315, 0.0 ], [ -150.444444, 62.2285333, 0.0 ], [ -150.4465819, 62.2282552, 0.0 ], [ -150.4507186, 62.2281828, 0.0 ], [ -150.453181, 62.2279833, 0.0 ], [ -150.4558745, 62.227729, 0.0 ], [ -150.4571265, 62.227834, 0.0 ], [ -150.4570912, 62.2278418, 0.0 ], [ -150.4570021, 62.2278652, 0.0 ], [ -150.4582764, 62.228037, 0.0 ], [ -150.4601014, 62.2280574, 0.0 ], [ -150.4611541, 62.2279981, 0.0 ], [ -150.4617366, 62.2277618, 0.0 ], [ -150.46197, 62.2272653, 0.0 ], [ -150.461974, 62.2267683, 0.0 ], [ -150.4619961, 62.2264203, 0.0 ], [ -150.4624769, 62.2257993, 0.0 ], [ -150.4629569, 62.2252568, 0.0 ], [ -150.463213, 62.2245989, 0.0 ], [ -150.4633918, 62.2241201, 0.0 ], [ -150.4638561, 62.2238461, 0.0 ], [ -150.4646432, 62.2236813, 0.0 ], [ -150.4660459, 62.2238099, 0.0 ], [ -150.4665136, 62.2238656, 0.0 ], [ -150.467286, 62.2238543, 0.0 ], [ -150.4681822, 62.2236306, 0.0 ], [ -150.4692521, 62.2231927, 0.0 ], [ -150.4704764, 62.2225046, 0.0 ], [ -150.4710282, 62.2221307, 0.0 ], [ -150.4714406, 62.2216172, 0.0 ], [ -150.4724574, 62.2211199, 0.0 ], [ -150.4730267, 62.2207223, 0.0 ], [ -150.4730601, 62.2203966, 0.0 ], [ -150.4733191, 62.2199454, 0.0 ], [ -150.4735243, 62.2194862, 0.0 ], [ -150.4733577, 62.2192195, 0.0 ], [ -150.4725874, 62.2185271, 0.0 ], [ -150.4723983, 62.2182774, 0.0 ], [ -150.4724768, 62.2175501, 0.0 ], [ -150.4722969, 62.2172193, 0.0 ], [ -150.4714586, 62.2167616, 0.0 ], [ -150.4712425, 62.2163877, 0.0 ], [ -150.4714498, 62.2158139, 0.0 ], [ -150.4720337, 62.2153026, 0.0 ], [ -150.4738011, 62.2123578, 0.0 ], [ -150.4743018, 62.2118516, 0.0 ], [ -150.475532, 62.2114115, 0.0 ], [ -150.4762907, 62.2109676, 0.0 ], [ -150.4768446, 62.2105078, 0.0 ], [ -150.4783827, 62.2103064, 0.0 ], [ -150.4793631, 62.2100849, 0.0 ], [ -150.4797455, 62.2096355, 0.0 ], [ -150.4799523, 62.209123, 0.0 ], [ -150.479824, 62.2081614, 0.0 ], [ -150.4795477, 62.207061, 0.0 ], [ -150.4793866, 62.206203, 0.0 ], [ -150.4787668, 62.205644, 0.0 ], [ -150.478466, 62.2051013, 0.0 ], [ -150.4793037, 62.2043073, 0.0 ], [ -150.4799391, 62.2039645, 0.0 ], [ -150.4813213, 62.2031793, 0.0 ], [ -150.4822527, 62.202286, 0.0 ], [ -150.4825827, 62.2020055, 0.0 ], [ -150.4836292, 62.2017418, 0.0 ], [ -150.4844679, 62.2008341, 0.0 ], [ -150.4858473, 62.1990419, 0.0 ], [ -150.4866196, 62.1985775, 0.0 ], [ -150.4872149, 62.1982692, 0.0 ], [ -150.4872717, 62.1978642, 0.0 ], [ -150.4871081, 62.1975053, 0.0 ], [ -150.4871254, 62.1971755, 0.0 ], [ -150.487501, 62.1969516, 0.0 ], [ -150.4882959, 62.1967415, 0.0 ], [ -150.4894138, 62.1966011, 0.0 ], [ -150.4901255, 62.1964294, 0.0 ], [ -150.490393, 62.1961017, 0.0 ], [ -150.4909691, 62.1955346, 0.0 ], [ -150.4914906, 62.1947247, 0.0 ], [ -150.4939148, 62.1926598, 0.0 ], [ -150.494057, 62.1920231, 0.0 ], [ -150.4977465, 62.1901213, 0.0 ], [ -150.4984007, 62.1898267, 0.0 ], [ -150.499718, 62.1896282, 0.0 ], [ -150.5009129, 62.1891283, 0.0 ], [ -150.5014602, 62.1887723, 0.0 ], [ -150.502205, 62.1884702, 0.0 ], [ -150.5032268, 62.1883621, 0.0 ], [ -150.5041311, 62.1883275, 0.0 ], [ -150.5048448, 62.1879602, 0.0 ], [ -150.5052596, 62.1874753, 0.0 ], [ -150.5057172, 62.1869601, 0.0 ], [ -150.5062212, 62.1866123, 0.0 ], [ -150.5069834, 62.186194, 0.0 ], [ -150.5071981, 62.1858401, 0.0 ], [ -150.5073817, 62.1853138, 0.0 ], [ -150.5073148, 62.1846672, 0.0 ], [ -150.5077638, 62.1842345, 0.0 ], [ -150.5087418, 62.1839079, 0.0 ], [ -150.5100052, 62.1836494, 0.0 ], [ -150.5114576, 62.1834749, 0.0 ], [ -150.5137434, 62.1835064, 0.0 ], [ -150.5147649, 62.1831482, 0.0 ], [ -150.5154932, 62.1826848, 0.0 ], [ -150.5158109, 62.1822529, 0.0 ], [ -150.5161429, 62.1818156, 0.0 ], [ -150.5167888, 62.1815131, 0.0 ], [ -150.5174351, 62.1813227, 0.0 ], [ -150.5179774, 62.1810612, 0.0 ], [ -150.5185894, 62.1804376, 0.0 ], [ -150.5193393, 62.1798158, 0.0 ], [ -150.5203791, 62.1793784, 0.0 ], [ -150.5216933, 62.1789314, 0.0 ], [ -150.5219117, 62.1779017, 0.0 ], [ -150.5218664, 62.1771676, 0.0 ], [ -150.5211131, 62.1761621, 0.0 ], [ -150.5219568, 62.1741044, 0.0 ], [ -150.5221488, 62.1736358, 0.0 ], [ -150.5217686, 62.1725486, 0.0 ], [ -150.5230363, 62.1695562, 0.0 ], [ -150.5232806, 62.1679951, 0.0 ], [ -150.5250451, 62.1677005, 0.0 ], [ -150.52595, 62.1670987, 0.0 ], [ -150.5263312, 62.1659054, 0.0 ], [ -150.5269115, 62.1647738, 0.0 ], [ -150.5274943, 62.1643787, 0.0 ], [ -150.5293395, 62.1640182, 0.0 ], [ -150.5294296, 62.1639585, 0.0 ], [ -150.5303238, 62.1635029, 0.0 ], [ -150.5304158, 62.1625486, 0.0 ], [ -150.5297384, 62.1613168, 0.0 ], [ -150.5297393, 62.1612965, 0.0 ], [ -150.5292144, 62.1605155, 0.0 ], [ -150.5295529, 62.1598482, 0.0 ], [ -150.5309851, 62.1591107, 0.0 ], [ -150.5314577, 62.158384, 0.0 ], [ -150.5305328, 62.1577435, 0.0 ], [ -150.5301463, 62.1567836, 0.0 ], [ -150.5297315, 62.1554964, 0.0 ], [ -150.5287813, 62.154403, 0.0 ], [ -150.5282468, 62.1537223, 0.0 ], [ -150.528477, 62.1526457, 0.0 ], [ -150.5299131, 62.1518913, 0.0 ], [ -150.5310597, 62.1516409, 0.0 ], [ -150.5319838, 62.1514698, 0.0 ], [ -150.5318852, 62.1508351, 0.0 ], [ -150.5312981, 62.1503797, 0.0 ], [ -150.5309243, 62.149789, 0.0 ], [ -150.5321206, 62.1471623, 0.0 ], [ -150.5343218, 62.1459202, 0.0 ], [ -150.5340126, 62.145304, 0.0 ], [ -150.5347414, 62.144356, 0.0 ], [ -150.5348643, 62.1400382, 0.0 ], [ -150.5385332, 62.1351025, 0.0 ], [ -150.5387052, 62.1328049, 0.0 ], [ -150.5390101, 62.1322166, 0.0 ], [ -150.5396053, 62.1312934, 0.0 ], [ -150.5385512, 62.1296152, 0.0 ], [ -150.5372766, 62.1276751, 0.0 ], [ -150.5351533, 62.125726, 0.0 ], [ -150.5327336, 62.1231291, 0.0 ], [ -150.5309585, 62.1220079, 0.0 ], [ -150.5284103, 62.1193469, 0.0 ], [ -150.5240862, 62.1148673, 0.0 ], [ -150.5226998, 62.113044, 0.0 ], [ -150.5219865, 62.1109178, 0.0 ], [ -150.5227955, 62.1095777, 0.0 ], [ -150.5239156, 62.1081811, 0.0 ], [ -150.5249316, 62.1068031, 0.0 ], [ -150.5251566, 62.1066241, 0.0 ], [ -150.5256348, 62.1063142, 0.0 ], [ -150.526078, 62.1062145, 0.0 ], [ -150.5268088, 62.1062819, 0.0 ], [ -150.5276804, 62.1063818, 0.0 ], [ -150.528598, 62.1063814, 0.0 ], [ -150.5291705, 62.1062396, 0.0 ], [ -150.5294902, 62.1061104, 0.0 ] ] } },
{ "type": "Feature", "properties": { "Name": "TC-OFR" }, "geometry": { "type": "LineString", "coordinates": [ [ -150.2346821, 62.3161907, 0.0 ], [ -150.2556003, 62.3162213, 0.0 ], [ -150.2757458, 62.3161894, 0.0 ], [ -150.2866167, 62.3161491, 0.0 ], [ -150.2884814, 62.3162971, 0.0 ], [ -150.2932485, 62.3173273, 0.0 ], [ -150.2956631, 62.3174194, 0.0 ], [ -150.3050354, 62.3172181, 0.0 ], [ -150.3158222, 62.3168344, 0.0 ], [ -150.3218025, 62.3161965, 0.0 ], [ -150.3316523, 62.3146176, 0.0 ], [ -150.3365618, 62.313606, 0.0 ], [ -150.3402606, 62.3131026, 0.0 ], [ -150.3506527, 62.3122351, 0.0 ], [ -150.3533938, 62.3117172, 0.0 ], [ -150.3565608, 62.3108378, 0.0 ], [ -150.3683117, 62.3097474, 0.0 ], [ -150.3712274, 62.3099144, 0.0 ], [ -150.3772477, 62.311666, 0.0 ], [ -150.3803026, 62.3121186, 0.0 ], [ -150.3873126, 62.3119567, 0.0 ], [ -150.3932765, 62.3118211, 0.0 ], [ -150.3973196, 62.3113254, 0.0 ], [ -150.3998776, 62.3110012, 0.0 ], [ -150.407822, 62.3110031, 0.0 ], [ -150.4142828, 62.3110567, 0.0 ], [ -150.4179363, 62.3112421, 0.0 ], [ -150.4210569, 62.3116561, 0.0 ] ] } }
]
}