{
"type": "FeatureCollection",
"name": "Layer 2-CLAIMS-MARGET ANN",
"features": [
{ "type": "Feature", "properties": { "Name": "2-CLAIMS-MARGET ANN" }, "geometry": { "type": "Polygon", "coordinates": [ [ [ -112.5470734, 46.0385996, 1935.287035 ], [ -112.5447268, 46.0385519, 1935.287035 ], [ -112.5419944, 46.038984, 1935.287035 ], [ -112.5418266, 46.0404114, 1935.287035 ], [ -112.5469434, 46.0398291, 1935.287035 ], [ -112.5470734, 46.0385996, 1935.287035 ] ] ] } },
{ "type": "Feature", "properties": { "Name": "2-CLAIMS-MARGET ANN" }, "geometry": { "type": "Polygon", "coordinates": [ [ [ -112.5358349, 46.038825, 1951.84903 ], [ -112.535578, 46.0398091, 1951.84903 ], [ -112.5354869, 46.0397988, 1951.84903 ], [ -112.5354914, 46.0401576, 1951.84903 ], [ -112.5412967, 46.0398402, 1951.84903 ], [ -112.5413949, 46.0398348, 1951.84903 ], [ -112.5417356, 46.0385361, 1951.84903 ], [ -112.5415354, 46.0385319, 1951.84903 ], [ -112.5415351, 46.0385155, 1951.84903 ], [ -112.5392824, 46.0386398, 1951.84903 ], [ -112.5358349, 46.038825, 1951.84903 ] ] ] } },
{ "type": "Feature", "properties": { "Name": "2-CLAIMS-MARGET ANN" }, "geometry": { "type": "Polygon", "coordinates": [ [ [ -112.5417356, 46.0385361, 1951.84903 ], [ -112.5413949, 46.0398348, 1951.84903 ], [ -112.5417944, 46.0399219, 1951.84903 ], [ -112.541958, 46.0392987, 1951.84903 ], [ -112.5419942, 46.0389871, 1951.84903 ], [ -112.5420422, 46.0389808, 1951.84903 ], [ -112.5421568, 46.0385456, 1951.84903 ], [ -112.5417356, 46.0385361, 1951.84903 ] ] ] } },
{ "type": "Feature", "properties": { "Name": "2-CLAIMS-MARGET ANN" }, "geometry": { "type": "Polygon", "coordinates": [ [ [ -112.5519533, 46.0408943, 1953.555951 ], [ -112.5530923, 46.0407692, 1953.555951 ], [ -112.5535258, 46.0418836, 1953.555951 ], [ -112.5533017, 46.040738, 1953.555951 ], [ -112.5550982, 46.0403618, 1953.555951 ], [ -112.5579603, 46.0398048, 1953.555951 ], [ -112.5573948, 46.0394721, 1953.555951 ], [ -112.5519533, 46.0408943, 1953.555951 ] ] ] } },
{ "type": "Feature", "properties": { "Name": "2-CLAIMS-MARGET ANN" }, "geometry": { "type": "Polygon", "coordinates": [ [ [ -112.5512419, 46.039542, 1953.555951 ], [ -112.5519805, 46.0408872, 1953.555951 ], [ -112.5573948, 46.0394721, 1953.555951 ], [ -112.5566938, 46.038114, 1953.555951 ], [ -112.5512419, 46.039542, 1953.555951 ] ] ] } },
{ "type": "Feature", "properties": { "Name": "2-CLAIMS-MARGET ANN" }, "geometry": { "type": "Polygon", "coordinates": [ [ [ -112.5579633, 46.0398141, 1953.555951 ], [ -112.5533017, 46.040738, 1953.555951 ], [ -112.5536204, 46.0423667, 1953.555951 ], [ -112.5584749, 46.0414115, 1953.555951 ], [ -112.5582251, 46.0405629, 1953.555951 ], [ -112.5579633, 46.0398141, 1953.555951 ] ] ] } },
{ "type": "Feature", "properties": { "Name": "2-CLAIMS-MARGET ANN" }, "geometry": { "type": "Polygon", "coordinates": [ [ [ -112.537442, 46.0371422, 1925.287037 ], [ -112.5376828, 46.0374993, 1925.287037 ], [ -112.5378875, 46.0374281, 1925.287037 ], [ -112.5377263, 46.0371924, 1925.287037 ], [ -112.5374447, 46.0371409, 1925.287037 ], [ -112.5374768, 46.037057, 1925.287037 ], [ -112.5371821, 46.0364354, 1925.287037 ], [ -112.5372832, 46.0362396, 1925.287037 ], [ -112.5373592, 46.0361414, 1925.287037 ], [ -112.5374126, 46.0361, 1925.287037 ], [ -112.5375574, 46.0359619, 1925.287037 ], [ -112.5382487, 46.0360746, 1925.287037 ], [ -112.5385661, 46.036057, 1925.287037 ], [ -112.5390412, 46.0360098, 1925.287037 ], [ -112.5393448, 46.0359863, 1925.287037 ], [ -112.5395015, 46.0359686, 1925.287037 ], [ -112.5395195, 46.0353676, 1925.287037 ], [ -112.5390902, 46.035439, 1925.287037 ], [ -112.5390564, 46.035444, 1925.287037 ], [ -112.5355819, 46.0359627, 1925.287037 ], [ -112.5357609, 46.0364437, 1925.287037 ], [ -112.5359987, 46.0364146, 1925.287037 ], [ -112.5360578, 46.0364073, 1925.287037 ], [ -112.5364914, 46.0363542, 1925.287037 ], [ -112.537442, 46.0371422, 1925.287037 ] ] ] } },
{ "type": "Feature", "properties": { "Name": "2-CLAIMS-MARGET ANN" }, "geometry": { "type": "Polygon", "coordinates": [ [ [ -112.5534003, 46.0371249, 1953.555951 ], [ -112.5534114, 46.0387801, 1953.555951 ], [ -112.5551619, 46.0384945, 1953.555951 ], [ -112.5566938, 46.038114, 1953.555951 ], [ -112.5568254, 46.038369, 1953.555951 ], [ -112.5571996, 46.0383329, 1953.555951 ], [ -112.5609321, 46.0380278, 1953.555951 ], [ -112.5603154, 46.0365102, 1953.555951 ], [ -112.5551327, 46.0372153, 1953.555951 ], [ -112.5550854, 46.0370677, 1953.555951 ], [ -112.5534003, 46.0371249, 1953.555951 ] ] ] } }
]
}
