{
"type": "FeatureCollection",
"name": "Layer 2-CLAIMS-GREAT REPUBLIC",
"features": [
{ "type": "Feature", "properties": { "Name": "2-CLAIMS-GREAT REPUBLIC" }, "geometry": { "type": "LineString", "coordinates": [ [ -112.593563, 46.0143169, 1925.287037 ], [ -112.5935124, 46.0141613, 1925.287037 ], [ -112.5931542, 46.0142905, 1925.287037 ], [ -112.5934207, 46.015073, 1925.287037 ], [ -112.5936547, 46.0150367, 1925.287037 ], [ -112.5936679, 46.0151404, 1925.287037 ], [ -112.5932498, 46.0151918, 1925.287037 ], [ -112.5946849, 46.0157356, 1925.287037 ], [ -112.5947491, 46.0153407, 1925.287037 ], [ -112.5939317, 46.0154513, 1925.287037 ], [ -112.5935628, 46.0143152, 1925.287037 ] ] } },
{ "type": "Feature", "properties": { "Name": "2-CLAIMS-GREAT REPUBLIC" }, "geometry": { "type": "Polygon", "coordinates": [ [ [ -112.5931207, 46.0143017, 1925.287037 ], [ -112.5930553, 46.0143273, 1925.287037 ], [ -112.5926255, 46.014945, 1925.287037 ], [ -112.5929783, 46.0150844, 1925.287037 ], [ -112.5932518, 46.0146898, 1925.287037 ], [ -112.5931207, 46.0143017, 1925.287037 ] ] ] } },
{ "type": "Feature", "properties": { "Name": "2-CLAIMS-GREAT REPUBLIC" }, "geometry": { "type": "Polygon", "coordinates": [ [ [ -112.5824383, 46.0226844, 1925.287037 ], [ -112.5848521, 46.0219754, 1925.287037 ], [ -112.5849204, 46.0213509, 1925.287037 ], [ -112.5878437, 46.0213674, 1925.287037 ], [ -112.5866656, 46.021299, 1925.287037 ], [ -112.5871828, 46.0200836, 1925.287037 ], [ -112.5830065, 46.0211658, 1925.287037 ], [ -112.5824383, 46.0226844, 1925.287037 ] ] ] } },
{ "type": "Feature", "properties": { "Name": "2-CLAIMS-GREAT REPUBLIC" }, "geometry": { "type": "Polygon", "coordinates": [ [ [ -112.601743, 46.0169972, 1925.287037 ], [ -112.6017418, 46.0169013, 1925.287037 ], [ -112.6004407, 46.0169067, 1925.287037 ], [ -112.6004593, 46.0169833, 1925.287037 ], [ -112.5986462, 46.0170308, 1925.287037 ], [ -112.5986319, 46.0171453, 1925.287037 ], [ -112.601743, 46.0169972, 1925.287037 ] ] ] } }
]
}
