{
"type": "FeatureCollection",
"name": "Layer 2-CLAIMS-RAINBOW",
"features": [
{ "type": "Feature", "properties": { "Name": "2-CLAIMS-RAINBOW" }, "geometry": { "type": "Polygon", "coordinates": [ [ [ -112.5297187, 46.0303427, 1941.356995 ], [ -112.5304141, 46.0303236, 1941.356995 ], [ -112.5304213, 46.0302546, 1941.356995 ], [ -112.5303393, 46.0302362, 1941.356995 ], [ -112.5301335, 46.0301994, 1941.356995 ], [ -112.530131, 46.0301983, 1941.356995 ], [ -112.5297213, 46.0300248, 1941.356995 ], [ -112.5297187, 46.0303427, 1941.356995 ] ] ] } },
{ "type": "Feature", "properties": { "Name": "2-CLAIMS-RAINBOW" }, "geometry": { "type": "Polygon", "coordinates": [ [ [ -112.5252797, 46.0299668, 1941.356995 ], [ -112.5272269, 46.0304085, 1941.356995 ], [ -112.5279444, 46.0292949, 1941.356995 ], [ -112.5259151, 46.0286995, 1941.356995 ], [ -112.5235158, 46.0279956, 1941.356995 ], [ -112.523206, 46.0295176, 1941.356995 ], [ -112.5252797, 46.0299668, 1941.356995 ] ] ] } },
{ "type": "Feature", "properties": { "Name": "2-CLAIMS-RAINBOW" }, "geometry": { "type": "Polygon", "coordinates": [ [ [ -112.5234835, 46.0362856, 1925.287037 ], [ -112.5248671, 46.0364801, 1925.287037 ], [ -112.5265192, 46.03684, 1925.287037 ], [ -112.5264568, 46.0366344, 1925.287037 ], [ -112.5299341, 46.0366875, 1925.287037 ], [ -112.5299793, 46.0360808, 1925.287037 ], [ -112.5276705, 46.0362444, 1925.287037 ], [ -112.5277404, 46.0354995, 1925.287037 ], [ -112.5256872, 46.0354383, 1925.287037 ], [ -112.5256933, 46.0349584, 1925.287037 ], [ -112.5254788, 46.034919, 1925.287037 ], [ -112.5278345, 46.0348748, 1925.287037 ], [ -112.5278348, 46.0347266, 1925.287037 ], [ -112.5275374, 46.0347361, 1925.287037 ], [ -112.527579, 46.0340534, 1925.287037 ], [ -112.5296717, 46.0337013, 1925.287037 ], [ -112.5287195, 46.0337071, 1925.287037 ], [ -112.5281631, 46.0322267, 1925.287037 ], [ -112.5270103, 46.0324875, 1925.287037 ], [ -112.522401, 46.0328614, 1925.287037 ], [ -112.5228743, 46.0340751, 1925.287037 ], [ -112.5223622, 46.0340743, 1925.287037 ], [ -112.52241, 46.0344646, 1925.287037 ], [ -112.5202331, 46.0341483, 1925.287037 ], [ -112.5202633, 46.0358319, 1925.287037 ], [ -112.5234835, 46.0362856, 1925.287037 ] ] ] } },
{ "type": "Feature", "properties": { "Name": "2-CLAIMS-RAINBOW" }, "geometry": { "type": "Polygon", "coordinates": [ [ [ -112.5355289, 46.03379, 1951.83603 ], [ -112.5354509, 46.0344365, 1951.83603 ], [ -112.5353906, 46.0344374, 1951.83603 ], [ -112.5354059, 46.0346411, 1951.83603 ], [ -112.5361552, 46.0344846, 1951.83603 ], [ -112.5361467, 46.033661, 1951.83603 ], [ -112.5355289, 46.03379, 1951.83603 ] ] ] } },
{ "type": "Feature", "properties": { "Name": "2-CLAIMS-RAINBOW" }, "geometry": { "type": "Polygon", "coordinates": [ [ [ -112.5341379, 46.0347126, 1951.83603 ], [ -112.5341863, 46.0347191, 1951.83603 ], [ -112.5341685, 46.0344601, 1951.83603 ], [ -112.5341221, 46.0344612, 1951.83603 ], [ -112.5341379, 46.0347126, 1951.83603 ] ] ] } },
{ "type": "Feature", "properties": { "Name": "2-CLAIMS-RAINBOW" }, "geometry": { "type": "Polygon", "coordinates": [ [ [ -112.5460017, 46.0281084, 1951.84903 ], [ -112.5458955, 46.0281254, 1951.84903 ], [ -112.5461659, 46.0283663, 1951.84903 ], [ -112.54605, 46.0281006, 1951.84903 ], [ -112.5460017, 46.0281084, 1951.84903 ] ] ] } },
{ "type": "Feature", "properties": { "Name": "2-CLAIMS-RAINBOW" }, "geometry": { "type": "Polygon", "coordinates": [ [ [ -112.542988, 46.0268248, 1951.84903 ], [ -112.5425234, 46.0272059, 1951.84903 ], [ -112.543405, 46.0270562, 1951.84903 ], [ -112.5431674, 46.0268914, 1951.84903 ], [ -112.5430213, 46.0267902, 1951.84903 ], [ -112.542988, 46.0268248, 1951.84903 ] ] ] } },
{ "type": "Feature", "properties": { "Name": "2-CLAIMS-RAINBOW" }, "geometry": { "type": "Polygon", "coordinates": [ [ [ -112.5446585, 46.02612, 1951.84903 ], [ -112.5444897, 46.0269197, 1951.84903 ], [ -112.5446928, 46.0268889, 1951.84903 ], [ -112.5447499, 46.0267196, 1951.84903 ], [ -112.5448524, 46.0264101, 1951.84903 ], [ -112.5449667, 46.0261262, 1951.84903 ], [ -112.5450267, 46.0259702, 1951.84903 ], [ -112.5450334, 46.0259529, 1951.84903 ], [ -112.5463389, 46.0260378, 1951.84903 ], [ -112.5472329, 46.026096, 1951.84903 ], [ -112.5474468, 46.0261099, 1951.84903 ], [ -112.5474296, 46.0256919, 1951.84903 ], [ -112.5473877, 46.0254982, 1951.84903 ], [ -112.5473063, 46.0253633, 1951.84903 ], [ -112.5472739, 46.0253073, 1951.84903 ], [ -112.547272, 46.025304, 1951.84903 ], [ -112.5471912, 46.0253308, 1951.84903 ], [ -112.5472787, 46.0254824, 1951.84903 ], [ -112.547037, 46.0255046, 1951.84903 ], [ -112.5468171, 46.0255249, 1951.84903 ], [ -112.5468025, 46.0255262, 1951.84903 ], [ -112.5465009, 46.0255542, 1951.84903 ], [ -112.5463554, 46.0252945, 1951.84903 ], [ -112.5457514, 46.0253533, 1951.84903 ], [ -112.5457488, 46.0253535, 1951.84903 ], [ -112.5444976, 46.0254812, 1951.84903 ], [ -112.5445282, 46.025615, 1951.84903 ], [ -112.5445899, 46.0256868, 1951.84903 ], [ -112.5446585, 46.02612, 1951.84903 ] ] ] } },
{ "type": "Feature", "properties": { "Name": "2-CLAIMS-RAINBOW" }, "geometry": { "type": "Polygon", "coordinates": [ [ [ -112.5528451, 46.0243085, 1951.84903 ], [ -112.5528412, 46.0248305, 1951.84903 ], [ -112.5542411, 46.0243939, 1951.84903 ], [ -112.5539743, 46.0239925, 1951.84903 ], [ -112.5539309, 46.023929, 1951.84903 ], [ -112.5528451, 46.0243085, 1951.84903 ] ] ] } },
{ "type": "Feature", "properties": { "Name": "2-CLAIMS-RAINBOW" }, "geometry": { "type": "Polygon", "coordinates": [ [ [ -112.5542191, 46.0227993, 1951.84903 ], [ -112.553368, 46.0230713, 1951.84903 ], [ -112.5536836, 46.0235481, 1951.84903 ], [ -112.5549574, 46.0233306, 1951.84903 ], [ -112.5544364, 46.0224935, 1951.84903 ], [ -112.5542191, 46.0227993, 1951.84903 ] ] ] } },
{ "type": "Feature", "properties": { "Name": "2-CLAIMS-RAINBOW" }, "geometry": { "type": "Polygon", "coordinates": [ [ [ -112.5495171, 46.0224773, 1951.84903 ], [ -112.5495208, 46.0225662, 1951.84903 ], [ -112.5503624, 46.0224223, 1951.84903 ], [ -112.5501337, 46.0222994, 1951.84903 ], [ -112.5508377, 46.0222922, 1951.84903 ], [ -112.5507431, 46.0223571, 1951.84903 ], [ -112.5513064, 46.0222608, 1951.84903 ], [ -112.551312, 46.022024, 1951.84903 ], [ -112.5521615, 46.0218015, 1951.84903 ], [ -112.5526485, 46.0217683, 1951.84903 ], [ -112.5525652, 46.021355, 1951.84903 ], [ -112.5499098, 46.0223326, 1951.84903 ], [ -112.5499144, 46.022472, 1951.84903 ], [ -112.5495171, 46.0224773, 1951.84903 ] ] ] } },
{ "type": "Feature", "properties": { "Name": "2-CLAIMS-RAINBOW" }, "geometry": { "type": "Polygon", "coordinates": [ [ [ -112.5396524, 46.0296318, 1951.84903 ], [ -112.5397241, 46.0298862, 1951.84903 ], [ -112.5397316, 46.0299128, 1951.84903 ], [ -112.5398177, 46.0299004, 1951.84903 ], [ -112.5398519, 46.0298954, 1951.84903 ], [ -112.5398435, 46.0298684, 1951.84903 ], [ -112.5397645, 46.0296149, 1951.84903 ], [ -112.5397422, 46.0296182, 1951.84903 ], [ -112.5396524, 46.0296318, 1951.84903 ] ] ] } },
{ "type": "Feature", "properties": { "Name": "2-CLAIMS-RAINBOW" }, "geometry": { "type": "Polygon", "coordinates": [ [ [ -112.5445672, 46.0239167, 1951.84903 ], [ -112.5442692, 46.0244805, 1951.84903 ], [ -112.5444976, 46.0254812, 1951.84903 ], [ -112.5457514, 46.0253533, 1951.84903 ], [ -112.545754, 46.025353, 1951.84903 ], [ -112.544831, 46.0238828, 1951.84903 ], [ -112.5445672, 46.0239167, 1951.84903 ] ] ] } },
{ "type": "Feature", "properties": { "Name": "2-CLAIMS-RAINBOW" }, "geometry": { "type": "Polygon", "coordinates": [ [ [ -112.5498519, 46.0319303, 1925.287037 ], [ -112.5498495, 46.0317734, 1925.287037 ], [ -112.5503653, 46.0317371, 1925.287037 ], [ -112.5502841, 46.0304038, 1925.287037 ], [ -112.5452756, 46.0312014, 1925.287037 ], [ -112.5452506, 46.0322794, 1925.287037 ], [ -112.5498519, 46.0319303, 1925.287037 ] ] ] } },
{ "type": "Feature", "properties": { "Name": "2-CLAIMS-RAINBOW" }, "geometry": { "type": "Polygon", "coordinates": [ [ [ -112.5410441, 46.0243796, 1925.287037 ], [ -112.5411163, 46.0246938, 1925.287037 ], [ -112.5404514, 46.0251941, 1925.287037 ], [ -112.5402012, 46.0255779, 1925.287037 ], [ -112.5401744, 46.0256191, 1925.287037 ], [ -112.5405651, 46.0257249, 1925.287037 ], [ -112.5407283, 46.0260555, 1925.287037 ], [ -112.5412182, 46.0259891, 1925.287037 ], [ -112.5411718, 46.0258387, 1925.287037 ], [ -112.5434985, 46.0255778, 1925.287037 ], [ -112.5435639, 46.0255705, 1925.287037 ], [ -112.5436337, 46.0254584, 1925.287037 ], [ -112.5433196, 46.0242932, 1925.287037 ], [ -112.5434216, 46.0240646, 1925.287037 ], [ -112.5410441, 46.0243796, 1925.287037 ] ] ] } },
{ "type": "Feature", "properties": { "Name": "2-CLAIMS-RAINBOW" }, "geometry": { "type": "Polygon", "coordinates": [ [ [ -112.5411793, 46.0258426, 1925.287037 ], [ -112.5412653, 46.0261195, 1925.287037 ], [ -112.5413924, 46.0261013, 1925.287037 ], [ -112.5414124, 46.0261999, 1925.287037 ], [ -112.5415014, 46.0269313, 1925.287037 ], [ -112.5419433, 46.0265598, 1925.287037 ], [ -112.5423513, 46.0261305, 1925.287037 ], [ -112.5432058, 46.0256833, 1925.287037 ], [ -112.5432318, 46.0256092, 1925.287037 ], [ -112.5411793, 46.0258426, 1925.287037 ] ] ] } },
{ "type": "Feature", "properties": { "Name": "2-CLAIMS-RAINBOW" }, "geometry": { "type": "Polygon", "coordinates": [ [ [ -112.5298263, 46.0337003, 1941.356995 ], [ -112.5345661, 46.0336712, 1941.356995 ], [ -112.5340215, 46.0321947, 1941.356995 ], [ -112.5281631, 46.0322267, 1941.356995 ], [ -112.5287195, 46.0337071, 1941.356995 ], [ -112.5298263, 46.0337003, 1941.356995 ] ] ] } },
{ "type": "Feature", "properties": { "Name": "2-CLAIMS-RAINBOW" }, "geometry": { "type": "Polygon", "coordinates": [ [ [ -112.5316507, 46.0345069, 1951.83603 ], [ -112.529524, 46.0346175, 1951.83603 ], [ -112.5295332, 46.0347398, 1951.83603 ], [ -112.5325845, 46.0345043, 1951.83603 ], [ -112.5339349, 46.0346854, 1951.83603 ], [ -112.5339349, 46.0344645, 1951.83603 ], [ -112.5316507, 46.0345069, 1951.83603 ] ] ] } }
]
}
