{
"type": "FeatureCollection",
"name": "Layer 1-BLOCK - EMMA-ISLV",
"features": [
{ "type": "Feature", "properties": { "Name": "1-BLOCK - EMMA-ISLV" }, "geometry": { "type": "Polygon", "coordinates": [ [ [ -112.527225, 46.0067829, 1925.287037 ], [ -112.5271335, 46.0063196, 1925.287037 ], [ -112.5242379, 46.0062379, 1925.287037 ], [ -112.527225, 46.0067829, 1925.287037 ] ] ] } },
{ "type": "Feature", "properties": { "Name": "1-BLOCK - EMMA-ISLV" }, "geometry": { "type": "Polygon", "coordinates": [ [ [ -112.526967, 46.0054766, 1925.287037 ], [ -112.5271063, 46.0061816, 1925.287037 ], [ -112.523833, 46.0060894, 1925.287037 ], [ -112.5238317, 46.0063053, 1925.287037 ], [ -112.527239, 46.0069271, 1925.287037 ], [ -112.5272394, 46.0068564, 1925.287037 ], [ -112.530574, 46.007439, 1925.287037 ], [ -112.5303015, 46.0060592, 1925.287037 ], [ -112.526967, 46.0054766, 1925.287037 ] ] ] } },
{ "type": "Feature", "properties": { "Name": "1-BLOCK - EMMA-ISLV" }, "geometry": { "type": "Polygon", "coordinates": [ [ [ -112.5263186, 46.0052018, 1925.287037 ], [ -112.5238363, 46.0055537, 1925.287037 ], [ -112.5238355, 46.0056936, 1925.287037 ], [ -112.5263178, 46.0053416, 1925.287037 ], [ -112.5263186, 46.0052018, 1925.287037 ] ] ] } },
{ "type": "Feature", "properties": { "Name": "1-BLOCK - EMMA-ISLV" }, "geometry": { "type": "Polygon", "coordinates": [ [ [ -112.5186509, 46.0062288, 1925.287037 ], [ -112.5186499, 46.0063746, 1925.287037 ], [ -112.5200339, 46.0067327, 1925.287037 ], [ -112.5221706, 46.0072871, 1925.287037 ], [ -112.5242076, 46.0077788, 1925.287037 ], [ -112.5242085, 46.007634, 1925.287037 ], [ -112.5222379, 46.0071586, 1925.287037 ], [ -112.5186509, 46.0062288, 1925.287037 ] ] ] } },
{ "type": "Feature", "properties": { "Name": "1-BLOCK - EMMA-ISLV" }, "geometry": { "type": "Polygon", "coordinates": [ [ [ -112.5186519, 46.0060625, 1925.287037 ], [ -112.518651, 46.0062058, 1925.287037 ], [ -112.5208336, 46.0063632, 1925.287037 ], [ -112.5208497, 46.0062305, 1925.287037 ], [ -112.5186519, 46.0060625, 1925.287037 ] ] ] } },
{ "type": "Feature", "properties": { "Name": "1-BLOCK - EMMA-ISLV" }, "geometry": { "type": "Polygon", "coordinates": [ [ [ -112.5194104, 46.0083279, 1925.287037 ], [ -112.5194231, 46.0084665, 1925.287037 ], [ -112.520468, 46.008295, 1925.287037 ], [ -112.5210807, 46.00827, 1925.287037 ], [ -112.5210682, 46.0081332, 1925.287037 ], [ -112.5207058, 46.0081481, 1925.287037 ], [ -112.520706, 46.0081201, 1925.287037 ], [ -112.5186449, 46.0071459, 1925.287037 ], [ -112.5186438, 46.0073114, 1925.287037 ], [ -112.5204395, 46.008159, 1925.287037 ], [ -112.5194104, 46.0083279, 1925.287037 ] ] ] } },
{ "type": "Feature", "properties": { "Name": "1-BLOCK - EMMA-ISLV" }, "geometry": { "type": "Polygon", "coordinates": [ [ [ -112.5228097, 46.0093206, 1925.287037 ], [ -112.5227965, 46.0091775, 1925.287037 ], [ -112.5216674, 46.0089887, 1925.287037 ], [ -112.5207111, 46.0090103, 1925.287037 ], [ -112.5207236, 46.0091471, 1925.287037 ], [ -112.5216469, 46.0091262, 1925.287037 ], [ -112.5228097, 46.0093206, 1925.287037 ] ] ] } },
{ "type": "Feature", "properties": { "Name": "1-BLOCK - EMMA-ISLV" }, "geometry": { "type": "Polygon", "coordinates": [ [ [ -112.52284, 46.0096475, 1925.287037 ], [ -112.5228266, 46.0095028, 1925.287037 ], [ -112.52096, 46.0091417, 1925.287037 ], [ -112.5209732, 46.0092866, 1925.287037 ], [ -112.52284, 46.0096475, 1925.287037 ] ] ] } },
{ "type": "Feature", "properties": { "Name": "1-BLOCK - EMMA-ISLV" }, "geometry": { "type": "Polygon", "coordinates": [ [ [ -112.525461, 46.0103117, 1925.287037 ], [ -112.5255671, 46.0102142, 1925.287037 ], [ -112.523596, 46.0101371, 1925.287037 ], [ -112.5227197, 46.0099796, 1925.287037 ], [ -112.522591, 46.0100978, 1925.287037 ], [ -112.5233522, 46.0102393, 1925.287037 ], [ -112.525461, 46.0103117, 1925.287037 ] ] ] } },
{ "type": "Feature", "properties": { "Name": "1-BLOCK - EMMA-ISLV" }, "geometry": { "type": "Polygon", "coordinates": [ [ [ -112.5229412, 46.0108497, 1925.287037 ], [ -112.5229412, 46.0107126, 1925.287037 ], [ -112.5220104, 46.0106587, 1925.287037 ], [ -112.5213801, 46.0101505, 1925.287037 ], [ -112.52138, 46.0103599, 1925.287037 ], [ -112.5219138, 46.0107903, 1925.287037 ], [ -112.5229412, 46.0108497, 1925.287037 ] ] ] } },
{ "type": "Feature", "properties": { "Name": "1-BLOCK - EMMA-ISLV" }, "geometry": { "type": "Polygon", "coordinates": [ [ [ -112.5286338, 46.0123097, 1925.287037 ], [ -112.5286339, 46.0121305, 1925.287037 ], [ -112.5284776, 46.0120889, 1925.287037 ], [ -112.528477, 46.0118728, 1925.287037 ], [ -112.5262631, 46.0119152, 1925.287037 ], [ -112.5250249, 46.0118574, 1925.287037 ], [ -112.525025, 46.0123707, 1925.287037 ], [ -112.5286338, 46.0123097, 1925.287037 ] ] ] } },
{ "type": "Feature", "properties": { "Name": "1-BLOCK - EMMA-ISLV" }, "geometry": { "type": "LineString", "coordinates": [ [ -112.5338669, 46.0112663, 1925.287037 ], [ -112.533867, 46.0111513, 1925.287037 ], [ -112.5342557, 46.0111513, 1925.287037 ], [ -112.534261, 46.0093722, 1925.287037 ], [ -112.5330796, 46.0093715, 1925.287037 ], [ -112.5330747, 46.0112659, 1925.287037 ], [ -112.5338622, 46.0112663, 1925.287037 ] ] } },
{ "type": "Feature", "properties": { "Name": "1-BLOCK - EMMA-ISLV" }, "geometry": { "type": "Polygon", "coordinates": [ [ [ -112.5377572, 46.0004275, 1925.287037 ], [ -112.5377666, 46.0018277, 1925.287037 ], [ -112.5392023, 46.0020965, 1925.287037 ], [ -112.5403848, 46.002324, 1925.287037 ], [ -112.5403523, 46.0004224, 1925.287037 ], [ -112.5377572, 46.0004275, 1925.287037 ] ] ] } },
{ "type": "Feature", "properties": { "Name": "1-BLOCK - EMMA-ISLV" }, "geometry": { "type": "Polygon", "coordinates": [ [ [ -112.5594361, 46.006252, 1925.287037 ], [ -112.5594957, 46.0046916, 1925.287037 ], [ -112.5590552, 46.0048141, 1925.287037 ], [ -112.5590077, 46.0047526, 1925.287037 ], [ -112.554366, 46.0053355, 1925.287037 ], [ -112.5543166, 46.0065949, 1925.287037 ], [ -112.5594361, 46.006252, 1925.287037 ] ] ] } },
{ "type": "Feature", "properties": { "Name": "1-BLOCK - EMMA-ISLV" }, "geometry": { "type": "LineString", "coordinates": [ [ -112.5335735, 46.0057366, 1925.287037 ], [ -112.5336857, 46.0063407, 1925.287037 ], [ -112.5338696, 46.0073312, 1925.287037 ], [ -112.5351953, 46.0074454, 1925.287037 ], [ -112.5351996, 46.0076951, 1925.287037 ], [ -112.538159, 46.0076999, 1925.287037 ], [ -112.5385273, 46.0077454, 1925.287037 ], [ -112.5342615, 46.0077447, 1925.287037 ], [ -112.5342617, 46.0089043, 1925.287037 ], [ -112.5375187, 46.0091884, 1925.287037 ], [ -112.5347552, 46.0103067, 1925.287037 ], [ -112.5354668, 46.0111745, 1925.287037 ], [ -112.5344884, 46.0113003, 1925.287037 ], [ -112.5339537, 46.011369, 1925.287037 ], [ -112.5340522, 46.0118574, 1925.287037 ], [ -112.5394642, 46.0111713, 1925.287037 ], [ -112.5393595, 46.0106516, 1925.287037 ], [ -112.5382493, 46.0107932, 1925.287037 ], [ -112.5394891, 46.0102885, 1925.287037 ], [ -112.539623, 46.0109314, 1925.287037 ], [ -112.5397828, 46.0109162, 1925.287037 ], [ -112.5398161, 46.0114938, 1925.287037 ], [ -112.5374942, 46.0116623, 1925.287037 ], [ -112.537533, 46.0121042, 1925.287037 ], [ -112.53986, 46.0119897, 1925.287037 ], [ -112.5425643, 46.0120252, 1925.287037 ], [ -112.5456138, 46.0120542, 1925.287037 ], [ -112.5455966, 46.0132403, 1925.287037 ], [ -112.5398416, 46.0131129, 1925.287037 ], [ -112.5390986, 46.0133579, 1925.287037 ], [ -112.5380448, 46.0132437, 1925.287037 ], [ -112.5380202, 46.0131626, 1925.287037 ], [ -112.5369048, 46.012764, 1925.287037 ], [ -112.5321358, 46.0128793, 1925.287037 ], [ -112.532136, 46.0130591, 1925.287037 ], [ -112.5303361, 46.0125813, 1925.287037 ], [ -112.5304063, 46.0131675, 1925.287037 ], [ -112.5293892, 46.0131896, 1925.287037 ], [ -112.5294056, 46.0148319, 1925.287037 ], [ -112.5321296, 46.0147623, 1925.287037 ], [ -112.5321363, 46.0131258, 1925.287037 ], [ -112.5322029, 46.0131103, 1925.287037 ], [ -112.532614, 46.0145073, 1925.287037 ], [ -112.5326792, 46.0145085, 1925.287037 ], [ -112.5326984, 46.015489, 1925.287037 ], [ -112.5360184, 46.0152701, 1925.287037 ], [ -112.5361552, 46.0161936, 1925.287037 ], [ -112.5394267, 46.0165863, 1925.287037 ], [ -112.5393795, 46.0163035, 1925.287037 ], [ -112.5431608, 46.0163015, 1925.287037 ], [ -112.5431598, 46.0158649, 1925.287037 ], [ -112.5443012, 46.0158964, 1925.287037 ], [ -112.5441542, 46.0164455, 1925.287037 ], [ -112.5450163, 46.0164225, 1925.287037 ], [ -112.5447185, 46.0157002, 1925.287037 ], [ -112.5452629, 46.0157335, 1925.287037 ], [ -112.5453954, 46.0149283, 1925.287037 ], [ -112.5439396, 46.0149616, 1925.287037 ], [ -112.5458967, 46.0147321, 1925.287037 ], [ -112.5458393, 46.0138316, 1925.287037 ], [ -112.5456976, 46.0123984, 1925.287037 ], [ -112.5456605, 46.0120123, 1925.287037 ], [ -112.5459874, 46.011315, 1925.287037 ], [ -112.5459829, 46.0109451, 1925.287037 ], [ -112.5461653, 46.0109384, 1925.287037 ], [ -112.546847, 46.0095097, 1925.287037 ], [ -112.5473908, 46.0094868, 1925.287037 ], [ -112.547368, 46.0095787, 1925.287037 ], [ -112.5478266, 46.0095225, 1925.287037 ], [ -112.5476611, 46.0112754, 1925.287037 ], [ -112.5475092, 46.0128929, 1925.287037 ], [ -112.5474716, 46.0132829, 1925.287037 ], [ -112.5473669, 46.0143694, 1925.287037 ], [ -112.5483485, 46.0140809, 1925.287037 ], [ -112.5504149, 46.0134719, 1925.287037 ], [ -112.5506613, 46.0144454, 1925.287037 ], [ -112.55032, 46.0145376, 1925.287037 ], [ -112.5506945, 46.0152028, 1925.287037 ], [ -112.5512723, 46.015105, 1925.287037 ], [ -112.5513078, 46.0152133, 1925.287037 ], [ -112.5537447, 46.0147766, 1925.287037 ], [ -112.5536567, 46.0145091, 1925.287037 ], [ -112.5564728, 46.0140543, 1925.287037 ], [ -112.5565392, 46.0130155, 1925.287037 ], [ -112.5566683, 46.0136625, 1925.287037 ], [ -112.5606872, 46.0132202, 1925.287037 ], [ -112.5605277, 46.0123888, 1925.287037 ], [ -112.5626779, 46.0119701, 1925.287037 ], [ -112.5620615, 46.0103906, 1925.287037 ], [ -112.56049, 46.0103858, 1925.287037 ], [ -112.5578206, 46.0106063, 1925.287037 ], [ -112.5569915, 46.0090208, 1925.287037 ], [ -112.5557593, 46.0091217, 1925.287037 ], [ -112.5557622, 46.0090615, 1925.287037 ], [ -112.5507101, 46.0103386, 1925.287037 ], [ -112.5507101, 46.0103386, 1925.287037 ], [ -112.5504344, 46.0091398, 1925.287037 ], [ -112.5500169, 46.0091814, 1925.287037 ], [ -112.5498433, 46.0088085, 1925.287037 ], [ -112.5520665, 46.0084134, 1925.287037 ], [ -112.5522711, 46.007582, 1925.287037 ], [ -112.5519174, 46.0076879, 1925.287037 ], [ -112.5495446, 46.0076829, 1925.287037 ], [ -112.5495444, 46.0067131, 1925.287037 ], [ -112.5482849, 46.0069217, 1925.287037 ], [ -112.5483036, 46.0067546, 1925.287037 ], [ -112.5477076, 46.0069925, 1925.287037 ], [ -112.5466397, 46.0074166, 1925.287037 ], [ -112.5447675, 46.0081632, 1925.287037 ], [ -112.5434461, 46.0086911, 1925.287037 ], [ -112.543608, 46.0089563, 1925.287037 ], [ -112.5425865, 46.0090369, 1925.287037 ], [ -112.5405833, 46.0098436, 1925.287037 ], [ -112.539659, 46.0102194, 1925.287037 ], [ -112.5384944, 46.0087924, 1925.287037 ], [ -112.5406054, 46.0079354, 1925.287037 ], [ -112.5404765, 46.007333, 1925.287037 ], [ -112.5404765, 46.007333, 1925.287037 ], [ -112.5396887, 46.0077577, 1925.287037 ], [ -112.5385273, 46.0077454, 1925.287037 ], [ -112.538037, 46.0076999, 1925.287037 ], [ -112.5379745, 46.0069838, 1925.287037 ], [ -112.5390974, 46.0063796, 1925.287037 ], [ -112.5421312, 46.0047431, 1925.287037 ], [ -112.5392312, 46.0046416, 1925.287037 ], [ -112.5391852, 46.003006, 1925.287037 ], [ -112.5339009, 46.0017806, 1925.287037 ], [ -112.5339006, 46.0007946, 1925.287037 ], [ -112.5350479, 46.0011033, 1925.287037 ], [ -112.5358433, 46.0013868, 1925.287037 ], [ -112.5363924, 46.0015041, 1925.287037 ], [ -112.5367838, 46.0016434, 1925.287037 ], [ -112.5376799, 46.0019615, 1925.287037 ], [ -112.5376789, 46.0018113, 1925.287037 ], [ -112.537063, 46.001592, 1925.287037 ], [ -112.536447, 46.0013728, 1925.287037 ], [ -112.5359316, 46.0012629, 1925.287037 ], [ -112.5351151, 46.0009725, 1925.287037 ], [ -112.5338997, 46.0006464, 1925.287037 ], [ -112.5338997, 46.0005806, 1925.287037 ], [ -112.5302479, 46.0004782, 1925.287037 ], [ -112.5302022, 46.0021216, 1925.287037 ], [ -112.5335963, 46.0022124, 1925.287037 ], [ -112.5336312, 46.0033344, 1925.287037 ], [ -112.5392312, 46.0046416, 1925.287037 ], [ -112.5349951, 46.0040315, 1925.287037 ], [ -112.5348656, 46.0056814, 1925.287037 ], [ -112.5326909, 46.0047494, 1925.287037 ], [ -112.5296922, 46.0038242, 1925.287037 ], [ -112.5292136, 46.0045762, 1925.287037 ], [ -112.5334735, 46.0058937, 1925.287037 ], [ -112.5336729, 46.0055805, 1925.287037 ], [ -112.5348109, 46.0059258, 1925.287037 ], [ -112.5348873, 46.0058059, 1925.287037 ], [ -112.5345061, 46.0056881, 1925.287037 ], [ -112.5348495, 46.0056791, 1925.287037 ], [ -112.5348656, 46.0056814, 1925.287037 ], [ -112.534493, 46.005684, 1925.287037 ] ] } },
{ "type": "Feature", "properties": { "Name": "1-BLOCK - EMMA-ISLV" }, "geometry": { "type": "Polygon", "coordinates": [ [ [ -112.5281274, 46.007891, 1925.287037 ], [ -112.5236763, 46.0080942, 1925.287037 ], [ -112.5217891, 46.0076038, 1925.287037 ], [ -112.5199748, 46.0068411, 1925.287037 ], [ -112.5186483, 46.0066077, 1925.287037 ], [ -112.5186473, 46.0067489, 1925.287037 ], [ -112.5198983, 46.0069691, 1925.287037 ], [ -112.5217153, 46.0077369, 1925.287037 ], [ -112.5231758, 46.0081115, 1925.287037 ], [ -112.5226999, 46.0081287, 1925.287037 ], [ -112.5227531, 46.0087076, 1925.287037 ], [ -112.52032, 46.0084385, 1925.287037 ], [ -112.5196208, 46.0084389, 1925.287037 ], [ -112.5196334, 46.0085757, 1925.287037 ], [ -112.51988, 46.0085756, 1925.287037 ], [ -112.5198885, 46.0086678, 1925.287037 ], [ -112.522779, 46.0089881, 1925.287037 ], [ -112.5227809, 46.0090074, 1925.287037 ], [ -112.5232286, 46.0097119, 1925.287037 ], [ -112.5231328, 46.0097622, 1925.287037 ], [ -112.5282799, 46.0095419, 1925.287037 ], [ -112.5329237, 46.0103905, 1925.287037 ], [ -112.5327599, 46.008746, 1925.287037 ], [ -112.5281274, 46.007891, 1925.287037 ] ] ] } },
{ "type": "Feature", "properties": { "Name": "1-BLOCK - EMMA-ISLV" }, "geometry": { "type": "Polygon", "coordinates": [ [ [ -112.5273723, 45.9534502, -5.572872 ], [ -112.5273605, 45.956825, -5.572872 ], [ -112.5489666, 45.9568233, -5.572872 ], [ -112.5488552, 45.9531892, -5.572872 ], [ -112.5273723, 45.9534502, -5.572872 ] ] ] } },
{ "type": "Feature", "properties": { "Name": "1-BLOCK - EMMA-ISLV" }, "geometry": { "type": "Polygon", "coordinates": [ [ [ -112.5277105, 45.9896888, -5.572872 ], [ -112.527653, 45.986061, -5.572872 ], [ -112.5071709, 45.9860439, -5.572872 ], [ -112.5071836, 45.9897164, -5.572872 ], [ -112.5277105, 45.9896888, -5.572872 ] ] ] } },
{ "type": "Feature", "properties": { "Name": "1-BLOCK - EMMA-ISLV" }, "geometry": { "type": "Polygon", "coordinates": [ [ [ -112.5273723, 45.9534502, -5.572872 ], [ -112.5488552, 45.9531892, -5.572872 ], [ -112.5488493, 45.9495645, -5.572872 ], [ -112.5273859, 45.9495662, -5.572872 ], [ -112.5273723, 45.9534502, -5.572872 ] ] ] } },
{ "type": "Feature", "properties": { "Name": "1-BLOCK - EMMA-ISLV" }, "geometry": { "type": "Polygon", "coordinates": [ [ [ -112.5273859, 45.9495662, -5.572872 ], [ -112.5488493, 45.9495645, -5.572872 ], [ -112.5489879, 45.9458597, -5.572872 ], [ -112.527386, 45.9458614, -5.572872 ], [ -112.5273859, 45.9495662, -5.572872 ] ] ] } },
{ "type": "Feature", "properties": { "Name": "1-BLOCK - EMMA-ISLV" }, "geometry": { "type": "Polygon", "coordinates": [ [ [ -112.5273604, 45.9605297, -5.572872 ], [ -112.548968, 45.960528, -5.572872 ], [ -112.5489666, 45.9568233, -5.572872 ], [ -112.5273605, 45.956825, -5.572872 ], [ -112.5273604, 45.9605297, -5.572872 ] ] ] } },
{ "type": "Feature", "properties": { "Name": "1-BLOCK - EMMA-ISLV" }, "geometry": { "type": "Polygon", "coordinates": [ [ [ -112.5387961, 45.9765036, -5.572872 ], [ -112.5328841, 45.9756805, -5.572872 ], [ -112.5327379, 45.9773388, -5.572872 ], [ -112.538586, 45.9781497, -5.572872 ], [ -112.5387961, 45.9765036, -5.572872 ] ] ] } }
]
}
