{
"type": "FeatureCollection",
"name": "Layer 1-BLOCK - GOLDSMITH",
"features": [
{ "type": "Feature", "properties": { "Name": "1-BLOCK - GOLDSMITH" }, "geometry": { "type": "Polygon", "coordinates": [ [ [ -112.5473315, 46.0443033, 1925.287037 ], [ -112.5473503, 46.0444448, 1925.287037 ], [ -112.5473211, 46.0444468, 1925.287037 ], [ -112.5472605, 46.0452668, 1925.287037 ], [ -112.5437448, 46.0452708, 1925.287037 ], [ -112.5437477, 46.0461647, 1925.287037 ], [ -112.5496009, 46.045738, 1925.287037 ], [ -112.5496057, 46.0442816, 1925.287037 ], [ -112.5494421, 46.0442936, 1925.287037 ], [ -112.5494033, 46.0439988, 1925.287037 ], [ -112.5473315, 46.0443033, 1925.287037 ] ] ] } },
{ "type": "Feature", "properties": { "Name": "1-BLOCK - GOLDSMITH" }, "geometry": { "type": "Polygon", "coordinates": [ [ [ -112.5666936, 46.0305473, 1925.287037 ], [ -112.5666936, 46.0305473, 1925.287037 ], [ -112.5615103, 46.0317397, 1925.287037 ], [ -112.5613724, 46.0314566, 1925.287037 ], [ -112.5612179, 46.0314728, 1925.287037 ], [ -112.5613577, 46.0327586, 1925.287037 ], [ -112.5668706, 46.0321173, 1925.287037 ], [ -112.5666936, 46.0305473, 1925.287037 ] ] ] } },
{ "type": "Feature", "properties": { "Name": "1-BLOCK - GOLDSMITH" }, "geometry": { "type": "Polygon", "coordinates": [ [ [ -112.5495837, 46.0319807, 1925.287037 ], [ -112.5452506, 46.0322794, 1925.287037 ], [ -112.5452965, 46.0326129, 1925.287037 ], [ -112.5452351, 46.0326315, 1925.287037 ], [ -112.5452146, 46.0331265, 1925.287037 ], [ -112.5451808, 46.0339318, 1925.287037 ], [ -112.5501904, 46.0335904, 1925.287037 ], [ -112.5502237, 46.0328272, 1925.287037 ], [ -112.5505015, 46.0327666, 1925.287037 ], [ -112.5507553, 46.0337908, 1925.287037 ], [ -112.5564005, 46.0338056, 1925.287037 ], [ -112.5562378, 46.0347528, 1925.287037 ], [ -112.5561632, 46.0351858, 1925.287037 ], [ -112.555369, 46.0352161, 1925.287037 ], [ -112.5553765, 46.0361349, 1925.287037 ], [ -112.5547962, 46.0361662, 1925.287037 ], [ -112.5548768, 46.0364174, 1925.287037 ], [ -112.5593019, 46.0358299, 1925.287037 ], [ -112.5591578, 46.0354484, 1925.287037 ], [ -112.5611812, 46.0349396, 1925.287037 ], [ -112.5616819, 46.0362672, 1925.287037 ], [ -112.5616999, 46.0363149, 1925.287037 ], [ -112.5603099, 46.0365267, 1925.287037 ], [ -112.5608466, 46.0378404, 1925.287037 ], [ -112.5628233, 46.0375576, 1925.287037 ], [ -112.5677224, 46.0368393, 1925.287037 ], [ -112.5675728, 46.0361793, 1925.287037 ], [ -112.5682381, 46.0360705, 1925.287037 ], [ -112.5682308, 46.0353911, 1925.287037 ], [ -112.5662298, 46.0356584, 1925.287037 ], [ -112.5657191, 46.034299, 1925.287037 ], [ -112.5669024, 46.0341053, 1925.287037 ], [ -112.5661523, 46.0326973, 1925.287037 ], [ -112.5667244, 46.0325493, 1925.287037 ], [ -112.5704986, 46.0315752, 1925.287037 ], [ -112.5704961, 46.0315049, 1925.287037 ], [ -112.5706057, 46.0314909, 1925.287037 ], [ -112.570449, 46.0300738, 1925.287037 ], [ -112.5725094, 46.0298164, 1925.287037 ], [ -112.572219, 46.0292139, 1925.287037 ], [ -112.5727086, 46.0280605, 1925.287037 ], [ -112.569782, 46.0276514, 1925.287037 ], [ -112.5669551, 46.0272489, 1925.287037 ], [ -112.5672143, 46.0267531, 1925.287037 ], [ -112.5638975, 46.0265654, 1925.287037 ], [ -112.5638793, 46.0266002, 1925.287037 ], [ -112.5599039, 46.026253, 1925.287037 ], [ -112.5585962, 46.0261367, 1925.287037 ], [ -112.5580559, 46.0271657, 1925.287037 ], [ -112.5580472, 46.0275786, 1925.287037 ], [ -112.5580282, 46.0283571, 1925.287037 ], [ -112.5583336, 46.028376, 1925.287037 ], [ -112.5583976, 46.0285541, 1925.287037 ], [ -112.5542903, 46.0289828, 1925.287037 ], [ -112.5543644, 46.0299854, 1925.287037 ], [ -112.5503111, 46.0310207, 1925.287037 ], [ -112.5503653, 46.0317371, 1925.287037 ], [ -112.5498578, 46.0317728, 1925.287037 ], [ -112.5498507, 46.0319624, 1925.287037 ], [ -112.5495837, 46.0319807, 1925.287037 ] ] ] } }
]
}
