{"type":"FeatureCollection","features":[{"type":"Feature","id":0,"geometry":{"type":"MultiPoint","coordinates":[[-112.50981309256125,46.016419870870443]]},"properties":{"FID":0,"id":" ","Name":"Berkeley Pit","descriptio":" ","timestamp":" ","begin":" ","end":" ","altitudeMo":" ","tessellate":-1,"extrude":0,"visibility":-1,"drawOrder":0,"icon":" "}},{"type":"Feature","id":1,"geometry":{"type":"MultiPoint","coordinates":[[-112.47827570740185,46.010265839314187]]},"properties":{"FID":1,"id":" ","Name":"Continental Pit","descriptio":" ","timestamp":" ","begin":" ","end":" ","altitudeMo":" ","tessellate":-1,"extrude":0,"visibility":-1,"drawOrder":0,"icon":" "}},{"type":"Feature","id":2,"geometry":{"type":"MultiPoint","coordinates":[[-112.50401876555236,46.007429619048096]]},"properties":{"FID":2,"id":" ","Name":"Montana Resources LLP","descriptio":" ","timestamp":" ","begin":" ","end":" ","altitudeMo":" ","tessellate":-1,"extrude":0,"visibility":-1,"drawOrder":0,"icon":" "}},{"type":"Feature","id":3,"geometry":{"type":"MultiPoint","coordinates":[[-112.50431536407092,46.041334022206648]]},"properties":{"FID":3,"id":" ","Name":"Yankee Doodle Tailings Impoundment","descriptio":" ","timestamp":" ","begin":" ","end":" ","altitudeMo":" ","tessellate":-1,"extrude":0,"visibility":-1,"drawOrder":0,"icon":" "}},{"type":"Feature","id":4,"geometry":{"type":"MultiPoint","coordinates":[[-112.53700308319534,46.03240658139093]]},"properties":{"FID":4,"id":" ","Name":"Alice Pit","descriptio":" ","timestamp":" ","begin":" ","end":" ","altitudeMo":" ","tessellate":-1,"extrude":0,"visibility":-1,"drawOrder":0,"icon":" "}},{"type":"Feature","id":5,"geometry":{"type":"MultiPoint","coordinates":[[-112.51652103634881,45.986283330848309]]},"properties":{"FID":5,"id":" ","Name":"Interstate 90","descriptio":" ","timestamp":" ","begin":" ","end":" ","altitudeMo":" ","tessellate":-1,"extrude":0,"visibility":-1,"drawOrder":0,"icon":" "}},{"type":"Feature","id":6,"geometry":{"type":"MultiPoint","coordinates":[[-112.47221313906461,45.995639787072683]]},"properties":{"FID":6,"id":" ","Name":"Interstate 15","descriptio":" ","timestamp":" ","begin":" ","end":" ","altitudeMo":" ","tessellate":-1,"extrude":0,"visibility":-1,"drawOrder":0,"icon":" "}},{"type":"Feature","id":7,"geometry":{"type":"MultiPoint","coordinates":[[-112.52342771883809,46.030514193358158]]},"properties":{"FID":7,"id":" ","Name":"Badger Mine Headframe","descriptio":" ","timestamp":" ","begin":" ","end":" ","altitudeMo":" ","tessellate":-1,"extrude":0,"visibility":-1,"drawOrder":0,"icon":" "}},{"type":"Feature","id":8,"geometry":{"type":"MultiPoint","coordinates":[[-112.52438916021433,46.030684865644943]]},"properties":{"FID":8,"id":" ","Name":"Badger Hoist House","descriptio":" ","timestamp":" ","begin":" ","end":" ","altitudeMo":" ","tessellate":-1,"extrude":0,"visibility":-1,"drawOrder":0,"icon":" "}},{"type":"Feature","id":9,"geometry":{"type":"MultiPoint","coordinates":[[-112.52440650121231,46.027389537623165]]},"properties":{"FID":9,"id":" ","Name":"Northwestern Energy Substation","descriptio":" ","timestamp":" ","begin":" ","end":" ","altitudeMo":" ","tessellate":-1,"extrude":0,"visibility":-1,"drawOrder":0,"icon":" "}},{"type":"Feature","id":10,"geometry":{"type":"MultiPoint","coordinates":[[-112.5411848379719,46.025418169916975]]},"properties":{"FID":10,"id":" ","Name":"Missoula Mine Shaft","descriptio":" ","timestamp":" ","begin":" ","end":" ","altitudeMo":" ","tessellate":-1,"extrude":0,"visibility":-1,"drawOrder":0,"icon":" "}},{"type":"Feature","id":11,"geometry":{"type":"MultiPoint","coordinates":[[-112.54177093334692,46.025599740989023]]},"properties":{"FID":11,"id":" ","Name":"Missoula Hoist House","descriptio":" ","timestamp":" ","begin":" ","end":" ","altitudeMo":" ","tessellate":-1,"extrude":0,"visibility":-1,"drawOrder":0,"icon":" "}},{"type":"Feature","id":12,"geometry":{"type":"MultiPoint","coordinates":[[-112.54167124671504,46.025212398338454]]},"properties":{"FID":12,"id":" ","Name":"Missoula Office and Dry Building","descriptio":" ","timestamp":" ","begin":" ","end":" ","altitudeMo":" ","tessellate":-1,"extrude":0,"visibility":-1,"drawOrder":0,"icon":" "}},{"type":"Feature","id":13,"geometry":{"type":"MultiPoint","coordinates":[[-112.54525638724043,46.021120729297216]]},"properties":{"FID":13,"id":" ","Name":"Lexington Tunnel Portal","descriptio":" ","timestamp":" ","begin":" ","end":" ","altitudeMo":" ","tessellate":-1,"extrude":0,"visibility":-1,"drawOrder":0,"icon":" "}},{"type":"Feature","id":14,"geometry":{"type":"MultiPoint","coordinates":[[-112.52507954748752,46.029101466259263]]},"properties":{"FID":14,"id":" ","Name":"Chief Joseph Portal","descriptio":" ","timestamp":" ","begin":" ","end":" ","altitudeMo":" ","tessellate":-1,"extrude":0,"visibility":-1,"drawOrder":0,"icon":" "}},{"type":"Feature","id":15,"geometry":{"type":"MultiPoint","coordinates":[[-112.52844810244858,46.020045279618863]]},"properties":{"FID":15,"id":" ","Name":"Kelley Mine Headframe","descriptio":" ","timestamp":" ","begin":" ","end":" ","altitudeMo":" ","tessellate":-1,"extrude":0,"visibility":-1,"drawOrder":0,"icon":" "}},{"type":"Feature","id":16,"geometry":{"type":"MultiPoint","coordinates":[[-112.55850650359288,46.011710202019323]]},"properties":{"FID":16,"id":" ","Name":"Montana Tech","descriptio":" ","timestamp":" ","begin":" ","end":" ","altitudeMo":" ","tessellate":-1,"extrude":0,"visibility":-1,"drawOrder":0,"icon":" "}},{"type":"Feature","id":17,"geometry":{"type":"MultiPoint","coordinates":[[-112.56594772274364,46.010557027325753]]},"properties":{"FID":17,"id":" ","Name":"World Museum of Mining","descriptio":" ","timestamp":" ","begin":" ","end":" ","altitudeMo":" ","tessellate":-1,"extrude":0,"visibility":-1,"drawOrder":0,"icon":" "}},{"type":"Feature","id":18,"geometry":{"type":"MultiPoint","coordinates":[[-112.54734004834681,46.017103306933187]]},"properties":{"FID":18,"id":" ","Name":"Anselmo Mine Headframe","descriptio":" ","timestamp":" ","begin":" ","end":" ","altitudeMo":" ","tessellate":-1,"extrude":0,"visibility":-1,"drawOrder":0,"icon":" "}},{"type":"Feature","id":19,"geometry":{"type":"MultiPoint","coordinates":[[-112.53229068896336,46.023094163227171]]},"properties":{"FID":19,"id":" ","Name":"Mt. Con Mine Headframe","descriptio":" ","timestamp":" ","begin":" ","end":" ","altitudeMo":" ","tessellate":-1,"extrude":0,"visibility":-1,"drawOrder":0,"icon":" "}},{"type":"Feature","id":20,"geometry":{"type":"MultiPoint","coordinates":[[-112.52411962454167,46.024867783290496]]},"properties":{"FID":20,"id":" ","Name":"Bell-Diamond Mine Headframe","descriptio":" ","timestamp":" ","begin":" ","end":" ","altitudeMo":" ","tessellate":-1,"extrude":0,"visibility":-1,"drawOrder":0,"icon":" "}},{"type":"Feature","id":21,"geometry":{"type":"MultiPoint","coordinates":[[-112.51971771716249,46.027836120777209]]},"properties":{"FID":21,"id":" ","Name":"Granite Mountain Mine Headframe","descriptio":" ","timestamp":" ","begin":" ","end":" ","altitudeMo":" ","tessellate":-1,"extrude":0,"visibility":-1,"drawOrder":0,"icon":" "}},{"type":"Feature","id":22,"geometry":{"type":"MultiPoint","coordinates":[[-112.55920729148136,46.019238535905139]]},"properties":{"FID":22,"id":" ","Name":"Big Butte","descriptio":" ","timestamp":" ","begin":" ","end":" ","altitudeMo":" ","tessellate":-1,"extrude":0,"visibility":-1,"drawOrder":0,"icon":" "}},{"type":"Feature","id":23,"geometry":{"type":"MultiPoint","coordinates":[[-112.54557684492929,46.004822080271964]]},"properties":{"FID":23,"id":" ","Name":"Travona Mine Headframe","descriptio":" ","timestamp":" ","begin":" ","end":" ","altitudeMo":" ","tessellate":-1,"extrude":0,"visibility":-1,"drawOrder":0,"icon":" "}},{"type":"Feature","id":24,"geometry":{"type":"MultiPoint","coordinates":[[-112.50115304467704,45.954265405354739]]},"properties":{"FID":24,"id":" ","Name":"Bert Mooney Airport","descriptio":" ","timestamp":" ","begin":" ","end":" ","altitudeMo":" ","tessellate":-1,"extrude":0,"visibility":-1,"drawOrder":0,"icon":" "}},{"type":"Feature","id":25,"geometry":{"type":"MultiPoint","coordinates":[[-112.53518999858832,46.028144649462085]]},"properties":{"FID":25,"id":" ","Name":"Lexington Mine Headframe","descriptio":" ","timestamp":" ","begin":" ","end":" ","altitudeMo":" ","tessellate":-1,"extrude":0,"visibility":-1,"drawOrder":0,"icon":" "}},{"type":"Feature","id":26,"geometry":{"type":"MultiPoint","coordinates":[[-112.53777365130223,46.016970019874037]]},"properties":{"FID":26,"id":" ","Name":"Original Mine Headframe","descriptio":" ","timestamp":" ","begin":" ","end":" ","altitudeMo":" ","tessellate":-1,"extrude":0,"visibility":-1,"drawOrder":0,"icon":" "}},{"type":"Feature","id":27,"geometry":{"type":"MultiPoint","coordinates":[[-112.53514678453304,46.018142741250365]]},"properties":{"FID":27,"id":" ","Name":"Steward Mine Headframe","descriptio":" ","timestamp":" ","begin":" ","end":" ","altitudeMo":" ","tessellate":-1,"extrude":0,"visibility":-1,"drawOrder":0,"icon":" "}},{"type":"Feature","id":28,"geometry":{"type":"MultiPoint","coordinates":[[-112.52919795904307,46.016495339601725]]},"properties":{"FID":28,"id":" ","Name":"Parrot Mine Headframe","descriptio":" ","timestamp":" ","begin":" ","end":" ","altitudeMo":" ","tessellate":-1,"extrude":0,"visibility":-1,"drawOrder":0,"icon":" "}},{"type":"Feature","id":29,"geometry":{"type":"MultiPoint","coordinates":[[-112.56545233719604,46.010028944381169]]},"properties":{"FID":29,"id":" ","Name":"Orphan Girl Mine Headframe","descriptio":" ","timestamp":" ","begin":" ","end":" ","altitudeMo":" ","tessellate":-1,"extrude":0,"visibility":-1,"drawOrder":0,"icon":" "}},{"type":"Feature","id":30,"geometry":{"type":"MultiPoint","coordinates":[[-112.55179914558441,46.031754990106769]]},"properties":{"FID":30,"id":" ","Name":"Ryan Mine Site","descriptio":" ","timestamp":" ","begin":" ","end":" ","altitudeMo":" ","tessellate":-1,"extrude":0,"visibility":-1,"drawOrder":0,"icon":" "}}]}