{
"type": "FeatureCollection",
"name": "Layer 1-BLOCK - TRAVONA",
"features": [
{ "type": "Feature", "properties": { "Name": "1-BLOCK - TRAVONA" }, "geometry": { "type": "Polygon", "coordinates": [ [ [ -112.5495467, 45.996995, 1925.287037 ], [ -112.5495476, 45.997741, 1925.287037 ], [ -112.5479419, 45.9977099, 1925.287037 ], [ -112.5479658, 45.997846, 1925.287037 ], [ -112.5495476, 45.9978776, 1925.287037 ], [ -112.5497735, 45.9986293, 1925.287037 ], [ -112.5539854, 45.9987111, 1925.287037 ], [ -112.5538782, 45.9981017, 1925.287037 ], [ -112.5547368, 45.9981207, 1925.287037 ], [ -112.5547321, 45.9968155, 1925.287037 ], [ -112.5495466, 45.9967923, 1925.287037 ], [ -112.5495467, 45.996995, 1925.287037 ] ] ] } },
{ "type": "Feature", "properties": { "Name": "1-BLOCK - TRAVONA" }, "geometry": { "type": "Polygon", "coordinates": [ [ [ -112.5421312, 46.0047431, 1925.287037 ], [ -112.5379745, 46.0069838, 1925.287037 ], [ -112.5380008, 46.0072856, 1925.287037 ], [ -112.5380408, 46.0077453, 1925.287037 ], [ -112.5396746, 46.0077655, 1925.287037 ], [ -112.5404765, 46.007333, 1925.287037 ], [ -112.5406054, 46.0079354, 1925.287037 ], [ -112.5384944, 46.0087924, 1925.287037 ], [ -112.539659, 46.0102194, 1925.287037 ], [ -112.5447675, 46.0081632, 1925.287037 ], [ -112.5466397, 46.0074166, 1925.287037 ], [ -112.5477076, 46.0069925, 1925.287037 ], [ -112.5483036, 46.0067546, 1925.287037 ], [ -112.5482849, 46.0069217, 1925.287037 ], [ -112.5489146, 46.0068174, 1925.287037 ], [ -112.5495444, 46.0067131, 1925.287037 ], [ -112.5540002, 46.0059434, 1925.287037 ], [ -112.5540895, 46.0051891, 1925.287037 ], [ -112.5541287, 46.0052753, 1925.287037 ], [ -112.5545875, 46.0051741, 1925.287037 ], [ -112.5546814, 46.0052958, 1925.287037 ], [ -112.5590077, 46.0047526, 1925.287037 ], [ -112.5590552, 46.0048141, 1925.287037 ], [ -112.5594957, 46.0046916, 1925.287037 ], [ -112.5594803, 46.0051028, 1925.287037 ], [ -112.5594222, 46.0066232, 1925.287037 ], [ -112.5600922, 46.0064513, 1925.287037 ], [ -112.5599933, 46.0060043, 1925.287037 ], [ -112.5619498, 46.0059798, 1925.287037 ], [ -112.5649306, 46.0052186, 1925.287037 ], [ -112.5649382, 46.0050158, 1925.287037 ], [ -112.565336, 46.0049343, 1925.287037 ], [ -112.5653412, 46.0046783, 1925.287037 ], [ -112.5687917, 46.003695, 1925.287037 ], [ -112.5707637, 46.0031126, 1925.287037 ], [ -112.5727451, 46.0028332, 1925.287037 ], [ -112.5757649, 46.0023802, 1925.287037 ], [ -112.5757664, 46.0022291, 1925.287037 ], [ -112.5786688, 46.0024605, 1925.287037 ], [ -112.5790447, 46.0011754, 1925.287037 ], [ -112.5777551, 46.0007854, 1925.287037 ], [ -112.5745462, 46.0006956, 1925.287037 ], [ -112.5742399, 46.001734, 1925.287037 ], [ -112.5740613, 46.0006985, 1925.287037 ], [ -112.5726798, 46.0010002, 1925.287037 ], [ -112.5726474, 46.0000973, 1925.287037 ], [ -112.5732916, 45.9999739, 1925.287037 ], [ -112.5734152, 45.9996282, 1925.287037 ], [ -112.5734149, 45.9995607, 1925.287037 ], [ -112.5718595, 45.9991554, 1925.287037 ], [ -112.5707598, 45.9993721, 1925.287037 ], [ -112.5708344, 45.9997107, 1925.287037 ], [ -112.5684368, 45.9998244, 1925.287037 ], [ -112.5654333, 45.9999689, 1925.287037 ], [ -112.5648902, 46.000058, 1925.287037 ], [ -112.5616313, 46.0008916, 1925.287037 ], [ -112.5599583, 46.0013195, 1925.287037 ], [ -112.5599277, 46.0004614, 1925.287037 ], [ -112.5597865, 45.9998507, 1925.287037 ], [ -112.5594618, 45.9997717, 1925.287037 ], [ -112.5594866, 46.0004639, 1925.287037 ], [ -112.5592848, 46.0010241, 1925.287037 ], [ -112.5557914, 46.001191, 1925.287037 ], [ -112.5558403, 46.0015982, 1925.287037 ], [ -112.5558642, 46.0017978, 1925.287037 ], [ -112.5552426, 46.0031172, 1925.287037 ], [ -112.5541562, 46.0032512, 1925.287037 ], [ -112.5495446, 46.0038058, 1925.287037 ], [ -112.5495452, 46.0036016, 1925.287037 ], [ -112.5495479, 46.0027495, 1925.287037 ], [ -112.548958, 46.0026164, 1925.287037 ], [ -112.5489112, 46.0008291, 1925.287037 ], [ -112.5487083, 46.0001411, 1925.287037 ], [ -112.547706, 46.0001425, 1925.287037 ], [ -112.547706, 46.0000053, 1925.287037 ], [ -112.5457385, 46.000008, 1925.287037 ], [ -112.5457385, 46.000145, 1925.287037 ], [ -112.5453563, 46.0001609, 1925.287037 ], [ -112.5443219, 46.0001476, 1925.287037 ], [ -112.5443331, 45.9998889, 1925.287037 ], [ -112.5429998, 45.9996385, 1925.287037 ], [ -112.5465179, 45.9998936, 1925.287037 ], [ -112.5464974, 45.9992422, 1925.287037 ], [ -112.5454745, 45.9991805, 1925.287037 ], [ -112.5453457, 45.9987918, 1925.287037 ], [ -112.5449454, 45.9975839, 1925.287037 ], [ -112.5390967, 45.99738, 1925.287037 ], [ -112.5390925, 45.997465, 1925.287037 ], [ -112.53915, 45.997646, 1925.287037 ], [ -112.5391512, 45.99818, 1925.287037 ], [ -112.5338424, 45.9980675, 1925.287037 ], [ -112.5336433, 45.9995414, 1925.287037 ], [ -112.5387582, 45.9994826, 1925.287037 ], [ -112.5386968, 45.9996752, 1925.287037 ], [ -112.5386623, 46.0004252, 1925.287037 ], [ -112.5403523, 46.0004224, 1925.287037 ], [ -112.5403828, 46.0022021, 1925.287037 ], [ -112.5426536, 46.0028131, 1925.287037 ], [ -112.5403848, 46.002324, 1925.287037 ], [ -112.5404008, 46.003381, 1925.287037 ], [ -112.5391492, 46.0029949, 1925.287037 ], [ -112.5392023, 46.0020965, 1925.287037 ], [ -112.5376789, 46.0018113, 1925.287037 ], [ -112.5376799, 46.0019615, 1925.287037 ], [ -112.5372318, 46.0018024, 1925.287037 ], [ -112.5363924, 46.0015041, 1925.287037 ], [ -112.5358433, 46.0013868, 1925.287037 ], [ -112.5350479, 46.0011033, 1925.287037 ], [ -112.5344025, 46.0009297, 1925.287037 ], [ -112.5339006, 46.0007946, 1925.287037 ], [ -112.533901, 46.0019542, 1925.287037 ], [ -112.5391852, 46.003006, 1925.287037 ], [ -112.5392082, 46.0038238, 1925.287037 ], [ -112.5392312, 46.0046416, 1925.287037 ], [ -112.5421312, 46.0047431, 1925.287037 ] ] ] } },
{ "type": "Feature", "properties": { "Name": "1-BLOCK - TRAVONA" }, "geometry": { "type": "Polygon", "coordinates": [ [ [ -112.5498433, 46.0088085, 1925.287037 ], [ -112.5500169, 46.0091814, 1925.287037 ], [ -112.5504344, 46.0091398, 1925.287037 ], [ -112.5507101, 46.0103383, 1925.287037 ], [ -112.5557622, 46.0090615, 1925.287037 ], [ -112.555509, 46.0083623, 1925.287037 ], [ -112.5546153, 46.0085415, 1925.287037 ], [ -112.5544957, 46.0079817, 1925.287037 ], [ -112.5498433, 46.0088085, 1925.287037 ] ] ] } },
{ "type": "Feature", "properties": { "Name": "1-BLOCK - TRAVONA" }, "geometry": { "type": "Polygon", "coordinates": [ [ [ -112.532136, 46.0130591, 1925.287037 ], [ -112.5321342, 46.0117918, 1925.287037 ], [ -112.5286026, 46.0118705, 1925.287037 ], [ -112.5286026, 46.0121222, 1925.287037 ], [ -112.5292646, 46.0122978, 1925.287037 ], [ -112.5303005, 46.0122782, 1925.287037 ], [ -112.5303361, 46.0125813, 1925.287037 ], [ -112.532136, 46.0130591, 1925.287037 ] ] ] } },
{ "type": "Feature", "properties": { "Name": "Travona Block" }, "geometry": { "type": "Point", "coordinates": [ -112.5646173, 46.0035646, 1925.287037 ] } }
]
}
