{
"type": "FeatureCollection",
"name": "Layer 1-BLOCK - GREAT REPUBLIC",
"features": [
{ "type": "Feature", "properties": { "Name": "1-BLOCK - GREAT REPUBLIC" }, "geometry": { "type": "Polygon", "coordinates": [ [ [ -112.5824383, 46.0226844, 1941.356995 ], [ -112.5848521, 46.0219754, 1941.356995 ], [ -112.5849204, 46.0213509, 1941.356995 ], [ -112.5878437, 46.0213674, 1941.356995 ], [ -112.5866656, 46.021299, 1941.356995 ], [ -112.5871828, 46.0200836, 1941.356995 ], [ -112.5830065, 46.0211658, 1941.356995 ], [ -112.5824383, 46.0226844, 1941.356995 ] ] ] } },
{ "type": "Feature", "properties": { "Name": "1-BLOCK - GREAT REPUBLIC" }, "geometry": { "type": "Polygon", "coordinates": [ [ [ -112.5882328, 46.0165368, 1925.287037 ], [ -112.5893625, 46.0164275, 1925.287037 ], [ -112.589885, 46.0156033, 1925.287037 ], [ -112.5878608, 46.0158499, 1925.287037 ], [ -112.587804, 46.0154045, 1925.287037 ], [ -112.5847747, 46.0160661, 1925.287037 ], [ -112.5838058, 46.0175873, 1925.287037 ], [ -112.5838699, 46.0177892, 1925.287037 ], [ -112.5836566, 46.0178222, 1925.287037 ], [ -112.5837407, 46.0180121, 1925.287037 ], [ -112.5871281, 46.0172572, 1925.287037 ], [ -112.5871276, 46.0171551, 1925.287037 ], [ -112.5876268, 46.0171453, 1925.287037 ], [ -112.5882294, 46.0170101, 1925.287037 ], [ -112.5882328, 46.0165368, 1925.287037 ] ] ] } },
{ "type": "Feature", "properties": { "Name": "1-BLOCK - GREAT REPUBLIC" }, "geometry": { "type": "Polygon", "coordinates": [ [ [ -112.591952, 46.0146763, 1925.287037 ], [ -112.5920438, 46.0145448, 1925.287037 ], [ -112.5916945, 46.0144229, 1925.287037 ], [ -112.59161, 46.0145434, 1925.287037 ], [ -112.591952, 46.0146763, 1925.287037 ] ] ] } },
{ "type": "Feature", "properties": { "Name": "1-BLOCK - GREAT REPUBLIC" }, "geometry": { "type": "Polygon", "coordinates": [ [ [ -112.5913331, 46.0143014, 1925.287037 ], [ -112.591334, 46.0144297, 1925.287037 ], [ -112.5915466, 46.0145184, 1925.287037 ], [ -112.5916299, 46.0143993, 1925.287037 ], [ -112.5913331, 46.0143014, 1925.287037 ] ] ] } },
{ "type": "Feature", "properties": { "Name": "1-BLOCK - GREAT REPUBLIC" }, "geometry": { "type": "Polygon", "coordinates": [ [ [ -112.593407, 46.0138387, 1925.287037 ], [ -112.5927167, 46.0140849, 1925.287037 ], [ -112.5922291, 46.0147882, 1925.287037 ], [ -112.5925724, 46.0149239, 1925.287037 ], [ -112.5930098, 46.0142941, 1925.287037 ], [ -112.5935005, 46.0141248, 1925.287037 ], [ -112.593407, 46.0138387, 1925.287037 ] ] ] } },
{ "type": "Feature", "properties": { "Name": "1-BLOCK - GREAT REPUBLIC" }, "geometry": { "type": "Polygon", "coordinates": [ [ [ -112.5920467, 46.0139054, 1925.287037 ], [ -112.5924065, 46.0140255, 1925.287037 ], [ -112.5924937, 46.0139006, 1925.287037 ], [ -112.5920467, 46.0139054, 1925.287037 ] ] ] } },
{ "type": "Feature", "properties": { "Name": "1-BLOCK - GREAT REPUBLIC" }, "geometry": { "type": "Polygon", "coordinates": [ [ [ -112.5918937, 46.0141262, 1925.287037 ], [ -112.5922538, 46.0142442, 1925.287037 ], [ -112.592352, 46.0141035, 1925.287037 ], [ -112.5919926, 46.0139835, 1925.287037 ], [ -112.5918937, 46.0141262, 1925.287037 ] ] ] } },
{ "type": "Feature", "properties": { "Name": "1-BLOCK - GREAT REPUBLIC" }, "geometry": { "type": "Polygon", "coordinates": [ [ [ -112.5917916, 46.0142734, 1925.287037 ], [ -112.5921491, 46.0143941, 1925.287037 ], [ -112.5921975, 46.0143248, 1925.287037 ], [ -112.59184, 46.0142036, 1925.287037 ], [ -112.5917916, 46.0142734, 1925.287037 ] ] ] } },
{ "type": "Feature", "properties": { "Name": "1-BLOCK - GREAT REPUBLIC" }, "geometry": { "type": "Polygon", "coordinates": [ [ [ -112.5939305, 46.0148292, 1925.287037 ], [ -112.5939631, 46.0149092, 1925.287037 ], [ -112.5943436, 46.0148319, 1925.287037 ], [ -112.5943024, 46.0147563, 1925.287037 ], [ -112.5939305, 46.0148292, 1925.287037 ] ] ] } },
{ "type": "Feature", "properties": { "Name": "1-BLOCK - GREAT REPUBLIC" }, "geometry": { "type": "Polygon", "coordinates": [ [ [ -112.6065434, 46.015323, 1925.287037 ], [ -112.6062961, 46.0144967, 1925.287037 ], [ -112.6055128, 46.0118795, 1925.287037 ], [ -112.6016932, 46.0127327, 1925.287037 ], [ -112.6002896, 46.0130485, 1925.287037 ], [ -112.6003995, 46.0130443, 1925.287037 ], [ -112.600543, 46.013614, 1925.287037 ], [ -112.5990386, 46.0136704, 1925.287037 ], [ -112.5946472, 46.0138293, 1925.287037 ], [ -112.593411, 46.0138511, 1925.287037 ], [ -112.593407, 46.0138387, 1925.287037 ], [ -112.5905434, 46.0138564, 1925.287037 ], [ -112.5876518, 46.0142105, 1925.287037 ], [ -112.5848294, 46.0145547, 1925.287037 ], [ -112.5851045, 46.0150978, 1925.287037 ], [ -112.5795054, 46.016254, 1925.287037 ], [ -112.5791368, 46.0154991, 1925.287037 ], [ -112.5782966, 46.01567, 1925.287037 ], [ -112.5742277, 46.0177657, 1925.287037 ], [ -112.5742013, 46.0176138, 1925.287037 ], [ -112.5739233, 46.0177329, 1925.287037 ], [ -112.5739136, 46.0178721, 1925.287037 ], [ -112.5691197, 46.0175588, 1925.287037 ], [ -112.5690176, 46.0183333, 1925.287037 ], [ -112.569078, 46.0189372, 1925.287037 ], [ -112.5696912, 46.0199257, 1925.287037 ], [ -112.5644268, 46.0217897, 1925.287037 ], [ -112.5653628, 46.0232981, 1925.287037 ], [ -112.5646246, 46.0235598, 1925.287037 ], [ -112.5674014, 46.02433, 1925.287037 ], [ -112.5672525, 46.025514, 1925.287037 ], [ -112.5667624, 46.0254842, 1925.287037 ], [ -112.5667257, 46.0257767, 1925.287037 ], [ -112.5690908, 46.0259911, 1925.287037 ], [ -112.56815, 46.0264614, 1925.287037 ], [ -112.5685841, 46.0274811, 1925.287037 ], [ -112.569782, 46.0276514, 1925.287037 ], [ -112.5727086, 46.0280605, 1925.287037 ], [ -112.572219, 46.0292139, 1925.287037 ], [ -112.5725094, 46.0298164, 1925.287037 ], [ -112.572734, 46.0297712, 1925.287037 ], [ -112.5728378, 46.0289778, 1925.287037 ], [ -112.5756525, 46.0291613, 1925.287037 ], [ -112.5755757, 46.0258715, 1925.287037 ], [ -112.5808332, 46.0258661, 1925.287037 ], [ -112.580904, 46.0295191, 1925.287037 ], [ -112.5913466, 46.029399, 1925.287037 ], [ -112.5913587, 46.0284826, 1925.287037 ], [ -112.5933668, 46.0283197, 1925.287037 ], [ -112.5935021, 46.0279718, 1925.287037 ], [ -112.5943218, 46.0280334, 1925.287037 ], [ -112.594329, 46.0275749, 1925.287037 ], [ -112.5997014, 46.0275611, 1925.287037 ], [ -112.5999058, 46.0270381, 1925.287037 ], [ -112.6017596, 46.0253421, 1925.287037 ], [ -112.6017595, 46.0248403, 1925.287037 ], [ -112.6017939, 46.0248345, 1925.287037 ], [ -112.5960527, 46.025795, 1925.287037 ], [ -112.5955034, 46.0242028, 1925.287037 ], [ -112.6012405, 46.0232357, 1925.287037 ], [ -112.6017595, 46.0247345, 1925.287037 ], [ -112.6017625, 46.0239831, 1925.287037 ], [ -112.6017626, 46.0231475, 1925.287037 ], [ -112.6017625, 46.0221038, 1925.287037 ], [ -112.6017656, 46.0204555, 1925.287037 ], [ -112.6012272, 46.020564, 1925.287037 ], [ -112.600643, 46.0192, 1925.287037 ], [ -112.6018644, 46.0189875, 1925.287037 ], [ -112.6021583, 46.0185913, 1925.287037 ], [ -112.6030484, 46.0185796, 1925.287037 ], [ -112.6025727, 46.0169556, 1925.287037 ], [ -112.601743, 46.0169972, 1925.287037 ], [ -112.6017418, 46.0169026, 1925.287037 ], [ -112.606753, 46.0168803, 1925.287037 ], [ -112.6066508, 46.0160237, 1925.287037 ], [ -112.6065312, 46.015897, 1925.287037 ], [ -112.6064569, 46.0155182, 1925.287037 ], [ -112.6065434, 46.015323, 1925.287037 ] ] ] } },
{ "type": "Feature", "properties": { "Name": "Great Republic Block" }, "geometry": { "type": "Point", "coordinates": [ -112.5918029, 46.0243263, 1925.287037 ] } }
]
}
