{
"type": "FeatureCollection",
"name": "Layer 1-BLOCK - RAINBOW",
"features": [
{ "type": "Feature", "properties": { "Name": "1-BLOCK - RAINBOW" }, "geometry": { "type": "Polygon", "coordinates": [ [ [ -112.5579317, 46.0205953, 1925.287037 ], [ -112.5553467, 46.0205932, 1925.287037 ], [ -112.5554579, 46.020211, 1925.287037 ], [ -112.5536981, 46.0204001, 1925.287037 ], [ -112.5538167, 46.0208941, 1925.287037 ], [ -112.5490622, 46.0226448, 1925.287037 ], [ -112.5487256, 46.0227049, 1925.287037 ], [ -112.5484735, 46.0227453, 1925.287037 ], [ -112.5484924, 46.0227755, 1925.287037 ], [ -112.544831, 46.0238828, 1925.287037 ], [ -112.5398082, 46.0245277, 1925.287037 ], [ -112.5397064, 46.024187, 1925.287037 ], [ -112.5372298, 46.0238562, 1925.287037 ], [ -112.5347426, 46.023524, 1925.287037 ], [ -112.534997, 46.0245055, 1925.287037 ], [ -112.5331421, 46.0245469, 1925.287037 ], [ -112.5333475, 46.0254618, 1925.287037 ], [ -112.5282036, 46.0246063, 1925.287037 ], [ -112.5232467, 46.0239918, 1925.287037 ], [ -112.5224374, 46.0237483, 1925.287037 ], [ -112.5180423, 46.0224289, 1925.287037 ], [ -112.5176545, 46.023449, 1925.287037 ], [ -112.5188511, 46.0237561, 1925.287037 ], [ -112.5199264, 46.0240311, 1925.287037 ], [ -112.5188457, 46.0237749, 1925.287037 ], [ -112.5187311, 46.0241752, 1925.287037 ], [ -112.5187455, 46.0241798, 1925.287037 ], [ -112.5187174, 46.0242222, 1925.287037 ], [ -112.5185285, 46.0248762, 1925.287037 ], [ -112.5183179, 46.0248245, 1925.287037 ], [ -112.5177609, 46.025659, 1925.287037 ], [ -112.516447, 46.0255538, 1925.287037 ], [ -112.5164471, 46.0257813, 1925.287037 ], [ -112.5183744, 46.026155, 1925.287037 ], [ -112.5182802, 46.026405, 1925.287037 ], [ -112.5184992, 46.0264223, 1925.287037 ], [ -112.5187786, 46.0271501, 1925.287037 ], [ -112.5204594, 46.0273353, 1925.287037 ], [ -112.5199494, 46.0283661, 1925.287037 ], [ -112.5198596, 46.0283393, 1925.287037 ], [ -112.5193849, 46.0293789, 1925.287037 ], [ -112.5194204, 46.0293847, 1925.287037 ], [ -112.5193667, 46.0294533, 1925.287037 ], [ -112.5195052, 46.0295029, 1925.287037 ], [ -112.5193352, 46.0297414, 1925.287037 ], [ -112.5191841, 46.0296871, 1925.287037 ], [ -112.5184379, 46.0308312, 1925.287037 ], [ -112.5221492, 46.0314604, 1925.287037 ], [ -112.522401, 46.0328614, 1925.287037 ], [ -112.5228743, 46.0340751, 1925.287037 ], [ -112.5223622, 46.0340743, 1925.287037 ], [ -112.52241, 46.0344646, 1925.287037 ], [ -112.5202331, 46.0341483, 1925.287037 ], [ -112.5202633, 46.0358319, 1925.287037 ], [ -112.5234819, 46.0362854, 1925.287037 ], [ -112.5248671, 46.0364801, 1925.287037 ], [ -112.5266016, 46.0368574, 1925.287037 ], [ -112.5279142, 46.037144, 1925.287037 ], [ -112.5283501, 46.0371078, 1925.287037 ], [ -112.5282763, 46.0368192, 1925.287037 ], [ -112.532052, 46.0368022, 1925.287037 ], [ -112.5318511, 46.0359284, 1925.287037 ], [ -112.5323935, 46.0358898, 1925.287037 ], [ -112.5344108, 46.0361295, 1925.287037 ], [ -112.5355497, 46.035959, 1925.287037 ], [ -112.5395195, 46.0353676, 1925.287037 ], [ -112.5401879, 46.0352679, 1925.287037 ], [ -112.5401981, 46.0351917, 1925.287037 ], [ -112.541834, 46.0347763, 1925.287037 ], [ -112.5429366, 46.0344967, 1925.287037 ], [ -112.5428748, 46.0337454, 1925.287037 ], [ -112.545175, 46.0340787, 1925.287037 ], [ -112.5451808, 46.0339318, 1925.287037 ], [ -112.5452146, 46.0331265, 1925.287037 ], [ -112.5452351, 46.0326315, 1925.287037 ], [ -112.5452965, 46.0326129, 1925.287037 ], [ -112.5452507, 46.0322779, 1925.287037 ], [ -112.5498507, 46.0319624, 1925.287037 ], [ -112.5498578, 46.0317728, 1925.287037 ], [ -112.5503653, 46.0317371, 1925.287037 ], [ -112.5503111, 46.0310207, 1925.287037 ], [ -112.5543644, 46.0299854, 1925.287037 ], [ -112.5542903, 46.0289828, 1925.287037 ], [ -112.5583976, 46.0285541, 1925.287037 ], [ -112.5583336, 46.028376, 1925.287037 ], [ -112.5580282, 46.0283571, 1925.287037 ], [ -112.5580472, 46.0275786, 1925.287037 ], [ -112.5578175, 46.027614, 1925.287037 ], [ -112.5580559, 46.0271657, 1925.287037 ], [ -112.5585962, 46.0261367, 1925.287037 ], [ -112.5599039, 46.026253, 1925.287037 ], [ -112.5602314, 46.0262311, 1925.287037 ], [ -112.5608075, 46.0257336, 1925.287037 ], [ -112.560969, 46.0244426, 1925.287037 ], [ -112.5614589, 46.0244726, 1925.287037 ], [ -112.5615451, 46.0237885, 1925.287037 ], [ -112.5609015, 46.0239544, 1925.287037 ], [ -112.5597376, 46.0232408, 1925.287037 ], [ -112.5599378, 46.0231713, 1925.287037 ], [ -112.5591319, 46.0219566, 1925.287037 ], [ -112.5592208, 46.0219209, 1925.287037 ], [ -112.5583929, 46.0205961, 1925.287037 ], [ -112.5579317, 46.0205953, 1925.287037 ] ] ] } },
{ "type": "Feature", "properties": { "Name": "Rainbow Block" }, "geometry": { "type": "Point", "coordinates": [ -112.5408174, 46.0285573, 1925.287037 ] } }
]
}
