{
"type": "FeatureCollection",
"name": "Layer 1-BLOCK - MARGET ANN",
"features": [
{ "type": "Feature", "properties": { "Name": "1-BLOCK - MARGET ANN" }, "geometry": { "type": "Polygon", "coordinates": [ [ [ -112.5354938, 46.040305, 1951.84903 ], [ -112.529611, 46.0401094, 1951.84903 ], [ -112.5296133, 46.0402462, 1951.84903 ], [ -112.5297009, 46.0402509, 1951.84903 ], [ -112.529657, 46.0411678, 1951.84903 ], [ -112.5291018, 46.0411153, 1951.84903 ], [ -112.5297765, 46.0428395, 1951.84903 ], [ -112.5322089, 46.043071, 1951.84903 ], [ -112.5356226, 46.0433953, 1951.84903 ], [ -112.535004, 46.041812, 1951.84903 ], [ -112.5355275, 46.0418205, 1951.84903 ], [ -112.5353954, 46.0407912, 1951.84903 ], [ -112.538878, 46.0408044, 1951.84903 ], [ -112.5418232, 46.0404401, 1951.84903 ], [ -112.5418961, 46.0398074, 1951.84903 ], [ -112.5418236, 46.0398115, 1951.84903 ], [ -112.5417944, 46.0399219, 1951.84903 ], [ -112.5413949, 46.0398348, 1951.84903 ], [ -112.5412967, 46.0398402, 1951.84903 ], [ -112.5354914, 46.0401576, 1951.84903 ], [ -112.5354938, 46.040305, 1951.84903 ] ] ] } },
{ "type": "Feature", "properties": { "Name": "1-BLOCK - MARGET ANN" }, "geometry": { "type": "Polygon", "coordinates": [ [ [ -112.5344108, 46.0361295, 1935.287035 ], [ -112.5323935, 46.0358898, 1935.287035 ], [ -112.5318511, 46.0359284, 1935.287035 ], [ -112.532052, 46.0368022, 1935.287035 ], [ -112.5282763, 46.0368192, 1935.287035 ], [ -112.5283501, 46.0371078, 1935.287035 ], [ -112.5279142, 46.037144, 1935.287035 ], [ -112.5248671, 46.0364801, 1935.287035 ], [ -112.5234835, 46.0362856, 1935.287035 ], [ -112.5228797, 46.0372193, 1935.287035 ], [ -112.5228905, 46.0374289, 1935.287035 ], [ -112.5227662, 46.0373943, 1935.287035 ], [ -112.5226556, 46.0375656, 1935.287035 ], [ -112.5240817, 46.0379165, 1935.287035 ], [ -112.5254414, 46.0382528, 1935.287035 ], [ -112.5265236, 46.0385247, 1935.287035 ], [ -112.5265096, 46.0382987, 1935.287035 ], [ -112.5274197, 46.0382708, 1935.287035 ], [ -112.5294477, 46.0382056, 1935.287035 ], [ -112.5334364, 46.0380399, 1935.287035 ], [ -112.5341353, 46.0380061, 1935.287035 ], [ -112.5341476, 46.038881, 1935.287035 ], [ -112.5358244, 46.0388654, 1935.287035 ], [ -112.5358349, 46.038825, 1935.287035 ], [ -112.5392824, 46.0386398, 1935.287035 ], [ -112.5415351, 46.0385155, 1935.287035 ], [ -112.5415354, 46.0385319, 1935.287035 ], [ -112.5421568, 46.0385456, 1935.287035 ], [ -112.5420422, 46.0389808, 1935.287035 ], [ -112.541994, 46.0389871, 1935.287035 ], [ -112.5418961, 46.0398074, 1935.287035 ], [ -112.5418266, 46.0404114, 1935.287035 ], [ -112.5470118, 46.0398213, 1935.287035 ], [ -112.5484399, 46.0398019, 1935.287035 ], [ -112.5485091, 46.0399242, 1935.287035 ], [ -112.5501912, 46.0398233, 1935.287035 ], [ -112.5509823, 46.0413728, 1935.287035 ], [ -112.5496152, 46.0414562, 1935.287035 ], [ -112.5496131, 46.0420873, 1935.287035 ], [ -112.5493564, 46.0422754, 1935.287035 ], [ -112.5477263, 46.0424875, 1935.287035 ], [ -112.547847, 46.0428556, 1935.287035 ], [ -112.5518295, 46.0423434, 1935.287035 ], [ -112.5535432, 46.0421259, 1935.287035 ], [ -112.5536204, 46.0423667, 1935.287035 ], [ -112.5584748, 46.0414115, 1935.287035 ], [ -112.5579633, 46.0398141, 1935.287035 ], [ -112.5600632, 46.0394677, 1935.287035 ], [ -112.5618012, 46.0390911, 1935.287035 ], [ -112.5618282, 46.0391753, 1935.287035 ], [ -112.5628637, 46.0390058, 1935.287035 ], [ -112.5625459, 46.0375971, 1935.287035 ], [ -112.5608466, 46.0378404, 1935.287035 ], [ -112.5603099, 46.0365267, 1935.287035 ], [ -112.5551327, 46.0372153, 1935.287035 ], [ -112.5547962, 46.0361662, 1935.287035 ], [ -112.5553765, 46.0361349, 1935.287035 ], [ -112.5553455, 46.035217, 1935.287035 ], [ -112.5561632, 46.0351858, 1935.287035 ], [ -112.5564005, 46.0338056, 1935.287035 ], [ -112.5542098, 46.0337998, 1935.287035 ], [ -112.5507553, 46.0337908, 1935.287035 ], [ -112.5509197, 46.0343839, 1935.287035 ], [ -112.5493699, 46.034552, 1935.287035 ], [ -112.5484405, 46.0345412, 1935.287035 ], [ -112.5428748, 46.0337454, 1935.287035 ], [ -112.5429366, 46.0344967, 1935.287035 ], [ -112.5440272, 46.0342204, 1935.287035 ], [ -112.5439757, 46.0357523, 1935.287035 ], [ -112.5435472, 46.035833, 1935.287035 ], [ -112.5481885, 46.0361376, 1935.287035 ], [ -112.5482392, 46.0358859, 1935.287035 ], [ -112.5485455, 46.0359239, 1935.287035 ], [ -112.5485299, 46.0357186, 1935.287035 ], [ -112.5488417, 46.0358687, 1935.287035 ], [ -112.5500287, 46.0356452, 1935.287035 ], [ -112.5500471, 46.0362359, 1935.287035 ], [ -112.5495508, 46.0362091, 1935.287035 ], [ -112.5500205, 46.0364341, 1935.287035 ], [ -112.5492628, 46.0372825, 1935.287035 ], [ -112.5486902, 46.0370082, 1935.287035 ], [ -112.5483605, 46.0368521, 1935.287035 ], [ -112.5484817, 46.0373584, 1935.287035 ], [ -112.5474251, 46.037367, 1935.287035 ], [ -112.546262, 46.0373789, 1935.287035 ], [ -112.5432768, 46.037403, 1935.287035 ], [ -112.5428886, 46.0357897, 1935.287035 ], [ -112.5394892, 46.0365365, 1935.287035 ], [ -112.5395195, 46.0353676, 1935.287035 ], [ -112.5355497, 46.035959, 1935.287035 ], [ -112.5344108, 46.0361295, 1935.287035 ] ] ] } },
{ "type": "Feature", "properties": { "Name": "Marget Ann Block" }, "geometry": { "type": "Point", "coordinates": [ -112.5534378, 46.038953, 1925.287037 ] } }
]
}
