{"type":"FeatureCollection","features":[{"type":"Feature","id":1,"geometry":{"type":"Polygon","coordinates":[[[-150.04791189692276,61.325156619676292],[-150.07705530315141,61.325156108603544],[-150.07705578856726,61.310714622797363],[-150.04784342683985,61.310715210769132],[-150.04791189692276,61.325156619676292]]]},"properties":{"OBJECTID":1,"GlobalID":"{F2916409-C2FB-4515-A05C-B874D822857B}","INDX":11412,"INDSEC2":550178,"MTR":"S014N004W","SECTION":7,"MTRS":"S014N004W07","MER":"S","CREATED_US":" ","CREATED_DA":" ","LAST_EDITE":" ","LAST_EDI_1":" ","Shape_Leng":6344.8113274895604,"Shape_Length":6344.8113274895604,"Shape_Area":2515195.3106523836}},{"type":"Feature","id":2,"geometry":{"type":"Polygon","coordinates":[[[-150.1369629334578,61.22406285418235],[-150.16691626908178,61.224061937127544],[-150.16687447836105,61.209620183552971],[-150.13693451867272,61.209620922797519],[-150.1369629334578,61.22406285418235]]]},"properties":{"OBJECTID":2,"GlobalID":"{26202C0C-AE5B-4716-8E17-5CDDBB3D2A6F}","INDX":11443,"INDSEC2":591795,"MTR":"S013N005W","SECTION":15,"MTRS":"S013N005W15","MER":"S","CREATED_US":" ","CREATED_DA":" ","LAST_EDITE":" ","LAST_EDI_1":" ","Shape_Leng":6437.1945875111032,"Shape_Length":6437.1945875111032,"Shape_Area":2589805.062892742}},{"type":"Feature","id":3,"geometry":{"type":"Polygon","coordinates":[[[-149.86829336379995,61.281831224392988],[-149.89764638659764,61.281831383431886],[-149.89764535221414,61.267389482801342],[-149.86822292189987,61.267389199847464],[-149.86829336379995,61.281831224392988]]]},"properties":{"OBJECTID":3,"GlobalID":"{D20335DA-23B1-44CD-BD6C-DA4DF559C8EF}","INDX":11380,"INDSEC2":591799,"MTR":"S014N003W","SECTION":30,"MTRS":"S014N003W30","MER":"S","CREATED_US":" ","CREATED_DA":" ","LAST_EDITE":" ","LAST_EDI_1":" ","Shape_Leng":6371.6337323811103,"Shape_Length":6371.6337323811103,"Shape_Area":2536853.5422964534}},{"type":"Feature","id":4,"geometry":{"type":"Polygon","coordinates":[[[-149.95761828983194,61.252949327708301],[-149.98760527897971,61.252950216212582],[-149.98756202741387,61.238507970084655],[-149.95758902755256,61.238507136081438],[-149.95761828983194,61.252949327708301]]]},"properties":{"OBJECTID":4,"GlobalID":"{EFBC7BE9-FB1D-4C7F-AB14-06B83225BC87}","INDX":11411,"INDSEC2":596353,"MTR":"S013N004W","SECTION":3,"MTRS":"S013N004W03","MER":"S","CREATED_US":" ","CREATED_DA":" ","LAST_EDITE":" ","LAST_EDI_1":" ","Shape_Leng":6437.9214176455989,"Shape_Length":6437.9214176455989,"Shape_Area":2590391.1722558136}},{"type":"Feature","id":5,"geometry":{"type":"Polygon","coordinates":[[[-150.04784342683985,61.310715210769132],[-150.07705578856726,61.310714622797363],[-150.07705627358379,61.296273106720079],[-150.04777502867515,61.296273770930313],[-150.04784342683985,61.310715210769132]]]},"properties":{"OBJECTID":5,"GlobalID":"{5E77A545-8347-4670-AC09-73D153C221FE}","INDX":11412,"INDSEC2":548772,"MTR":"S014N004W","SECTION":18,"MTRS":"S014N004W18","MER":"S","CREATED_US":" ","CREATED_DA":" ","LAST_EDITE":" ","LAST_EDI_1":" ","Shape_Leng":6353.6040564505074,"Shape_Length":6353.6040564505074,"Shape_Area":2522295.9184425408}},{"type":"Feature","id":6,"geometry":{"type":"Polygon","coordinates":[[[-149.95775595620168,61.325157197527268],[-149.98780918638067,61.325157347816429],[-149.98776832136789,61.310715985259883],[-149.9577283661537,61.310715686495215],[-149.95775595620168,61.325157197527268]]]},"properties":{"OBJECTID":6,"GlobalID":"{FEFDC086-E7D8-4D28-B2E5-A10028ACA532}","INDX":11412,"INDSEC2":550509,"MTR":"S014N004W","SECTION":10,"MTRS":"S014N004W10","MER":"S","CREATED_US":" ","CREATED_DA":" ","LAST_EDITE":" ","LAST_EDI_1":" ","Shape_Leng":6437.5312839120479,"Shape_Length":6437.5312839120479,"Shape_Area":2590077.6520585595}},{"type":"Feature","id":7,"geometry":{"type":"Polygon","coordinates":[[[-149.95781122146198,61.354040254888389],[-149.98789104698625,61.354040110257792],[-149.98785009492229,61.339598811157053],[-149.95778357584831,61.339598808405086],[-149.95781122146198,61.354040254888389]]]},"properties":{"OBJECTID":7,"GlobalID":"{B95C02C2-913E-4F37-AB08-97EF2C0C5B1D}","INDX":11413,"INDSEC2":593196,"MTR":"S015N004W","SECTION":34,"MTRS":"S015N004W34","MER":"S","CREATED_US":" ","CREATED_DA":" ","LAST_EDITE":" ","LAST_EDI_1":" ","Shape_Leng":6437.4140309724626,"Shape_Length":6437.4140309724626,"Shape_Area":2589983.1833004095}},{"type":"Feature","id":8,"geometry":{"type":"Polygon","coordinates":[[[-150.13701956443009,61.252946444601839],[-150.16699981660474,61.252945239996421],[-150.16695810426899,61.238503661729084],[-150.13699137500163,61.238504756447014],[-150.13701956443009,61.252946444601839]]]},"properties":{"OBJECTID":8,"GlobalID":"{379E30DB-B9C3-4E14-803B-D1FB51C14912}","INDX":11443,"INDSEC2":592148,"MTR":"S013N005W","SECTION":3,"MTRS":"S013N005W03","MER":"S","CREATED_US":" ","CREATED_DA":" ","LAST_EDITE":" ","LAST_EDI_1":" ","Shape_Leng":6437.0948302052457,"Shape_Length":6437.0948302052457,"Shape_Area":2589724.9232315989}},{"type":"Feature","id":9,"geometry":{"type":"Polygon","coordinates":[[[-149.80845245061843,61.339601460334123],[-149.83851414258626,61.33960029759357],[-149.83845674843863,61.325158182505817],[-149.80840838444772,61.325159260309185],[-149.80845245061843,61.339601460334123]]]},"properties":{"OBJECTID":9,"GlobalID":"{CB3F54D6-59B5-4D68-ABD5-DB8F0FE1EF09}","INDX":11380,"INDSEC2":593904,"MTR":"S014N003W","SECTION":4,"MTRS":"S014N003W04","MER":"S","CREATED_US":" ","CREATED_DA":" ","LAST_EDITE":" ","LAST_EDI_1":" ","Shape_Leng":6437.1261590604645,"Shape_Length":6437.1261590604645,"Shape_Area":2589747.9433608316}},{"type":"Feature","id":10,"geometry":{"type":"Polygon","coordinates":[[[-149.8684344585626,61.310715176240251],[-149.897648459355,61.310715088839146],[-149.89764742417952,61.296273251830272],[-149.86836387591137,61.296273216782751],[-149.8684344585626,61.310715176240251]]]},"properties":{"OBJECTID":10,"GlobalID":"{094AC8F1-E516-45D9-909D-8530B2B06BC2}","INDX":11380,"INDSEC2":49355,"MTR":"S014N003W","SECTION":18,"MTRS":"S014N003W18","MER":"S","CREATED_US":" ","CREATED_DA":" ","LAST_EDITE":" ","LAST_EDI_1":" ","Shape_Leng":6353.9088386733747,"Shape_Length":6353.9088386733747,"Shape_Area":2522539.2039265092}},{"type":"Feature","id":11,"geometry":{"type":"Polygon","coordinates":[[[-150.13710166339416,61.296271667792332],[-150.16712366018993,61.296270760914275],[-150.16708233424799,61.281828951550239],[-150.13707426981208,61.28182995869382],[-150.13710166339416,61.296271667792332]]]},"properties":{"OBJECTID":11,"GlobalID":"{D4D4BCA9-DAFC-4904-A378-D2B0584C8336}","INDX":11444,"INDSEC2":502893,"MTR":"S014N005W","SECTION":22,"MTRS":"S014N005W22","MER":"S","CREATED_US":" ","CREATED_DA":" ","LAST_EDITE":" ","LAST_EDI_1":" ","Shape_Leng":6437.1683379817514,"Shape_Length":6437.1683379817514,"Shape_Area":2589784.2534979344}},{"type":"Feature","id":12,"geometry":{"type":"Polygon","coordinates":[[[-150.10703877622024,61.252947453588192],[-150.13701956443009,61.252946444601839],[-150.13699137500163,61.238504756447014],[-150.10702404307796,61.238505640438362],[-150.10703877622024,61.252947453588192]]]},"properties":{"OBJECTID":12,"GlobalID":"{4EE819E2-41E6-4C70-96EC-423EABFB34F2}","INDX":11443,"INDSEC2":654168,"MTR":"S013N005W","SECTION":2,"MTRS":"S013N005W02","MER":"S","CREATED_US":" ","CREATED_DA":" ","LAST_EDITE":" ","LAST_EDI_1":" ","Shape_Leng":6437.1805525854506,"Shape_Length":6437.1805525854506,"Shape_Area":2589794.9702719599}},{"type":"Feature","id":13,"geometry":{"type":"Polygon","coordinates":[[[-150.04804906383245,61.354039474438537],[-150.07705433291176,61.354039115309476],[-150.07705481813079,61.3395976950438],[-150.04798044332958,61.339598129555966],[-150.04804906383245,61.354039474438537]]]},"properties":{"OBJECTID":13,"GlobalID":"{77836CF0-1B50-48BA-8CEB-75E01658768F}","INDX":11413,"INDSEC2":310215,"MTR":"S015N004W","SECTION":31,"MTRS":"S015N004W31","MER":"S","CREATED_US":" ","CREATED_DA":" ","LAST_EDITE":" ","LAST_EDI_1":" ","Shape_Leng":6327.2206917023832,"Shape_Length":6327.2206917023832,"Shape_Area":2500990.1423676023}},{"type":"Feature","id":14,"geometry":{"type":"Polygon","coordinates":[[[-150.017970311299,61.354039845991885],[-150.04804906383245,61.354039474438537],[-150.04798044332958,61.339598129555966],[-150.01791569258359,61.339598578349545],[-150.017970311299,61.354039845991885]]]},"properties":{"OBJECTID":14,"GlobalID":"{B0B377F5-4EF9-4707-B349-140D2B03E36B}","INDX":11413,"INDSEC2":310216,"MTR":"S015N004W","SECTION":32,"MTRS":"S015N004W32","MER":"S","CREATED_US":" ","CREATED_DA":" ","LAST_EDITE":" ","LAST_EDI_1":" ","Shape_Leng":6437.2523120673895,"Shape_Length":6437.2523120673895,"Shape_Area":2589849.0782949016}},{"type":"Feature","id":15,"geometry":{"type":"Polygon","coordinates":[[[-149.92773139224133,61.354040399915831],[-149.95781122146198,61.354040254888389],[-149.95778357584831,61.339598808405086],[-149.92771705193945,61.339598805209491],[-149.92773139224133,61.354040399915831]]]},"properties":{"OBJECTID":15,"GlobalID":"{A24796C5-052F-402B-9073-CF7F0D18B622}","INDX":11413,"INDSEC2":310217,"MTR":"S015N004W","SECTION":35,"MTRS":"S015N004W35","MER":"S","CREATED_US":" ","CREATED_DA":" ","LAST_EDITE":" ","LAST_EDI_1":" ","Shape_Leng":6437.4462446034131,"Shape_Length":6437.4462446034131,"Shape_Area":2590010.0464072037}},{"type":"Feature","id":16,"geometry":{"type":"Polygon","coordinates":[[[-149.89765156450179,61.35404054477447],[-149.92773139224133,61.354040399915831],[-149.92771705193945,61.339598805209491],[-149.89765053013431,61.33959880195151],[-149.89765156450179,61.35404054477447]]]},"properties":{"OBJECTID":16,"GlobalID":"{81AC8A87-A383-4862-AFE6-02BA9B722315}","INDX":11413,"INDSEC2":310218,"MTR":"S015N004W","SECTION":36,"MTRS":"S015N004W36","MER":"S","CREATED_US":" ","CREATED_DA":" ","LAST_EDITE":" ","LAST_EDI_1":" ","Shape_Leng":6437.478517611582,"Shape_Length":6437.478517611582,"Shape_Area":2590036.4536026875}},{"type":"Feature","id":17,"geometry":{"type":"Polygon","coordinates":[[[-150.04749990889434,61.238507196250829],[-150.07705641890152,61.238506423457792],[-150.07705453562454,61.224064132937528],[-150.04742888896928,61.224064711642974],[-150.04749990889434,61.238507196250829]]]},"properties":{"OBJECTID":17,"GlobalID":"{5F770CA3-17B1-47F3-9B11-ADBA59C86FF7}","INDX":11411,"INDSEC2":309729,"MTR":"S013N004W","SECTION":7,"MTRS":"S013N004W07","MER":"S","CREATED_US":" ","CREATED_DA":" ","LAST_EDITE":" ","LAST_EDI_1":" ","Shape_Leng":6397.8002477705786,"Shape_Length":6397.8002477705786,"Shape_Area":2557984.6837400938}},{"type":"Feature","id":18,"geometry":{"type":"Polygon","coordinates":[[[-150.01753228435592,61.238507979578365],[-150.04749990889434,61.238507196250829],[-150.04742888896928,61.224064711642974],[-150.01747452482817,61.224065297980026],[-150.01753228435592,61.238507979578365]]]},"properties":{"OBJECTID":18,"GlobalID":"{F15B97CD-58D0-49A7-AA18-7734B2911353}","INDX":11411,"INDSEC2":309730,"MTR":"S013N004W","SECTION":8,"MTRS":"S013N004W08","MER":"S","CREATED_US":" ","CREATED_DA":" ","LAST_EDITE":" ","LAST_EDI_1":" ","Shape_Leng":6437.4384293533403,"Shape_Length":6437.4384293533403,"Shape_Area":2589996.9659205955}},{"type":"Feature","id":19,"geometry":{"type":"Polygon","coordinates":[[[-149.8976430286844,61.238505467292043],[-149.92761602690175,61.238506301726233],[-149.92760043666186,61.224063811822937],[-149.89764166041491,61.224063095439554],[-149.8976430286844,61.238505467292043]]]},"properties":{"OBJECTID":19,"GlobalID":"{3200D4F9-95B7-4511-965F-2762BC519A78}","INDX":11411,"INDSEC2":309731,"MTR":"S013N004W","SECTION":12,"MTRS":"S013N004W12","MER":"S","CREATED_US":" ","CREATED_DA":" ","LAST_EDITE":" ","LAST_EDI_1":" ","Shape_Leng":6437.9210105957727,"Shape_Length":6437.9210105957727,"Shape_Area":2590392.4599285326}},{"type":"Feature","id":20,"geometry":{"type":"Polygon","coordinates":[[[-149.9875179900757,61.224065243756378],[-150.01747452482817,61.224065297980026],[-150.0174168192307,61.209622584569566],[-149.98747399973482,61.209622486680949],[-149.9875179900757,61.224065243756378]]]},"properties":{"OBJECTID":20,"GlobalID":"{EF6592A3-B46B-4B13-991D-7DE5F51174E0}","INDX":11411,"INDSEC2":309733,"MTR":"S013N004W","SECTION":16,"MTRS":"S013N004W16","MER":"S","CREATED_US":" ","CREATED_DA":" ","LAST_EDITE":" ","LAST_EDI_1":" ","Shape_Leng":6437.7208328929091,"Shape_Length":6437.7208328929091,"Shape_Area":2590226.7673630691}},{"type":"Feature","id":21,"geometry":{"type":"Polygon","coordinates":[[[-150.01747452482817,61.224065297980026],[-150.04742888896928,61.224064711642974],[-150.04735794220028,61.20962219720743],[-150.0174168192307,61.209622584569566],[-150.01747452482817,61.224065297980026]]]},"properties":{"OBJECTID":21,"GlobalID":"{E0136A12-7937-49F8-A1F9-A4B72ABD6176}","INDX":11411,"INDSEC2":309734,"MTR":"S013N004W","SECTION":17,"MTRS":"S013N004W17","MER":"S","CREATED_US":" ","CREATED_DA":" ","LAST_EDITE":" ","LAST_EDI_1":" ","Shape_Leng":6437.4894265447647,"Shape_Length":6437.4894265447647,"Shape_Area":2590038.012118978}},{"type":"Feature","id":22,"geometry":{"type":"Polygon","coordinates":[[[-150.01758922696175,61.252950181697081],[-150.04757027457828,61.252949266764837],[-150.04749990889434,61.238507196250829],[-150.01753228435592,61.238507979578365],[-150.01758922696175,61.252950181697081]]]},"properties":{"OBJECTID":22,"GlobalID":"{4F330FE3-A281-43C2-A3CC-B224B6470EA7}","INDX":11411,"INDSEC2":309727,"MTR":"S013N004W","SECTION":5,"MTRS":"S013N004W05","MER":"S","CREATED_US":" ","CREATED_DA":" ","LAST_EDITE":" ","LAST_EDI_1":" ","Shape_Leng":6437.3024470088003,"Shape_Length":6437.3024470088003,"Shape_Area":2589887.9676514668}},{"type":"Feature","id":23,"geometry":{"type":"Polygon","coordinates":[[[-150.04757027457828,61.252949266764837],[-150.07705772788901,61.252948368610518],[-150.07705641890152,61.238506423457792],[-150.04749990889434,61.238507196250829],[-150.04757027457828,61.252949266764837]]]},"properties":{"OBJECTID":23,"GlobalID":"{A75A573B-38DB-45C4-8A7A-F9F47235E44C}","INDX":11411,"INDSEC2":309728,"MTR":"S013N004W","SECTION":6,"MTRS":"S013N004W06","MER":"S","CREATED_US":" ","CREATED_DA":" ","LAST_EDITE":" ","LAST_EDI_1":" ","Shape_Leng":6388.8778886166174,"Shape_Length":6388.8778886166174,"Shape_Area":2550780.2268158826}},{"type":"Feature","id":24,"geometry":{"type":"Polygon","coordinates":[[[-149.92771705193945,61.339598805209491],[-149.95778357584831,61.339598808405086],[-149.95775595620168,61.325157197527268],[-149.92770272554739,61.325157047005973],[-149.92771705193945,61.339598805209491]]]},"properties":{"OBJECTID":24,"GlobalID":"{02C7625A-56D2-4721-80EE-5FBF9AE3BF3D}","INDX":11412,"INDSEC2":309737,"MTR":"S014N004W","SECTION":2,"MTRS":"S014N004W02","MER":"S","CREATED_US":" ","CREATED_DA":" ","LAST_EDITE":" ","LAST_EDI_1":" ","Shape_Leng":6437.5341470297826,"Shape_Length":6437.5341470297826,"Shape_Area":2590080.7622475759}},{"type":"Feature","id":25,"geometry":{"type":"Polygon","coordinates":[[[-149.95778357584831,61.339598808405086],[-149.98785009492229,61.339598811157053],[-149.98780918638067,61.325157347816429],[-149.95775595620168,61.325157197527268],[-149.95778357584831,61.339598808405086]]]},"properties":{"OBJECTID":25,"GlobalID":"{6B4469A8-F19B-4C0E-8CC9-9E994FC6844E}","INDX":11412,"INDSEC2":309738,"MTR":"S014N004W","SECTION":3,"MTRS":"S014N004W03","MER":"S","CREATED_US":" ","CREATED_DA":" ","LAST_EDITE":" ","LAST_EDI_1":" ","Shape_Leng":6437.5021714279319,"Shape_Length":6437.5021714279319,"Shape_Area":2590054.0801217994}},{"type":"Feature","id":26,"geometry":{"type":"Polygon","coordinates":[[[-149.98785009492229,61.339598811157053],[-150.01791569258359,61.339598578349545],[-150.01786113516246,61.325157147509699],[-149.98780918638067,61.325157347816429],[-149.98785009492229,61.339598811157053]]]},"properties":{"OBJECTID":26,"GlobalID":"{F9D88E49-7ADB-476E-B62D-2C7F3A16CAC7}","INDX":11412,"INDSEC2":309739,"MTR":"S014N004W","SECTION":4,"MTRS":"S014N004W04","MER":"S","CREATED_US":" ","CREATED_DA":" ","LAST_EDITE":" ","LAST_EDI_1":" ","Shape_Leng":6437.3664793059952,"Shape_Length":6437.3664793059952,"Shape_Area":2589943.1189402225}},{"type":"Feature","id":27,"geometry":{"type":"Polygon","coordinates":[[[-149.92765982959273,61.281831978066165],[-149.95767327168105,61.281832571972146],[-149.95764576553907,61.267390964624163],[-149.92764556088815,61.267390224086846],[-149.92765982959273,61.281831978066165]]]},"properties":{"OBJECTID":27,"GlobalID":"{D56F8DA5-9EDA-46B5-BFD7-E16A17D55401}","INDX":11412,"INDSEC2":307546,"MTR":"S014N004W","SECTION":26,"MTRS":"S014N004W26","MER":"S","CREATED_US":" ","CREATED_DA":" ","LAST_EDITE":" ","LAST_EDI_1":" ","Shape_Leng":6437.7383539128732,"Shape_Length":6437.7383539128732,"Shape_Area":2590245.4564182824}},{"type":"Feature","id":28,"geometry":{"type":"Polygon","coordinates":[[[-149.95767327168105,61.281832571972146],[-149.98768671338613,61.281833164986885],[-149.98764597392821,61.267391706253228],[-149.95764576553907,61.267390964624163],[-149.95767327168105,61.281832571972146]]]},"properties":{"OBJECTID":28,"GlobalID":"{AA1A83EF-18A8-4A90-B008-AB74FB2B5474}","INDX":11412,"INDSEC2":307547,"MTR":"S014N004W","SECTION":27,"MTRS":"S014N004W27","MER":"S","CREATED_US":" ","CREATED_DA":" ","LAST_EDITE":" ","LAST_EDI_1":" ","Shape_Leng":6437.7067318354302,"Shape_Length":6437.7067318354302,"Shape_Area":2590219.0166758662}},{"type":"Feature","id":29,"geometry":{"type":"Polygon","coordinates":[[[-150.01769781450196,61.281833061923386],[-150.04770670386526,61.281832301880982],[-150.04763845077676,61.267390799882371],[-150.01764349238394,61.267391637022975],[-150.01769781450196,61.281833061923386]]]},"properties":{"OBJECTID":29,"GlobalID":"{CF73F4C9-A929-4379-AE0F-1E8FB782A993}","INDX":11412,"INDSEC2":307548,"MTR":"S014N004W","SECTION":29,"MTRS":"S014N004W29","MER":"S","CREATED_US":" ","CREATED_DA":" ","LAST_EDITE":" ","LAST_EDI_1":" ","Shape_Leng":6437.171903077,"Shape_Length":6437.171903077,"Shape_Area":2589783.9049253482}},{"type":"Feature","id":30,"geometry":{"type":"Polygon","coordinates":[[[-149.80832038129267,61.296275029666923],[-149.83834212757094,61.29627412265382],[-149.83828490461792,61.281832046086045],[-149.80827644262951,61.281832867077597],[-149.80832038129267,61.296275029666923]]]},"properties":{"OBJECTID":30,"GlobalID":"{D506A662-89A9-42C3-A00A-573A35FD79BE}","INDX":11380,"INDSEC2":298015,"MTR":"S014N003W","SECTION":21,"MTRS":"S014N003W21","MER":"S","CREATED_US":" ","CREATED_DA":" ","LAST_EDITE":" ","LAST_EDI_1":" ","Shape_Leng":6437.2589017228775,"Shape_Length":6437.2589017228775,"Shape_Area":2589855.0156133189}},{"type":"Feature","id":31,"geometry":{"type":"Polygon","coordinates":[[[-149.86801293160588,61.224062795521448],[-149.89764166041491,61.224063095439554],[-149.89764029121918,61.209620692581197],[-149.86794328978851,61.209620470455874],[-149.86801293160588,61.224062795521448]]]},"properties":{"OBJECTID":31,"GlobalID":"{CF851ED3-04EF-4750-AAD6-84C831F104E3}","INDX":11379,"INDSEC2":300185,"MTR":"S013N003W","SECTION":18,"MTRS":"S013N003W18","MER":"S","CREATED_US":" ","CREATED_DA":" ","LAST_EDITE":" ","LAST_EDI_1":" ","Shape_Leng":6406.9268363156571,"Shape_Length":6406.9268363156571,"Shape_Area":2565355.7694228785}},{"type":"Feature","id":32,"geometry":{"type":"Polygon","coordinates":[[[-149.80836436441186,61.310717160185291],[-149.83839940866162,61.310716168980306],[-149.83834212757094,61.29627412265382],[-149.80832038129267,61.296275029666923],[-149.80836436441186,61.310717160185291]]]},"properties":{"OBJECTID":32,"GlobalID":"{80DECEF4-8312-4807-937B-3B55CD2C3623}","INDX":11380,"INDSEC2":300195,"MTR":"S014N003W","SECTION":16,"MTRS":"S014N003W16","MER":"S","CREATED_US":" ","CREATED_DA":" ","LAST_EDITE":" ","LAST_EDI_1":" ","Shape_Leng":6437.2045740874055,"Shape_Length":6437.2045740874055,"Shape_Area":2589811.2406379008}},{"type":"Feature","id":33,"geometry":{"type":"Polygon","coordinates":[[[-149.83839940866162,61.310716168980306],[-149.8684344585626,61.310715176240251],[-149.86836387591137,61.296273216782751],[-149.83834212757094,61.29627412265382],[-149.83839940866162,61.310716168980306]]]},"properties":{"OBJECTID":33,"GlobalID":"{CF2DA71E-98E5-4E99-9526-9CA035807CF0}","INDX":11380,"INDSEC2":300196,"MTR":"S014N003W","SECTION":17,"MTRS":"S014N003W17","MER":"S","CREATED_US":" ","CREATED_DA":" ","LAST_EDITE":" ","LAST_EDI_1":" ","Shape_Leng":6437.1886400717622,"Shape_Length":6437.1886400717622,"Shape_Area":2589796.3893977138}},{"type":"Feature","id":34,"geometry":{"type":"Polygon","coordinates":[[[-149.86836387591137,61.296273216782751],[-149.89764742417952,61.296273251830272],[-149.89764638659764,61.281831383431886],[-149.86829336379995,61.281831224392988],[-149.86836387591137,61.296273216782751]]]},"properties":{"OBJECTID":34,"GlobalID":"{20F2531D-F890-4FC6-AC9F-ACCBA9018810}","INDX":11380,"INDSEC2":300197,"MTR":"S014N003W","SECTION":19,"MTRS":"S014N003W19","MER":"S","CREATED_US":" ","CREATED_DA":" ","LAST_EDITE":" ","LAST_EDI_1":" ","Shape_Leng":6362.7717499990149,"Shape_Length":6362.7717499990149,"Shape_Area":2529696.715421088}},{"type":"Feature","id":35,"geometry":{"type":"Polygon","coordinates":[[[-149.83834212757094,61.29627412265382],[-149.86836387591137,61.296273216782751],[-149.86829336379995,61.281831224392988],[-149.83828490461792,61.281832046086045],[-149.83834212757094,61.29627412265382]]]},"properties":{"OBJECTID":35,"GlobalID":"{73DCE92A-345D-45ED-9C7F-B5A575469923}","INDX":11380,"INDSEC2":300198,"MTR":"S014N003W","SECTION":20,"MTRS":"S014N003W20","MER":"S","CREATED_US":" ","CREATED_DA":" ","LAST_EDITE":" ","LAST_EDI_1":" ","Shape_Leng":6437.2426007596805,"Shape_Length":6437.2426007596805,"Shape_Area":2589839.8626547568}},{"type":"Feature","id":36,"geometry":{"type":"Polygon","coordinates":[[[-150.07705481813079,61.3395976950438],[-150.10711956909017,61.339597244830472],[-150.10710606689398,61.325155581082633],[-150.07705530315141,61.325156108603544],[-150.07705481813079,61.3395976950438]]]},"properties":{"OBJECTID":36,"GlobalID":"{77785808-360F-4EC8-AFE5-B2DB6565DDD4}","INDX":11444,"INDSEC2":546315,"MTR":"S014N005W","SECTION":1,"MTRS":"S014N005W01","MER":"S","CREATED_US":" ","CREATED_DA":" ","LAST_EDITE":" ","LAST_EDI_1":" ","Shape_Leng":6437.2941097040703,"Shape_Length":6437.2941097040703,"Shape_Area":2589887.5776565117}},{"type":"Feature","id":37,"geometry":{"type":"Polygon","coordinates":[[[-149.83811431964992,61.238505711449982],[-149.86808264394998,61.238505089823278],[-149.86801293160588,61.224062795521448],[-149.83805831428975,61.224063406254814],[-149.83811431964992,61.238505711449982]]]},"properties":{"OBJECTID":37,"GlobalID":"{F841B28F-1C82-4E88-9ACF-A8DF858A9956}","INDX":11379,"INDSEC2":49265,"MTR":"S013N003W","SECTION":8,"MTRS":"S013N003W08","MER":"S","CREATED_US":" ","CREATED_DA":" ","LAST_EDITE":" ","LAST_EDI_1":" ","Shape_Leng":6437.4259004498108,"Shape_Length":6437.4259004498108,"Shape_Area":2589987.4721431714}},{"type":"Feature","id":38,"geometry":{"type":"Polygon","coordinates":[[[-149.83805831428975,61.224063406254814],[-149.86801293160588,61.224062795521448],[-149.86794328978851,61.209620470455874],[-149.83800236694032,61.209621071202271],[-149.83805831428975,61.224063406254814]]]},"properties":{"OBJECTID":38,"GlobalID":"{9836C457-7FA8-4B3F-B007-199003889AD3}","INDX":11379,"INDSEC2":49267,"MTR":"S013N003W","SECTION":17,"MTRS":"S013N003W17","MER":"S","CREATED_US":" ","CREATED_DA":" ","LAST_EDITE":" ","LAST_EDI_1":" ","Shape_Leng":6437.4285998358991,"Shape_Length":6437.4285998358991,"Shape_Area":2589989.5816908572}},{"type":"Feature","id":39,"geometry":{"type":"Polygon","coordinates":[[[-149.92764556088815,61.267390224086846],[-149.95764576553907,61.267390964624163],[-149.95761828983194,61.252949327708301],[-149.92763130328129,61.252948439433723],[-149.92764556088815,61.267390224086846]]]},"properties":{"OBJECTID":39,"GlobalID":"{0B5BE1B9-6DB2-4892-8A6E-74AC6DA0013D}","INDX":11412,"INDSEC2":695815,"MTR":"S014N004W","SECTION":35,"MTRS":"S014N004W35","MER":"S","CREATED_US":" ","CREATED_DA":" ","LAST_EDITE":" ","LAST_EDI_1":" ","Shape_Leng":6437.7964035669902,"Shape_Length":6437.7964035669902,"Shape_Area":2590292.2443914115}},{"type":"Feature","id":40,"geometry":{"type":"Polygon","coordinates":[[[-150.07705453562454,61.224064132937528],[-150.1070089023066,61.224063547294101],[-150.10699377450817,61.209621424089853],[-150.07705265332925,61.209621812359401],[-150.07705453562454,61.224064132937528]]]},"properties":{"OBJECTID":40,"GlobalID":"{1B2FD02A-34BD-41C0-8A42-380E9FF313F2}","INDX":11443,"INDSEC2":698626,"MTR":"S013N005W","SECTION":13,"MTRS":"S013N005W13","MER":"S","CREATED_US":" ","CREATED_DA":" ","LAST_EDITE":" ","LAST_EDI_1":" ","Shape_Leng":6437.3946573606572,"Shape_Length":6437.3946573606572,"Shape_Area":2589967.6576549509}},{"type":"Feature","id":41,"geometry":{"type":"Polygon","coordinates":[[[-150.13712908747607,61.310713345761265],[-150.16716502937797,61.310712538248389],[-150.16712366018993,61.296270760914275],[-150.13710166339416,61.296271667792332],[-150.13712908747607,61.310713345761265]]]},"properties":{"OBJECTID":41,"GlobalID":"{C6B0FB56-2E22-4242-B556-9BB77A463FCC}","INDX":11444,"INDSEC2":49680,"MTR":"S014N005W","SECTION":15,"MTRS":"S014N005W15","MER":"S","CREATED_US":" ","CREATED_DA":" ","LAST_EDITE":" ","LAST_EDI_1":" ","Shape_Leng":6437.1831071975666,"Shape_Length":6437.1831071975666,"Shape_Area":2589796.2412250126}},{"type":"Feature","id":42,"geometry":{"type":"Polygon","coordinates":[[[-150.07705627358379,61.296273106720079],[-150.10707910503291,61.296272423792885],[-150.10706564617152,61.281830799281245],[-150.07705675820162,61.281831559362082],[-150.07705627358379,61.296273106720079]]]},"properties":{"OBJECTID":42,"GlobalID":"{6BEAE2E3-84D0-4F92-8B84-EBB576ADBDC8}","INDX":11444,"INDSEC2":49682,"MTR":"S014N005W","SECTION":24,"MTRS":"S014N005W24","MER":"S","CREATED_US":" ","CREATED_DA":" ","LAST_EDITE":" ","LAST_EDI_1":" ","Shape_Leng":6437.2159692547648,"Shape_Length":6437.2159692547648,"Shape_Area":2589824.4090067544}},{"type":"Feature","id":43,"geometry":{"type":"Polygon","coordinates":[[[-149.89764166041491,61.224063095439554],[-149.92760043666186,61.224063811822937],[-149.92758485836259,61.209621290912843],[-149.89764029121918,61.209620692581197],[-149.89764166041491,61.224063095439554]]]},"properties":{"OBJECTID":43,"GlobalID":"{3CBDA9F9-0ADD-4034-9FF9-CE8A8174B301}","INDX":11411,"INDSEC2":675474,"MTR":"S013N004W","SECTION":13,"MTRS":"S013N004W13","MER":"S","CREATED_US":" ","CREATED_DA":" ","LAST_EDITE":" ","LAST_EDI_1":" ","Shape_Leng":6437.868974693667,"Shape_Length":6437.868974693667,"Shape_Area":2590350.3669622536}},{"type":"Feature","id":44,"geometry":{"type":"Polygon","coordinates":[[[-150.01764349238394,61.267391637022975],[-150.04763845077676,61.267390799882371],[-150.04757027457828,61.252949266764837],[-150.01758922696175,61.252950181697081],[-150.01764349238394,61.267391637022975]]]},"properties":{"OBJECTID":44,"GlobalID":"{1750B419-AE02-4750-95B9-196C43D87D34}","INDX":11412,"INDSEC2":675475,"MTR":"S014N004W","SECTION":32,"MTRS":"S014N004W32","MER":"S","CREATED_US":" ","CREATED_DA":" ","LAST_EDITE":" ","LAST_EDI_1":" ","Shape_Leng":6437.1557133414253,"Shape_Length":6437.1557133414253,"Shape_Area":2589770.787009838}},{"type":"Feature","id":45,"geometry":{"type":"Polygon","coordinates":[[[-149.98764597392821,61.267391706253228],[-150.01764349238394,61.267391637022975],[-150.01758922696175,61.252950181697081],[-149.98760527897971,61.252950216212582],[-149.98764597392821,61.267391706253228]]]},"properties":{"OBJECTID":45,"GlobalID":"{089F7D5F-C630-43DF-94DC-7DDC19751CC6}","INDX":11412,"INDSEC2":310421,"MTR":"S014N004W","SECTION":33,"MTRS":"S014N004W33","MER":"S","CREATED_US":" ","CREATED_DA":" ","LAST_EDITE":" ","LAST_EDI_1":" ","Shape_Leng":6437.4401508260389,"Shape_Length":6437.4401508260389,"Shape_Area":2590002.3617250314}},{"type":"Feature","id":46,"geometry":{"type":"Polygon","coordinates":[[[-149.89764535221414,61.267389482801342],[-149.92764556088815,61.267390224086846],[-149.92763130328129,61.252948439433723],[-149.89764431694582,61.252947551498579],[-149.89764535221414,61.267389482801342]]]},"properties":{"OBJECTID":46,"GlobalID":"{FE462372-C33E-4001-8BA1-0ECC5EBC5C3D}","INDX":11412,"INDSEC2":310422,"MTR":"S014N004W","SECTION":36,"MTRS":"S014N004W36","MER":"S","CREATED_US":" ","CREATED_DA":" ","LAST_EDITE":" ","LAST_EDI_1":" ","Shape_Leng":6437.828947759107,"Shape_Length":6437.828947759107,"Shape_Area":2590318.9403768973}},{"type":"Feature","id":47,"geometry":{"type":"Polygon","coordinates":[[[-149.92770272554739,61.325157047005973],[-149.95775595620168,61.325157197527268],[-149.9577283661537,61.310715686495215],[-149.9276884148214,61.310715387706566],[-149.92770272554739,61.325157047005973]]]},"properties":{"OBJECTID":47,"GlobalID":"{EF21623D-DF3C-43F4-9F93-1C1B2F2AB29D}","INDX":11412,"INDSEC2":310414,"MTR":"S014N004W","SECTION":11,"MTRS":"S014N004W11","MER":"S","CREATED_US":" ","CREATED_DA":" ","LAST_EDITE":" ","LAST_EDI_1":" ","Shape_Leng":6437.5630213577742,"Shape_Length":6437.5630213577742,"Shape_Area":2590104.1514862305}},{"type":"Feature","id":48,"geometry":{"type":"Polygon","coordinates":[[[-149.897648459355,61.310715088839146],[-149.9276884148214,61.310715387706566],[-149.92767411372168,61.296273698025978],[-149.89764742417952,61.296273251830272],[-149.897648459355,61.310715088839146]]]},"properties":{"OBJECTID":48,"GlobalID":"{3B71EFBE-9EB3-4D94-A5C4-77B3FDF8B80B}","INDX":11412,"INDSEC2":310415,"MTR":"S014N004W","SECTION":13,"MTRS":"S014N004W13","MER":"S","CREATED_US":" ","CREATED_DA":" ","LAST_EDITE":" ","LAST_EDI_1":" ","Shape_Leng":6437.6537312295468,"Shape_Length":6437.6537312295468,"Shape_Area":2590177.689701647}},{"type":"Feature","id":49,"geometry":{"type":"Polygon","coordinates":[[[-149.9577283661537,61.310715686495215],[-149.98776832136789,61.310715985259883],[-149.98772749588417,61.296274590688917],[-149.95770080722767,61.296274144457577],[-149.9577283661537,61.310715686495215]]]},"properties":{"OBJECTID":49,"GlobalID":"{74EEADB5-825F-40DB-B090-7908EE3DCCA9}","INDX":11412,"INDSEC2":310416,"MTR":"S014N004W","SECTION":15,"MTRS":"S014N004W15","MER":"S","CREATED_US":" ","CREATED_DA":" ","LAST_EDITE":" ","LAST_EDI_1":" ","Shape_Leng":6437.5895584912769,"Shape_Length":6437.5895584912769,"Shape_Area":2590124.6048961408}},{"type":"Feature","id":50,"geometry":{"type":"Polygon","coordinates":[[[-149.98776832136789,61.310715985259883],[-150.01780663575471,61.310715816604201],[-150.01775219384197,61.296274453835004],[-149.98772749588417,61.296274590688917],[-149.98776832136789,61.310715985259883]]]},"properties":{"OBJECTID":50,"GlobalID":"{BDA4BB49-2E39-4289-83C8-3A77BD185765}","INDX":11412,"INDSEC2":310417,"MTR":"S014N004W","SECTION":16,"MTRS":"S014N004W16","MER":"S","CREATED_US":" ","CREATED_DA":" ","LAST_EDITE":" ","LAST_EDI_1":" ","Shape_Leng":6437.377536354672,"Shape_Length":6437.377536354672,"Shape_Area":2589952.0460692481}},{"type":"Feature","id":51,"geometry":{"type":"Polygon","coordinates":[[[-150.04770670386526,61.281832301880982],[-150.07705675820162,61.281831559362082],[-150.07705724253168,61.267389978822685],[-150.04763845077676,61.267390799882371],[-150.04770670386526,61.281832301880982]]]},"properties":{"OBJECTID":51,"GlobalID":"{15449F50-D8FE-4E8F-8087-A6FF395D0E29}","INDX":11412,"INDSEC2":310419,"MTR":"S014N004W","SECTION":30,"MTRS":"S014N004W30","MER":"S","CREATED_US":" ","CREATED_DA":" ","LAST_EDITE":" ","LAST_EDI_1":" ","Shape_Leng":6371.1860384590545,"Shape_Length":6371.1860384590545,"Shape_Area":2536494.5121882809}},{"type":"Feature","id":52,"geometry":{"type":"Polygon","coordinates":[[[-150.04763845077676,61.267390799882371],[-150.07705724253168,61.267389978822685],[-150.07705772788901,61.252948368610518],[-150.04757027457828,61.252949266764837],[-150.04763845077676,61.267390799882371]]]},"properties":{"OBJECTID":52,"GlobalID":"{403F3806-5042-4151-823B-B2ADFE3A27F5}","INDX":11412,"INDSEC2":310420,"MTR":"S014N004W","SECTION":31,"MTRS":"S014N004W31","MER":"S","CREATED_US":" ","CREATED_DA":" ","LAST_EDITE":" ","LAST_EDI_1":" ","Shape_Leng":6379.9746565117821,"Shape_Length":6379.9746565117821,"Shape_Area":2543591.9949638736}},{"type":"Feature","id":53,"geometry":{"type":"Polygon","coordinates":[[[-149.89764638659764,61.281831383431886],[-149.92765982959273,61.281831978066165],[-149.92764556088815,61.267390224086846],[-149.89764535221414,61.267389482801342],[-149.89764638659764,61.281831383431886]]]},"properties":{"OBJECTID":53,"GlobalID":"{1BE0B8FD-D04F-4A13-9435-22BA60AA742D}","INDX":11412,"INDSEC2":307210,"MTR":"S014N004W","SECTION":25,"MTRS":"S014N004W25","MER":"S","CREATED_US":" ","CREATED_DA":" ","LAST_EDITE":" ","LAST_EDI_1":" ","Shape_Leng":6437.7708187475928,"Shape_Length":6437.7708187475928,"Shape_Area":2590272.0776679749}},{"type":"Feature","id":54,"geometry":{"type":"Polygon","coordinates":[[[-149.92763130328129,61.252948439433723],[-149.95761828983194,61.252949327708301],[-149.95758902755256,61.238507136081438],[-149.92761602690175,61.238506301726233],[-149.92763130328129,61.252948439433723]]]},"properties":{"OBJECTID":54,"GlobalID":"{69E33C74-4BCE-4D8B-83E0-C57D9234E5B1}","INDX":11411,"INDSEC2":307212,"MTR":"S013N004W","SECTION":2,"MTRS":"S013N004W02","MER":"S","CREATED_US":" ","CREATED_DA":" ","LAST_EDITE":" ","LAST_EDI_1":" ","Shape_Leng":6437.9078313012051,"Shape_Length":6437.9078313012051,"Shape_Area":2590381.5130403531}},{"type":"Feature","id":55,"geometry":{"type":"Polygon","coordinates":[[[-150.01775219384197,61.296274453835004],[-150.04777502867515,61.296273770930313],[-150.04770670386526,61.281832301880982],[-150.01769781450196,61.281833061923386],[-150.01775219384197,61.296274453835004]]]},"properties":{"OBJECTID":55,"GlobalID":"{274BE912-BCC4-4E37-8B70-1AD568CB36D3}","INDX":11412,"INDSEC2":307222,"MTR":"S014N004W","SECTION":20,"MTRS":"S014N004W20","MER":"S","CREATED_US":" ","CREATED_DA":" ","LAST_EDITE":" ","LAST_EDI_1":" ","Shape_Leng":6437.1878808387464,"Shape_Length":6437.1878808387464,"Shape_Area":2589796.8560953708}},{"type":"Feature","id":56,"geometry":{"type":"Polygon","coordinates":[[[-149.98772749588417,61.296274590688917],[-150.01775219384197,61.296274453835004],[-150.01769781450196,61.281833061923386],[-149.98768671338613,61.281833164986885],[-149.98772749588417,61.296274590688917]]]},"properties":{"OBJECTID":56,"GlobalID":"{A55B5000-8BE8-4510-A70B-46C87268B375}","INDX":11412,"INDSEC2":307223,"MTR":"S014N004W","SECTION":21,"MTRS":"S014N004W21","MER":"S","CREATED_US":" ","CREATED_DA":" ","LAST_EDITE":" ","LAST_EDI_1":" ","Shape_Leng":6437.3980083021725,"Shape_Length":6437.3980083021725,"Shape_Area":2589968.4959388054}},{"type":"Feature","id":57,"geometry":{"type":"Polygon","coordinates":[[[-149.95770080722767,61.296274144457577],[-149.98772749588417,61.296274590688917],[-149.98768671338613,61.281833164986885],[-149.95767327168105,61.281832571972146],[-149.95770080722767,61.296274144457577]]]},"properties":{"OBJECTID":57,"GlobalID":"{1FA618E2-D5C2-44BB-9973-DD7F70D6BB97}","INDX":11412,"INDSEC2":307224,"MTR":"S014N004W","SECTION":22,"MTRS":"S014N004W22","MER":"S","CREATED_US":" ","CREATED_DA":" ","LAST_EDITE":" ","LAST_EDI_1":" ","Shape_Leng":6437.6476582337491,"Shape_Length":6437.6476582337491,"Shape_Area":2590171.4188055075}},{"type":"Feature","id":58,"geometry":{"type":"Polygon","coordinates":[[[-149.89764742417952,61.296273251830272],[-149.92767411372168,61.296273698025978],[-149.92765982959273,61.281831978066165],[-149.89764638659764,61.281831383431886],[-149.89764742417952,61.296273251830272]]]},"properties":{"OBJECTID":58,"GlobalID":"{1ED9E29A-D541-4FD9-A046-870CBE17AA78}","INDX":11412,"INDSEC2":307225,"MTR":"S014N004W","SECTION":24,"MTRS":"S014N004W24","MER":"S","CREATED_US":" ","CREATED_DA":" ","LAST_EDITE":" ","LAST_EDI_1":" ","Shape_Leng":6437.7119285899589,"Shape_Length":6437.7119285899589,"Shape_Area":2590224.6047048345}},{"type":"Feature","id":59,"geometry":{"type":"Polygon","coordinates":[[[-150.07705675820162,61.281831559362082],[-150.10706564617152,61.281830799281245],[-150.1070522052548,61.267389141744239],[-150.07705724253168,61.267389978822685],[-150.07705675820162,61.281831559362082]]]},"properties":{"OBJECTID":59,"GlobalID":"{23576D10-B300-47D8-A0D8-C36BB58E7904}","INDX":11444,"INDSEC2":300921,"MTR":"S014N005W","SECTION":25,"MTRS":"S014N005W25","MER":"S","CREATED_US":" ","CREATED_DA":" ","LAST_EDITE":" ","LAST_EDI_1":" ","Shape_Leng":6437.2004572892311,"Shape_Length":6437.2004572892311,"Shape_Area":2589811.8021335448}},{"type":"Feature","id":60,"geometry":{"type":"Polygon","coordinates":[[[-150.10706564617152,61.281830799281245],[-150.13707426981208,61.28182995869382],[-150.1370469011942,61.267388216408953],[-150.1070522052548,61.267389141744239],[-150.10706564617152,61.281830799281245]]]},"properties":{"OBJECTID":60,"GlobalID":"{D7E16D75-CFA7-40B2-BB84-F3332142524D}","INDX":11444,"INDSEC2":300922,"MTR":"S014N005W","SECTION":26,"MTRS":"S014N005W26","MER":"S","CREATED_US":" ","CREATED_DA":" ","LAST_EDITE":" ","LAST_EDI_1":" ","Shape_Leng":6437.1909125660068,"Shape_Length":6437.1909125660068,"Shape_Area":2589803.5277603706}},{"type":"Feature","id":61,"geometry":{"type":"Polygon","coordinates":[[[-150.13707426981208,61.28182995869382],[-150.16708233424799,61.281828951550239],[-150.16704105314517,61.267387110984771],[-150.1370469011942,61.267388216408953],[-150.13707426981208,61.28182995869382]]]},"properties":{"OBJECTID":61,"GlobalID":"{E0A353DB-603D-4CAA-A773-12E58C89299B}","INDX":11444,"INDSEC2":300923,"MTR":"S014N005W","SECTION":27,"MTRS":"S014N005W27","MER":"S","CREATED_US":" ","CREATED_DA":" ","LAST_EDITE":" ","LAST_EDI_1":" ","Shape_Leng":6437.1538744541349,"Shape_Length":6437.1538744541349,"Shape_Area":2589772.5125489398}},{"type":"Feature","id":62,"geometry":{"type":"Polygon","coordinates":[[[-149.80827644262951,61.281832867077597],[-149.83828490461792,61.281832046086045],[-149.8382277362237,61.267389936372112],[-149.80823254824384,61.267390672301403],[-149.80827644262951,61.281832867077597]]]},"properties":{"OBJECTID":62,"GlobalID":"{BDD8D047-763A-494B-9E71-147B83FE4B57}","INDX":11380,"INDSEC2":300530,"MTR":"S014N003W","SECTION":28,"MTRS":"S014N003W28","MER":"S","CREATED_US":" ","CREATED_DA":" ","LAST_EDITE":" ","LAST_EDI_1":" ","Shape_Leng":6437.3133358454743,"Shape_Length":6437.3133358454743,"Shape_Area":2589898.875753935}},{"type":"Feature","id":63,"geometry":{"type":"Polygon","coordinates":[[[-149.83828490461792,61.281832046086045],[-149.86829336379995,61.281831224392988],[-149.86822292189987,61.267389199847464],[-149.8382277362237,61.267389936372112],[-149.83828490461792,61.281832046086045]]]},"properties":{"OBJECTID":63,"GlobalID":"{5D0C563D-5FE3-488B-8ABC-D33044F2B789}","INDX":11380,"INDSEC2":300531,"MTR":"S014N003W","SECTION":29,"MTRS":"S014N003W29","MER":"S","CREATED_US":" ","CREATED_DA":" ","LAST_EDITE":" ","LAST_EDI_1":" ","Shape_Leng":6437.2967865295632,"Shape_Length":6437.2967865295632,"Shape_Area":2589883.5178149156}},{"type":"Feature","id":64,"geometry":{"type":"Polygon","coordinates":[[[-149.86822292189987,61.267389199847464],[-149.89764535221414,61.267389482801342],[-149.89764431694582,61.252947551498579],[-149.86815255361572,61.252947144035268],[-149.86822292189987,61.267389199847464]]]},"properties":{"OBJECTID":64,"GlobalID":"{1524BB5E-54B1-4529-A45F-A2235686AF94}","INDX":11380,"INDSEC2":300532,"MTR":"S014N003W","SECTION":31,"MTRS":"S014N003W31","MER":"S","CREATED_US":" ","CREATED_DA":" ","LAST_EDITE":" ","LAST_EDI_1":" ","Shape_Leng":6380.4944107648753,"Shape_Length":6380.4944107648753,"Shape_Area":2544009.386437336}},{"type":"Feature","id":65,"geometry":{"type":"Polygon","coordinates":[[[-149.80823254824384,61.267390672301403],[-149.8382277362237,61.267389936372112],[-149.83817062382917,61.25294779523815],[-149.80818869597357,61.252948446059712],[-149.80823254824384,61.267390672301403]]]},"properties":{"OBJECTID":65,"GlobalID":"{66C79CB9-4BC8-42E5-A03D-16412B2881E9}","INDX":11380,"INDSEC2":300533,"MTR":"S014N003W","SECTION":33,"MTRS":"S014N003W33","MER":"S","CREATED_US":" ","CREATED_DA":" ","LAST_EDITE":" ","LAST_EDI_1":" ","Shape_Leng":6437.3672773904,"Shape_Length":6437.3672773904,"Shape_Area":2589942.3413336994}},{"type":"Feature","id":66,"geometry":{"type":"Polygon","coordinates":[[[-150.10707910503291,61.296272423792885],[-150.13710166339416,61.296271667792332],[-150.13707426981208,61.28182995869382],[-150.10706564617152,61.281830799281245],[-150.10707910503291,61.296272423792885]]]},"properties":{"OBJECTID":66,"GlobalID":"{7AFEC595-D22C-4874-9D56-393E4EA9E8D2}","INDX":11444,"INDSEC2":300587,"MTR":"S014N005W","SECTION":23,"MTRS":"S014N005W23","MER":"S","CREATED_US":" ","CREATED_DA":" ","LAST_EDITE":" ","LAST_EDI_1":" ","Shape_Leng":6437.2060924972557,"Shape_Length":6437.2060924972557,"Shape_Area":2589815.858963327}},{"type":"Feature","id":67,"geometry":{"type":"Polygon","coordinates":[[[-150.1070089023066,61.224063547294101],[-150.1369629334578,61.22406285418235],[-150.13693451867272,61.209620922797519],[-150.10699377450817,61.209621424089853],[-150.1070089023066,61.224063547294101]]]},"properties":{"OBJECTID":67,"GlobalID":"{EDFDD88E-0E5D-4BDD-818D-7C67440EED36}","INDX":11443,"INDSEC2":50032,"MTR":"S013N005W","SECTION":14,"MTRS":"S013N005W14","MER":"S","CREATED_US":" ","CREATED_DA":" ","LAST_EDITE":" ","LAST_EDI_1":" ","Shape_Leng":6437.3137473729803,"Shape_Length":6437.3137473729803,"Shape_Area":2589902.0467920485}},{"type":"Feature","id":68,"geometry":{"type":"Polygon","coordinates":[[[-150.04777502867515,61.296273770930313],[-150.07705627358379,61.296273106720079],[-150.07705675820162,61.281831559362082],[-150.04770670386526,61.281832301880982],[-150.04777502867515,61.296273770930313]]]},"properties":{"OBJECTID":68,"GlobalID":"{EF7770E6-1FD6-4EA1-841F-DDA9384D23D5}","INDX":11412,"INDSEC2":548773,"MTR":"S014N004W","SECTION":19,"MTRS":"S014N004W19","MER":"S","CREATED_US":" ","CREATED_DA":" ","LAST_EDITE":" ","LAST_EDI_1":" ","Shape_Leng":6362.3953877880513,"Shape_Length":6362.3953877880513,"Shape_Area":2529395.4653440402}},{"type":"Feature","id":69,"geometry":{"type":"Polygon","coordinates":[[[-149.98760527897971,61.252950216212582],[-150.01758922696175,61.252950181697081],[-150.01753228435592,61.238507979578365],[-149.98756202741387,61.238507970084655],[-149.98760527897971,61.252950216212582]]]},"properties":{"OBJECTID":69,"GlobalID":"{607C52AF-8355-4831-9DF3-5E32AD2DF393}","INDX":11411,"INDSEC2":502192,"MTR":"S013N004W","SECTION":4,"MTRS":"S013N004W04","MER":"S","CREATED_US":" ","CREATED_DA":" ","LAST_EDITE":" ","LAST_EDI_1":" ","Shape_Leng":6437.6152617920634,"Shape_Length":6437.6152617920634,"Shape_Area":2590142.3853557664}},{"type":"Feature","id":70,"geometry":{"type":"Polygon","coordinates":[[[-149.86864662843476,61.354040999638805],[-149.89765156450179,61.35404054477447],[-149.89765053013431,61.33959880195151],[-149.86857583335464,61.33959913469932],[-149.86864662843476,61.354040999638805]]]},"properties":{"OBJECTID":70,"GlobalID":"{C1ED5363-BE66-4E9E-AE54-B5E6C8AEA6BD}","INDX":11381,"INDSEC2":295530,"MTR":"S015N003W","SECTION":31,"MTRS":"S015N003W31","MER":"S","CREATED_US":" ","CREATED_DA":" ","LAST_EDITE":" ","LAST_EDI_1":" ","Shape_Leng":6327.3144919201359,"Shape_Length":6327.3144919201359,"Shape_Area":2501062.5312966751}},{"type":"Feature","id":71,"geometry":{"type":"Polygon","coordinates":[[[-149.80849655682206,61.354043495903824],[-149.8385715926029,61.354042247435672],[-149.83851414258626,61.33960029759357],[-149.80845245061843,61.339601460334123],[-149.80849655682206,61.354043495903824]]]},"properties":{"OBJECTID":71,"GlobalID":"{1777D839-F8EC-4230-80C7-EA271959636D}","INDX":11381,"INDSEC2":295531,"MTR":"S015N003W","SECTION":33,"MTRS":"S015N003W33","MER":"S","CREATED_US":" ","CREATED_DA":" ","LAST_EDITE":" ","LAST_EDI_1":" ","Shape_Leng":6437.0421513466708,"Shape_Length":6437.0421513466708,"Shape_Area":2589680.3819667022}},{"type":"Feature","id":72,"geometry":{"type":"Polygon","coordinates":[[[-149.80818869597357,61.252948446059712],[-149.83817062382917,61.25294779523815],[-149.83811431964992,61.238505711449982],[-149.80814599755777,61.238506333842537],[-149.80818869597357,61.252948446059712]]]},"properties":{"OBJECTID":72,"GlobalID":"{27ECBB44-0EF5-458F-BF12-2072EA4BA168}","INDX":11379,"INDSEC2":299849,"MTR":"S013N003W","SECTION":4,"MTRS":"S013N003W04","MER":"S","CREATED_US":" ","CREATED_DA":" ","LAST_EDITE":" ","LAST_EDI_1":" ","Shape_Leng":6437.3755922031069,"Shape_Length":6437.3755922031069,"Shape_Area":2589949.2519324245}},{"type":"Feature","id":73,"geometry":{"type":"Polygon","coordinates":[[[-149.80810369954091,61.224064018055294],[-149.83805831428975,61.224063406254814],[-149.83800236694032,61.209621071202271],[-149.80806144340735,61.209621672309233],[-149.80810369954091,61.224064018055294]]]},"properties":{"OBJECTID":73,"GlobalID":"{37E70B9E-01D1-435F-8929-4CA6FEB9A655}","INDX":11379,"INDSEC2":299851,"MTR":"S013N003W","SECTION":16,"MTRS":"S013N003W16","MER":"S","CREATED_US":" ","CREATED_DA":" ","LAST_EDITE":" ","LAST_EDI_1":" ","Shape_Leng":6437.4280311536486,"Shape_Length":6437.4280311536486,"Shape_Area":2589991.2551787165}},{"type":"Feature","id":74,"geometry":{"type":"Polygon","coordinates":[[[-149.83851414258626,61.33960029759357],[-149.86857583335464,61.33959913469932],[-149.86850510974611,61.325157105504239],[-149.83845674843863,61.325158182505817],[-149.83851414258626,61.33960029759357]]]},"properties":{"OBJECTID":74,"GlobalID":"{1A088E17-709B-44F7-8517-26BC6C17423E}","INDX":11380,"INDSEC2":297691,"MTR":"S014N003W","SECTION":5,"MTRS":"S014N003W05","MER":"S","CREATED_US":" ","CREATED_DA":" ","LAST_EDITE":" ","LAST_EDI_1":" ","Shape_Leng":6437.1096557121873,"Shape_Length":6437.1096557121873,"Shape_Area":2589732.6410221299}},{"type":"Feature","id":75,"geometry":{"type":"Polygon","coordinates":[[[-149.86857583335464,61.33959913469932],[-149.89765053013431,61.33959880195151],[-149.89764949399139,61.325156895523328],[-149.86850510974611,61.325157105504239],[-149.86857583335464,61.33959913469932]]]},"properties":{"OBJECTID":75,"GlobalID":"{25B1B18C-BD31-41C0-941F-9A9C5231AA4A}","INDX":11380,"INDSEC2":297692,"MTR":"S014N003W","SECTION":6,"MTRS":"S014N003W06","MER":"S","CREATED_US":" ","CREATED_DA":" ","LAST_EDITE":" ","LAST_EDI_1":" ","Shape_Leng":6336.2099701539937,"Shape_Length":6336.2099701539937,"Shape_Area":2508245.2193475808}},{"type":"Feature","id":76,"geometry":{"type":"Polygon","coordinates":[[[-149.86850510974611,61.325157105504239],[-149.89764949399139,61.325156895523328],[-149.897648459355,61.310715088839146],[-149.8684344585626,61.310715176240251],[-149.86850510974611,61.325157105504239]]]},"properties":{"OBJECTID":76,"GlobalID":"{AF7BD1DC-E712-426C-905B-46778082FF38}","INDX":11380,"INDSEC2":297693,"MTR":"S014N003W","SECTION":7,"MTRS":"S014N003W07","MER":"S","CREATED_US":" ","CREATED_DA":" ","LAST_EDITE":" ","LAST_EDI_1":" ","Shape_Leng":6345.0453160150992,"Shape_Length":6345.0453160150992,"Shape_Area":2515381.2539908704}},{"type":"Feature","id":77,"geometry":{"type":"Polygon","coordinates":[[[-149.80840838444772,61.325159260309185],[-149.83845674843863,61.325158182505817],[-149.83839940866162,61.310716168980306],[-149.80836436441186,61.310717160185291],[-149.80840838444772,61.325159260309185]]]},"properties":{"OBJECTID":77,"GlobalID":"{A15BA1EF-3788-4C96-ACFB-7810BA8A6C80}","INDX":11380,"INDSEC2":297694,"MTR":"S014N003W","SECTION":9,"MTRS":"S014N003W09","MER":"S","CREATED_US":" ","CREATED_DA":" ","LAST_EDITE":" ","LAST_EDI_1":" ","Shape_Leng":6437.1505264568395,"Shape_Length":6437.1505264568395,"Shape_Area":2589767.6945257946}},{"type":"Feature","id":78,"geometry":{"type":"Polygon","coordinates":[[[-149.8385715926029,61.354042247435672],[-149.86864662843476,61.354040999638805],[-149.86857583335464,61.33959913469932],[-149.83851414258626,61.33960029759357],[-149.8385715926029,61.354042247435672]]]},"properties":{"OBJECTID":78,"GlobalID":"{4E0D5942-BC55-4DE6-B12D-3C47DE35C6F9}","INDX":11381,"INDSEC2":596709,"MTR":"S015N003W","SECTION":32,"MTRS":"S015N003W32","MER":"S","CREATED_US":" ","CREATED_DA":" ","LAST_EDITE":" ","LAST_EDI_1":" ","Shape_Leng":6437.0258283943458,"Shape_Length":6437.0258283943458,"Shape_Area":2589665.2295280294}},{"type":"Feature","id":79,"geometry":{"type":"Polygon","coordinates":[[[-150.13715654397015,61.325154993662153],[-150.16720644363392,61.325154285506343],[-150.16716502937797,61.310712538248389],[-150.13712908747607,61.310713345761265],[-150.13715654397015,61.325154993662153]]]},"properties":{"OBJECTID":79,"GlobalID":"{1D2EFD26-4E9B-405F-AF39-57466BC8BDC4}","INDX":11444,"INDSEC2":653108,"MTR":"S014N005W","SECTION":10,"MTRS":"S014N005W10","MER":"S","CREATED_US":" ","CREATED_DA":" ","LAST_EDITE":" ","LAST_EDI_1":" ","Shape_Leng":6437.197994025033,"Shape_Length":6437.197994025033,"Shape_Area":2589808.3228472918}},{"type":"Feature","id":80,"geometry":{"type":"Polygon","coordinates":[[[-150.10710606689398,61.325155581082633],[-150.13715654397015,61.325154993662153],[-150.13712908747607,61.310713345761265],[-150.10709257977391,61.310714018020121],[-150.10710606689398,61.325155581082633]]]},"properties":{"OBJECTID":80,"GlobalID":"{6ED675DD-E67C-44F5-90AF-0736AEA3322B}","INDX":11444,"INDSEC2":653109,"MTR":"S014N005W","SECTION":11,"MTRS":"S014N005W11","MER":"S","CREATED_US":" ","CREATED_DA":" ","LAST_EDITE":" ","LAST_EDI_1":" ","Shape_Leng":6437.236981265929,"Shape_Length":6437.236981265929,"Shape_Area":2589840.9451016211}},{"type":"Feature","id":81,"geometry":{"type":"Polygon","coordinates":[[[-149.89764949399139,61.325156895523328],[-149.92770272554739,61.325157047005973],[-149.9276884148214,61.310715387706566],[-149.897648459355,61.310715088839146],[-149.89764949399139,61.325156895523328]]]},"properties":{"OBJECTID":81,"GlobalID":"{B591064D-BA0B-4353-9A98-C0FDD8867F7F}","INDX":11412,"INDSEC2":652055,"MTR":"S014N004W","SECTION":12,"MTRS":"S014N004W12","MER":"S","CREATED_US":" ","CREATED_DA":" ","LAST_EDITE":" ","LAST_EDI_1":" ","Shape_Leng":6437.5957091485334,"Shape_Length":6437.5957091485334,"Shape_Area":2590130.9170124405}},{"type":"Feature","id":82,"geometry":{"type":"Polygon","coordinates":[[[-149.95764576553907,61.267390964624163],[-149.98764597392821,61.267391706253228],[-149.98760527897971,61.252950216212582],[-149.95761828983194,61.252949327708301],[-149.95764576553907,61.267390964624163]]]},"properties":{"OBJECTID":82,"GlobalID":"{2D5FB226-F7C7-4F1A-AAD6-7273F18523D7}","INDX":11412,"INDSEC2":594615,"MTR":"S014N004W","SECTION":34,"MTRS":"S014N004W34","MER":"S","CREATED_US":" ","CREATED_DA":" ","LAST_EDITE":" ","LAST_EDI_1":" ","Shape_Leng":6437.7649949358729,"Shape_Length":6437.7649949358729,"Shape_Area":2590265.9660112225}},{"type":"Feature","id":83,"geometry":{"type":"Polygon","coordinates":[[[-150.1370469011942,61.267388216408953],[-150.16704105314517,61.267387110984771],[-150.16699981660474,61.252945239996421],[-150.13701956443009,61.252946444601839],[-150.1370469011942,61.267388216408953]]]},"properties":{"OBJECTID":83,"GlobalID":"{5A00FA93-3185-49B8-B271-112D0DD67AD3}","INDX":11444,"INDSEC2":312274,"MTR":"S014N005W","SECTION":34,"MTRS":"S014N005W34","MER":"S","CREATED_US":" ","CREATED_DA":" ","LAST_EDITE":" ","LAST_EDI_1":" ","Shape_Leng":6437.1390822357862,"Shape_Length":6437.1390822357862,"Shape_Area":2589760.5103042577}},{"type":"Feature","id":84,"geometry":{"type":"Polygon","coordinates":[[[-150.07705433291176,61.354039115309476],[-150.10713308531479,61.354038744240199],[-150.10711956909017,61.339597244830472],[-150.07705481813079,61.3395976950438],[-150.07705433291176,61.354039115309476]]]},"properties":{"OBJECTID":84,"GlobalID":"{0ED1437C-8445-4132-8C54-EA6B3250C9A6}","INDX":11445,"INDSEC2":309772,"MTR":"S015N005W","SECTION":36,"MTRS":"S015N005W36","MER":"S","CREATED_US":" ","CREATED_DA":" ","LAST_EDITE":" ","LAST_EDI_1":" ","Shape_Leng":6437.2801435066876,"Shape_Length":6437.2801435066876,"Shape_Area":2589876.5559145734}},{"type":"Feature","id":85,"geometry":{"type":"Polygon","coordinates":[[[-150.01780663575471,61.310715816604201],[-150.04784342683985,61.310715210769132],[-150.04777502867515,61.296273770930313],[-150.01775219384197,61.296274453835004],[-150.01780663575471,61.310715816604201]]]},"properties":{"OBJECTID":85,"GlobalID":"{3BE7EEE8-DEDD-40CA-B739-49D456E6D403}","INDX":11412,"INDSEC2":310418,"MTR":"S014N004W","SECTION":17,"MTRS":"S014N004W17","MER":"S","CREATED_US":" ","CREATED_DA":" ","LAST_EDITE":" ","LAST_EDI_1":" ","Shape_Leng":6437.2044822769685,"Shape_Length":6437.2044822769685,"Shape_Area":2589810.306377226}},{"type":"Feature","id":86,"geometry":{"type":"Polygon","coordinates":[[[-149.80814599755777,61.238506333842537],[-149.83811431964992,61.238505711449982],[-149.83805831428975,61.224063406254814],[-149.80810369954091,61.224064018055294],[-149.80814599755777,61.238506333842537]]]},"properties":{"OBJECTID":86,"GlobalID":"{499714F5-2761-4078-927F-567D5C7E47C5}","INDX":11379,"INDSEC2":695110,"MTR":"S013N003W","SECTION":9,"MTRS":"S013N003W09","MER":"S","CREATED_US":" ","CREATED_DA":" ","LAST_EDITE":" ","LAST_EDI_1":" ","Shape_Leng":6437.4252627724472,"Shape_Length":6437.4252627724472,"Shape_Area":2589989.0910995738}},{"type":"Feature","id":87,"geometry":{"type":"Polygon","coordinates":[[[-150.04798044332958,61.339598129555966],[-150.07705481813079,61.3395976950438],[-150.07705530315141,61.325156108603544],[-150.04791189692276,61.325156619676292],[-150.04798044332958,61.339598129555966]]]},"properties":{"OBJECTID":87,"GlobalID":"{46157B9C-2046-4F6A-9C4A-96AE3192C2D3}","INDX":11412,"INDSEC2":696864,"MTR":"S014N004W","SECTION":6,"MTRS":"S014N004W06","MER":"S","CREATED_US":" ","CREATED_DA":" ","LAST_EDITE":" ","LAST_EDI_1":" ","Shape_Leng":6336.0465627197382,"Shape_Length":6336.0465627197382,"Shape_Area":2508116.436665311}},{"type":"Feature","id":88,"geometry":{"type":"Polygon","coordinates":[[[-149.9276884148214,61.310715387706566],[-149.9577283661537,61.310715686495215],[-149.95770080722767,61.296274144457577],[-149.92767411372168,61.296273698025978],[-149.9276884148214,61.310715387706566]]]},"properties":{"OBJECTID":88,"GlobalID":"{E3655B44-10F7-4867-805B-0C8D3013300F}","INDX":11412,"INDSEC2":696865,"MTR":"S014N004W","SECTION":14,"MTRS":"S014N004W14","MER":"S","CREATED_US":" ","CREATED_DA":" ","LAST_EDITE":" ","LAST_EDI_1":" ","Shape_Leng":6437.6213634306869,"Shape_Length":6437.6213634306869,"Shape_Area":2590151.1706831385}},{"type":"Feature","id":89,"geometry":{"type":"Polygon","coordinates":[[[-149.98756202741387,61.238507970084655],[-150.01753228435592,61.238507979578365],[-150.01747452482817,61.224065297980026],[-149.9875179900757,61.224065243756378],[-149.98756202741387,61.238507970084655]]]},"properties":{"OBJECTID":89,"GlobalID":"{90B194D0-A9D8-44B8-A0D6-6A71B7017605}","INDX":11411,"INDSEC2":50842,"MTR":"S013N004W","SECTION":9,"MTRS":"S013N004W09","MER":"S","CREATED_US":" ","CREATED_DA":" ","LAST_EDITE":" ","LAST_EDI_1":" ","Shape_Leng":6437.7197057683989,"Shape_Length":6437.7197057683989,"Shape_Area":2590225.940524118}},{"type":"Feature","id":90,"geometry":{"type":"Polygon","coordinates":[[[-149.98789104698625,61.354040110257792],[-150.017970311299,61.354039845991885],[-150.01791569258359,61.339598578349545],[-149.98785009492229,61.339598811157053],[-149.98789104698625,61.354040110257792]]]},"properties":{"OBJECTID":90,"GlobalID":"{69ED1D55-F16B-48A9-80BF-72B91644E133}","INDX":11413,"INDSEC2":50645,"MTR":"S015N004W","SECTION":33,"MTRS":"S015N004W33","MER":"S","CREATED_US":" ","CREATED_DA":" ","LAST_EDITE":" ","LAST_EDI_1":" ","Shape_Leng":6437.3169395235764,"Shape_Length":6437.3169395235764,"Shape_Area":2589903.3726301924}},{"type":"Feature","id":91,"geometry":{"type":"Polygon","coordinates":[[[-149.92761602690175,61.238506301726233],[-149.95758902755256,61.238507136081438],[-149.95755921370778,61.22406452770371],[-149.92760043666186,61.224063811822937],[-149.92761602690175,61.238506301726233]]]},"properties":{"OBJECTID":91,"GlobalID":"{E247F97C-3692-45C5-8234-4E6A9CF313E5}","INDX":11411,"INDSEC2":50743,"MTR":"S013N004W","SECTION":11,"MTRS":"S013N004W11","MER":"S","CREATED_US":" ","CREATED_DA":" ","LAST_EDITE":" ","LAST_EDI_1":" ","Shape_Leng":6437.94834609181,"Shape_Length":6437.94834609181,"Shape_Area":2590413.6822348018}},{"type":"Feature","id":92,"geometry":{"type":"Polygon","coordinates":[[[-149.89764431694582,61.252947551498579],[-149.92763130328129,61.252948439433723],[-149.92761602690175,61.238506301726233],[-149.8976430286844,61.238505467292043],[-149.89764431694582,61.252947551498579]]]},"properties":{"OBJECTID":92,"GlobalID":"{4A155FAD-15B8-466D-B86B-412EF528A89C}","INDX":11411,"INDSEC2":307211,"MTR":"S013N004W","SECTION":1,"MTRS":"S013N004W01","MER":"S","CREATED_US":" ","CREATED_DA":" ","LAST_EDITE":" ","LAST_EDI_1":" ","Shape_Leng":6437.895004989271,"Shape_Length":6437.895004989271,"Shape_Area":2590371.9071956323}},{"type":"Feature","id":93,"geometry":{"type":"Polygon","coordinates":[[[-149.95755921370778,61.22406452770371],[-149.9875179900757,61.224065243756378],[-149.98747399973482,61.209622486680949],[-149.95752942839974,61.209621888424273],[-149.95755921370778,61.22406452770371]]]},"properties":{"OBJECTID":93,"GlobalID":"{4C7AB436-06C3-4531-B83B-FA764A8D41EB}","INDX":11411,"INDSEC2":309732,"MTR":"S013N004W","SECTION":15,"MTRS":"S013N004W15","MER":"S","CREATED_US":" ","CREATED_DA":" ","LAST_EDITE":" ","LAST_EDI_1":" ","Shape_Leng":6437.9242175092586,"Shape_Length":6437.9242175092586,"Shape_Area":2590392.7157929633}},{"type":"Feature","id":94,"geometry":{"type":"Polygon","coordinates":[[[-150.10709257977391,61.310714018020121],[-150.13712908747607,61.310713345761265],[-150.13710166339416,61.296271667792332],[-150.10707910503291,61.296272423792885],[-150.10709257977391,61.310714018020121]]]},"properties":{"OBJECTID":94,"GlobalID":"{377954B9-507D-42E7-BDB5-57D6D0F03C0C}","INDX":11444,"INDSEC2":300582,"MTR":"S014N005W","SECTION":14,"MTRS":"S014N005W14","MER":"S","CREATED_US":" ","CREATED_DA":" ","LAST_EDITE":" ","LAST_EDI_1":" ","Shape_Leng":6437.2213900236184,"Shape_Length":6437.2213900236184,"Shape_Area":2589828.282958284}},{"type":"Feature","id":95,"geometry":{"type":"Polygon","coordinates":[[[-149.8382277362237,61.267389936372112],[-149.86822292189987,61.267389199847464],[-149.86815255361572,61.252947144035268],[-149.83817062382917,61.25294779523815],[-149.8382277362237,61.267389936372112]]]},"properties":{"OBJECTID":95,"GlobalID":"{374A254A-9F3C-4C9C-9991-84268F1DC0F8}","INDX":11380,"INDSEC2":699315,"MTR":"S014N003W","SECTION":32,"MTRS":"S014N003W32","MER":"S","CREATED_US":" ","CREATED_DA":" ","LAST_EDITE":" ","LAST_EDI_1":" ","Shape_Leng":6437.3509468504544,"Shape_Length":6437.3509468504544,"Shape_Area":2589927.155941138}},{"type":"Feature","id":96,"geometry":{"type":"Polygon","coordinates":[[[-149.89765053013431,61.33959880195151],[-149.92771705193945,61.339598805209491],[-149.92770272554739,61.325157047005973],[-149.89764949399139,61.325156895523328],[-149.89765053013431,61.33959880195151]]]},"properties":{"OBJECTID":96,"GlobalID":"{5987F36B-06EB-4F4F-AB70-F1841C4D92A5}","INDX":11412,"INDSEC2":50748,"MTR":"S014N004W","SECTION":1,"MTRS":"S014N004W01","MER":"S","CREATED_US":" ","CREATED_DA":" ","LAST_EDITE":" ","LAST_EDI_1":" ","Shape_Leng":6437.5664746378352,"Shape_Length":6437.5664746378352,"Shape_Area":2590107.2255467726}},{"type":"Feature","id":97,"geometry":{"type":"Polygon","coordinates":[[[-150.01791569258359,61.339598578349545],[-150.04798044332958,61.339598129555966],[-150.04791189692276,61.325156619676292],[-150.01786113516246,61.325157147509699],[-150.01791569258359,61.339598578349545]]]},"properties":{"OBJECTID":97,"GlobalID":"{6290B8EC-06F5-4DF0-9363-DB0FDC32E8EC}","INDX":11412,"INDSEC2":50749,"MTR":"S014N004W","SECTION":5,"MTRS":"S014N004W05","MER":"S","CREATED_US":" ","CREATED_DA":" ","LAST_EDITE":" ","LAST_EDI_1":" ","Shape_Leng":6437.2658819885801,"Shape_Length":6437.2658819885801,"Shape_Area":2589859.8142991606}},{"type":"Feature","id":98,"geometry":{"type":"Polygon","coordinates":[[[-149.92767411372168,61.296273698025978],[-149.95770080722767,61.296274144457577],[-149.95767327168105,61.281832571972146],[-149.92765982959273,61.281831978066165],[-149.92767411372168,61.296273698025978]]]},"properties":{"OBJECTID":98,"GlobalID":"{220A165C-16EF-4763-B0BA-52525D89D68F}","INDX":11412,"INDSEC2":50750,"MTR":"S014N004W","SECTION":23,"MTRS":"S014N004W23","MER":"S","CREATED_US":" ","CREATED_DA":" ","LAST_EDITE":" ","LAST_EDI_1":" ","Shape_Leng":6437.6796121149837,"Shape_Length":6437.6796121149837,"Shape_Area":2590198.1162888673}},{"type":"Feature","id":99,"geometry":{"type":"Polygon","coordinates":[[[-149.83845674843863,61.325158182505817],[-149.86850510974611,61.325157105504239],[-149.8684344585626,61.310715176240251],[-149.83839940866162,61.310716168980306],[-149.83845674843863,61.325158182505817]]]},"properties":{"OBJECTID":99,"GlobalID":"{9D4645CD-462A-463F-8D63-8586BAF1A025}","INDX":11380,"INDSEC2":50113,"MTR":"S014N003W","SECTION":8,"MTRS":"S014N003W08","MER":"S","CREATED_US":" ","CREATED_DA":" ","LAST_EDITE":" ","LAST_EDI_1":" ","Shape_Leng":6437.1343736292811,"Shape_Length":6437.1343736292811,"Shape_Area":2589752.6708044251}},{"type":"Feature","id":100,"geometry":{"type":"Polygon","coordinates":[[[-150.07705724253168,61.267389978822685],[-150.1070522052548,61.267389141744239],[-150.10703877622024,61.252947453588192],[-150.07705772788901,61.252948368610518],[-150.07705724253168,61.267389978822685]]]},"properties":{"OBJECTID":100,"GlobalID":"{BB97C930-5235-4DF5-9FFB-9CBCAB424F3A}","INDX":11444,"INDSEC2":502198,"MTR":"S014N005W","SECTION":36,"MTRS":"S014N005W36","MER":"S","CREATED_US":" ","CREATED_DA":" ","LAST_EDITE":" ","LAST_EDI_1":" ","Shape_Leng":6437.1842643377167,"Shape_Length":6437.1842643377167,"Shape_Area":2589798.6502395011}},{"type":"Feature","id":101,"geometry":{"type":"Polygon","coordinates":[[[-150.07705641890152,61.238506423457792],[-150.10702404307796,61.238505640438362],[-150.1070089023066,61.224063547294101],[-150.07705453562454,61.224064132937528],[-150.07705641890152,61.238506423457792]]]},"properties":{"OBJECTID":101,"GlobalID":"{15AD032B-F18B-4D0D-A01D-7BCEA6DD7494}","INDX":11443,"INDSEC2":698279,"MTR":"S013N005W","SECTION":12,"MTRS":"S013N005W12","MER":"S","CREATED_US":" ","CREATED_DA":" ","LAST_EDITE":" ","LAST_EDI_1":" ","Shape_Leng":6437.3439389432751,"Shape_Length":6437.3439389432751,"Shape_Area":2589926.7763733119}},{"type":"Feature","id":102,"geometry":{"type":"Polygon","coordinates":[[[-150.07705530315141,61.325156108603544],[-150.10710606689398,61.325155581082633],[-150.10709257977391,61.310714018020121],[-150.07705578856726,61.310714622797363],[-150.07705530315141,61.325156108603544]]]},"properties":{"OBJECTID":102,"GlobalID":"{CEFD4B2F-2D14-4142-9DCA-B376CFFC569E}","INDX":11444,"INDSEC2":502545,"MTR":"S014N005W","SECTION":12,"MTRS":"S014N005W12","MER":"S","CREATED_US":" ","CREATED_DA":" ","LAST_EDITE":" ","LAST_EDI_1":" ","Shape_Leng":6437.2485553103697,"Shape_Length":6437.2485553103697,"Shape_Area":2589850.8812862225}},{"type":"Feature","id":103,"geometry":{"type":"Polygon","coordinates":[[[-150.10711956909017,61.339597244830472],[-150.13718403021872,61.339596742295974],[-150.13715654397015,61.325154993662153],[-150.10710606689398,61.325155581082633],[-150.10711956909017,61.339597244830472]]]},"properties":{"OBJECTID":103,"GlobalID":"{24B17262-D5AB-42B6-8E00-28D77065442B}","INDX":11444,"INDSEC2":297387,"MTR":"S014N005W","SECTION":2,"MTRS":"S014N005W02","MER":"S","CREATED_US":" ","CREATED_DA":" ","LAST_EDITE":" ","LAST_EDI_1":" ","Shape_Leng":6437.2822155373515,"Shape_Length":6437.2822155373515,"Shape_Area":2589877.3749935138}},{"type":"Feature","id":104,"geometry":{"type":"Polygon","coordinates":[[[-149.98768671338613,61.281833164986885],[-150.01769781450196,61.281833061923386],[-150.01764349238394,61.267391637022975],[-149.98764597392821,61.267391706253228],[-149.98768671338613,61.281833164986885]]]},"properties":{"OBJECTID":104,"GlobalID":"{6B7FF010-C83A-469C-8224-3432961F7215}","INDX":11412,"INDSEC2":549123,"MTR":"S014N004W","SECTION":28,"MTRS":"S014N004W28","MER":"S","CREATED_US":" ","CREATED_DA":" ","LAST_EDITE":" ","LAST_EDI_1":" ","Shape_Leng":6437.4193850764186,"Shape_Length":6437.4193850764186,"Shape_Area":2589985.6735117184}},{"type":"Feature","id":105,"geometry":{"type":"Polygon","coordinates":[[[-149.95758902755256,61.238507136081438],[-149.98756202741387,61.238507970084655],[-149.9875179900757,61.224065243756378],[-149.95755921370778,61.22406452770371],[-149.95758902755256,61.238507136081438]]]},"properties":{"OBJECTID":105,"GlobalID":"{243A1C9C-CE2E-4857-B43C-3EA95DFEAAD5}","INDX":11411,"INDSEC2":50742,"MTR":"S013N004W","SECTION":10,"MTRS":"S013N004W10","MER":"S","CREATED_US":" ","CREATED_DA":" ","LAST_EDITE":" ","LAST_EDI_1":" ","Shape_Leng":6437.9761362525251,"Shape_Length":6437.9761362525251,"Shape_Area":2590434.6924235439}},{"type":"Feature","id":106,"geometry":{"type":"Polygon","coordinates":[[[-149.92760043666186,61.224063811822937],[-149.95755921370778,61.22406452770371],[-149.95752942839974,61.209621888424273],[-149.92758485836259,61.209621290912843],[-149.92760043666186,61.224063811822937]]]},"properties":{"OBJECTID":106,"GlobalID":"{74B89EE7-FC8E-4662-9B41-B478FCD5AE9A}","INDX":11411,"INDSEC2":50744,"MTR":"S013N004W","SECTION":14,"MTRS":"S013N004W14","MER":"S","CREATED_US":" ","CREATED_DA":" ","LAST_EDITE":" ","LAST_EDI_1":" ","Shape_Leng":6437.8963345524735,"Shape_Length":6437.8963345524735,"Shape_Area":2590371.6193319708}},{"type":"Feature","id":107,"geometry":{"type":"Polygon","coordinates":[[[-150.04742888896928,61.224064711642974],[-150.07705453562454,61.224064132937528],[-150.07705265332925,61.209621812359401],[-150.04735794220028,61.20962219720743],[-150.04742888896928,61.224064711642974]]]},"properties":{"OBJECTID":107,"GlobalID":"{3EEE9775-98F6-4C47-80B5-2392D9A56282}","INDX":11411,"INDSEC2":50745,"MTR":"S013N004W","SECTION":18,"MTRS":"S013N004W18","MER":"S","CREATED_US":" ","CREATED_DA":" ","LAST_EDITE":" ","LAST_EDI_1":" ","Shape_Leng":6406.6512059569159,"Shape_Length":6406.6512059569159,"Shape_Area":2565133.0106633571}},{"type":"Feature","id":108,"geometry":{"type":"Polygon","coordinates":[[[-150.1070522052548,61.267389141744239],[-150.1370469011942,61.267388216408953],[-150.13701956443009,61.252946444601839],[-150.10703877622024,61.252947453588192],[-150.1070522052548,61.267389141744239]]]},"properties":{"OBJECTID":108,"GlobalID":"{3CB56E0F-FEE6-4ADA-8D08-A918697BE452}","INDX":11444,"INDSEC2":312275,"MTR":"S014N005W","SECTION":35,"MTRS":"S014N005W35","MER":"S","CREATED_US":" ","CREATED_DA":" ","LAST_EDITE":" ","LAST_EDI_1":" ","Shape_Leng":6437.1749224053974,"Shape_Length":6437.1749224053974,"Shape_Area":2589790.5472451299}},{"type":"Feature","id":109,"geometry":{"type":"Polygon","coordinates":[[[-150.13721154306876,61.354038326587506],[-150.16728940379204,61.354037818222785],[-150.16724790044049,61.339596133489628],[-150.13718403021872,61.339596742295974],[-150.13721154306876,61.354038326587506]]]},"properties":{"OBJECTID":109,"GlobalID":"{450B6467-BCC8-4502-B8D2-83E012918F35}","INDX":11445,"INDSEC2":312287,"MTR":"S015N005W","SECTION":34,"MTRS":"S015N005W34","MER":"S","CREATED_US":" ","CREATED_DA":" ","LAST_EDITE":" ","LAST_EDI_1":" ","Shape_Leng":6437.2268285917798,"Shape_Length":6437.2268285917798,"Shape_Area":2589831.734854707}},{"type":"Feature","id":110,"geometry":{"type":"Polygon","coordinates":[[[-150.10713308531479,61.354038744240199],[-150.13721154306876,61.354038326587506],[-150.13718403021872,61.339596742295974],[-150.10711956909017,61.339597244830472],[-150.10713308531479,61.354038744240199]]]},"properties":{"OBJECTID":110,"GlobalID":"{F3DB9F6E-5305-4DC3-B9C5-7EC72026CB51}","INDX":11445,"INDSEC2":312288,"MTR":"S015N005W","SECTION":35,"MTRS":"S015N005W35","MER":"S","CREATED_US":" ","CREATED_DA":" ","LAST_EDITE":" ","LAST_EDI_1":" ","Shape_Leng":6437.268034937254,"Shape_Length":6437.268034937254,"Shape_Area":2589866.1715745102}},{"type":"Feature","id":111,"geometry":{"type":"Polygon","coordinates":[[[-150.01786113516246,61.325157147509699],[-150.04791189692276,61.325156619676292],[-150.04784342683985,61.310715210769132],[-150.01780663575471,61.310715816604201],[-150.01786113516246,61.325157147509699]]]},"properties":{"OBJECTID":111,"GlobalID":"{A6BF3BC2-7E4C-4E30-B3E8-F39A0A4CCFD7}","INDX":11412,"INDSEC2":310077,"MTR":"S014N004W","SECTION":8,"MTRS":"S014N004W08","MER":"S","CREATED_US":" ","CREATED_DA":" ","LAST_EDITE":" ","LAST_EDI_1":" ","Shape_Leng":6437.220354509609,"Shape_Length":6437.220354509609,"Shape_Area":2589823.1721072453}},{"type":"Feature","id":112,"geometry":{"type":"Polygon","coordinates":[[[-149.98780918638067,61.325157347816429],[-150.01786113516246,61.325157147509699],[-150.01780663575471,61.310715816604201],[-149.98776832136789,61.310715985259883],[-149.98780918638067,61.325157347816429]]]},"properties":{"OBJECTID":112,"GlobalID":"{A99224C9-4842-417F-94C7-595A500F2BA5}","INDX":11412,"INDSEC2":310078,"MTR":"S014N004W","SECTION":9,"MTRS":"S014N004W09","MER":"S","CREATED_US":" ","CREATED_DA":" ","LAST_EDITE":" ","LAST_EDI_1":" ","Shape_Leng":6437.3571213903861,"Shape_Length":6437.3571213903861,"Shape_Area":2589935.6462135706}},{"type":"Feature","id":113,"geometry":{"type":"Polygon","coordinates":[[[-149.83817062382917,61.25294779523815],[-149.86815255361572,61.252947144035268],[-149.86808264394998,61.238505089823278],[-149.83811431964992,61.238505711449982],[-149.83817062382917,61.25294779523815]]]},"properties":{"OBJECTID":113,"GlobalID":"{EB17B62C-148D-4610-BF6C-9C899DA0BF83}","INDX":11379,"INDSEC2":296651,"MTR":"S013N003W","SECTION":5,"MTRS":"S013N003W05","MER":"S","CREATED_US":" ","CREATED_DA":" ","LAST_EDITE":" ","LAST_EDI_1":" ","Shape_Leng":6437.3721050661898,"Shape_Length":6437.3721050661898,"Shape_Area":2589944.3338994035}},{"type":"Feature","id":114,"geometry":{"type":"Polygon","coordinates":[[[-149.86815255361572,61.252947144035268],[-149.89764431694582,61.252947551498579],[-149.8976430286844,61.238505467292043],[-149.86808264394998,61.238505089823278],[-149.86815255361572,61.252947144035268]]]},"properties":{"OBJECTID":114,"GlobalID":"{9072FD51-41B3-42EA-AA7A-540FCE0F9E47}","INDX":11379,"INDSEC2":296652,"MTR":"S013N003W","SECTION":6,"MTRS":"S013N003W06","MER":"S","CREATED_US":" ","CREATED_DA":" ","LAST_EDITE":" ","LAST_EDI_1":" ","Shape_Leng":6389.3295106827372,"Shape_Length":6389.3295106827372,"Shape_Area":2551144.5162420985}},{"type":"Feature","id":115,"geometry":{"type":"Polygon","coordinates":[[[-149.86808264394998,61.238505089823278],[-149.8976430286844,61.238505467292043],[-149.89764166041491,61.224063095439554],[-149.86801293160588,61.224062795521448],[-149.86808264394998,61.238505089823278]]]},"properties":{"OBJECTID":115,"GlobalID":"{270F1B35-F5FB-4BFE-90C8-59FF74D605CE}","INDX":11379,"INDSEC2":296653,"MTR":"S013N003W","SECTION":7,"MTRS":"S013N003W07","MER":"S","CREATED_US":" ","CREATED_DA":" ","LAST_EDITE":" ","LAST_EDI_1":" ","Shape_Leng":6398.1603315660568,"Shape_Length":6398.1603315660568,"Shape_Area":2558275.6229409613}},{"type":"Feature","id":116,"geometry":{"type":"Polygon","coordinates":[[[-150.07705772788901,61.252948368610518],[-150.10703877622024,61.252947453588192],[-150.10702404307796,61.238505640438362],[-150.07705641890152,61.238506423457792],[-150.07705772788901,61.252948368610518]]]},"properties":{"OBJECTID":116,"GlobalID":"{91B13E5C-DB4B-4EE6-9E19-D166AB9830E3}","INDX":11443,"INDSEC2":299537,"MTR":"S013N005W","SECTION":1,"MTRS":"S013N005W01","MER":"S","CREATED_US":" ","CREATED_DA":" ","LAST_EDITE":" ","LAST_EDI_1":" ","Shape_Leng":6437.2380488972403,"Shape_Length":6437.2380488972403,"Shape_Area":2589841.7219920103}},{"type":"Feature","id":117,"geometry":{"type":"Polygon","coordinates":[[[-150.13699137500163,61.238504756447014],[-150.16695810426899,61.238503661729084],[-150.16691626908178,61.224061937127544],[-150.1369629334578,61.22406285418235],[-150.13699137500163,61.238504756447014]]]},"properties":{"OBJECTID":117,"GlobalID":"{3230311F-9E2A-408D-8F0D-8364BB8DD8C8}","INDX":11443,"INDSEC2":297378,"MTR":"S013N005W","SECTION":10,"MTRS":"S013N005W10","MER":"S","CREATED_US":" ","CREATED_DA":" ","LAST_EDITE":" ","LAST_EDI_1":" ","Shape_Leng":6437.1584568423368,"Shape_Length":6437.1584568423368,"Shape_Area":2589775.9877644056}},{"type":"Feature","id":118,"geometry":{"type":"Polygon","coordinates":[[[-150.10702404307796,61.238505640438362],[-150.13699137500163,61.238504756447014],[-150.1369629334578,61.22406285418235],[-150.1070089023066,61.224063547294101],[-150.10702404307796,61.238505640438362]]]},"properties":{"OBJECTID":118,"GlobalID":"{834A4BCC-4A02-4539-A50E-2265FCC880A4}","INDX":11443,"INDSEC2":297379,"MTR":"S013N005W","SECTION":11,"MTRS":"S013N005W11","MER":"S","CREATED_US":" ","CREATED_DA":" ","LAST_EDITE":" ","LAST_EDI_1":" ","Shape_Leng":6437.2677079685445,"Shape_Length":6437.2677079685445,"Shape_Area":2589864.9585201582}},{"type":"Feature","id":119,"geometry":{"type":"Polygon","coordinates":[[[-150.13718403021872,61.339596742295974],[-150.16724790044049,61.339596133489628],[-150.16720644363392,61.325154285506343],[-150.13715654397015,61.325154993662153],[-150.13718403021872,61.339596742295974]]]},"properties":{"OBJECTID":119,"GlobalID":"{CC35CF65-B086-4221-92B4-C20EA298CE54}","INDX":11444,"INDSEC2":297388,"MTR":"S014N005W","SECTION":3,"MTRS":"S014N005W03","MER":"S","CREATED_US":" ","CREATED_DA":" ","LAST_EDITE":" ","LAST_EDI_1":" ","Shape_Leng":6437.2419130997523,"Shape_Length":6437.2419130997523,"Shape_Area":2589843.6794691049}},{"type":"Feature","id":120,"geometry":{"type":"Polygon","coordinates":[[[-150.07705578856726,61.310714622797363],[-150.10709257977391,61.310714018020121],[-150.10707910503291,61.296272423792885],[-150.07705627358379,61.296273106720079],[-150.07705578856726,61.310714622797363]]]},"properties":{"OBJECTID":120,"GlobalID":"{FFD0B388-5D4E-48DC-8267-7FBC08BD85AF}","INDX":11444,"INDSEC2":297391,"MTR":"S014N005W","SECTION":13,"MTRS":"S014N005W13","MER":"S","CREATED_US":" ","CREATED_DA":" ","LAST_EDITE":" ","LAST_EDI_1":" ","Shape_Leng":6437.2322681331298,"Shape_Length":6437.2322681331298,"Shape_Area":2589837.6493771384}}]}